{"type":"FeatureCollection","features":[{"type":"Feature","properties":{"id":"albero-01","scheda":"01/G273/PA/19","nome":"Fico magnolioide","specie":"Ficus macrophylla Desf. ex Pers.","insieme":false,"localita":"Via Notarbartolo 23","altitudine":25,"circonferenza":291,"altezza":14.5,"criteri":["valore storico, culturale, religioso"],"dichiarato":false},"geometry":{"type":"Point","coordinates":[13.345678,38.132783]}},{"type":"Feature","properties":{"id":"albero-02","scheda":"02/G273/PA/19","nome":"Olivo","specie":"Olea europaea L.","insieme":false,"localita":"Pallavicino - Via Cesenatico","altitudine":60,"circonferenza":818,"altezza":10.5,"criteri":["età e/o dimensioni","valore ecologico"],"dichiarato":true},"geometry":{"type":"Point","coordinates":[13.335303,38.170125]}},{"type":"Feature","properties":{"id":"albero-03","scheda":"03/G273/PA/19","nome":"Fico magnolioide","specie":"Ficus macrophylla Desf. ex Pers.","insieme":false,"localita":"Villa Garibaldi - Piazza Marina","altitudine":7,"circonferenza":3600,"altezza":21,"criteri":["età e/o dimensioni","forma e portamento","valore ecologico","rarità botanica","architettura vegetale","valore storico, culturale, religioso"],"dichiarato":true},"geometry":{"type":"Point","coordinates":[13.369553,38.117539]}},{"type":"Feature","properties":{"id":"albero-04","scheda":"04/G273/PA/19","nome":"Cipresso comune","specie":"Cupressus sempervirens L.","insieme":false,"localita":"Santuario di Santa Maria di Gesu'","altitudine":190,"circonferenza":350,"altezza":23,"criteri":["età e/o dimensioni","valore storico, culturale, religioso"],"dichiarato":false},"geometry":{"type":"Point","coordinates":[13.379467,38.083011]}},{"type":"Feature","properties":{"id":"albero-05","scheda":"05/G273/PA/19","nome":"Platano comune","specie":"Platanus acerifolia (Aiton) Willd.","insieme":false,"localita":"Via Piano dell'Ucciardone","altitudine":3,"circonferenza":420,"altezza":28,"criteri":["età e/o dimensioni","forma e portamento"],"dichiarato":false},"geometry":{"type":"Point","coordinates":[13.359642,38.132356]}},{"type":"Feature","properties":{"id":"albero-06","scheda":"06/G273/PA/19","nome":"Pino del Queensland","specie":"Araucaria bidwillii Hook.","insieme":false,"localita":"Villa Trabia alle Terre Rosse","altitudine":24,"circonferenza":222,"altezza":23,"criteri":["rarità botanica"],"dichiarato":false},"geometry":{"type":"Point","coordinates":[13.346953,38.129458]}},{"type":"Feature","properties":{"id":"albero-07","scheda":"07/G273/PA/19","nome":"Fico magnolioide","specie":"Ficus macrophylla Desf. ex Pers.","insieme":false,"localita":"Villa Trabia alle Terre Rosse","altitudine":17,"circonferenza":480,"altezza":20,"criteri":["età e/o dimensioni","forma e portamento","valore ecologico","rarità botanica"],"dichiarato":false},"geometry":{"type":"Point","coordinates":[13.348642,38.129858]}},{"type":"Feature","properties":{"id":"albero-08","scheda":"08/G273/PA/19","nome":"Fico magnolioide","specie":"Ficus macrophylla Desf. ex Pers.","insieme":false,"localita":"Villa Trabia alle Terre Rosse","altitudine":25,"circonferenza":680,"altezza":20,"criteri":["età e/o dimensioni","forma e portamento","valore ecologico","rarità botanica"],"dichiarato":false},"geometry":{"type":"Point","coordinates":[13.346494,38.129519]}},{"type":"Feature","properties":{"id":"albero-09","scheda":"09/G273/PA/19","nome":"Albero del drago","specie":"Dracaena draco L.","insieme":false,"localita":"Villa Malfitano Whitaker","altitudine":39,"circonferenza":590,"altezza":12,"criteri":["età e/o dimensioni","rarità botanica"],"dichiarato":false},"geometry":{"type":"Point","coordinates":[13.341944,38.124167]}},{"type":"Feature","properties":{"id":"albero-10","scheda":"10/G273/PA/19","nome":"Fico magnolioide","specie":"Ficus macrophylla Desf. ex Pers.","insieme":false,"localita":"Villa Malfitano Whitaker","altitudine":38,"circonferenza":2100,"altezza":16,"criteri":["età e/o dimensioni","forma e portamento","valore ecologico","rarità botanica","architettura vegetale"],"dichiarato":false},"geometry":{"type":"Point","coordinates":[13.341453,38.122858]}},{"type":"Feature","properties":{"id":"albero-11","scheda":"11/G273/PA/19","nome":"Pianta mangiafumo","specie":"Nolina longifolia (Karw. ex Shult. & Shult.f.) Hemsl","insieme":false,"localita":"Villa Malfitano Whitaker - Via Dante 167","altitudine":38,"circonferenza":410,"altezza":7,"criteri":["rarità botanica"],"dichiarato":false},"geometry":{"type":"Point","coordinates":[13.341636,38.1237]}},{"type":"Feature","properties":{"id":"albero-12","scheda":"12/G273/PA/19","nome":"Yucca","specie":"Yucca gigantea Lem.","insieme":false,"localita":"Villa Malfitano Whitaker - Via Dante 167","altitudine":37,"circonferenza":560,"altezza":12,"criteri":["età e/o dimensioni","rarità botanica"],"dichiarato":false},"geometry":{"type":"Point","coordinates":[13.341864,38.122083]}},{"type":"Feature","properties":{"id":"albero-13","scheda":"13/G273/PA/19","nome":"Palma messicana","specie":"Washingtonia robusta H. Wendl.","insieme":true,"localita":"Villa Giulia","altitudine":5,"circonferenza":160,"altezza":20,"criteri":["età e/o dimensioni","rarità botanica","architettura vegetale","valore storico, culturale, religioso"],"dichiarato":false},"geometry":{"type":"Point","coordinates":[13.374956,38.114183]}},{"type":"Feature","properties":{"id":"albero-14","scheda":"14/G273/PA/19","nome":"Fico magnolioide","specie":"Ficus macrophylla Desf. ex Pers.","insieme":false,"localita":"Giardino Inglese","altitudine":18,"circonferenza":820,"altezza":11,"criteri":["età e/o dimensioni","valore ecologico","rarità botanica"],"dichiarato":false},"geometry":{"type":"Point","coordinates":[13.351822,38.131489]}},{"type":"Feature","properties":{"id":"albero-15","scheda":"15/G273/PA/19","nome":"Fitolacca arborea","specie":"Phytolacca dioica L.","insieme":false,"localita":"Giardino Inglese","altitudine":16,"circonferenza":410,"altezza":10,"criteri":["età e/o dimensioni","valore ecologico","rarità botanica"],"dichiarato":false},"geometry":{"type":"Point","coordinates":[13.351092,38.133342]}},{"type":"Feature","properties":{"id":"albero-17","scheda":"17/G273/PA/19","nome":"Fico magnolioide","specie":"Ficus macrophylla Desf. ex Pers.","insieme":false,"localita":"Palazzo Pantelleria - Piazza Giovanni Meli","altitudine":9,"circonferenza":1010,"altezza":17,"criteri":["età e/o dimensioni","rarità botanica","architettura vegetale","valore storico, culturale, religioso"],"dichiarato":false},"geometry":{"type":"Point","coordinates":[13.364272,38.119631]}},{"type":"Feature","properties":{"id":"albero-18","scheda":"18/G273/PA/19","nome":"Fico bianco","specie":"Ficus virens Aiton","insieme":false,"localita":"Piazza Virgilio","altitudine":26,"circonferenza":1000,"altezza":20,"criteri":["età e/o dimensioni","valore ecologico","rarità botanica"],"dichiarato":false},"geometry":{"type":"Point","coordinates":[13.348792,38.123628]}},{"type":"Feature","properties":{"id":"albero-19","scheda":"19/G273/PA/19","nome":"Palma californiana","specie":"Washingtonia filifera (Linden ex André) H. Wendl. ex de Bary","insieme":false,"localita":"Via Claudio Monteverdi","altitudine":35,"circonferenza":235,"altezza":16,"criteri":["pregio paesaggistico"],"dichiarato":false},"geometry":{"type":"Point","coordinates":[13.341128,38.128781]}},{"type":"Feature","properties":{"id":"albero-20","scheda":"20/G273/PA/19","nome":"Olivo","specie":"Olea europaea L.","insieme":false,"localita":"Via Ugo La Malfa 169","altitudine":52,"circonferenza":730,"altezza":15,"criteri":["età e/o dimensioni","valore ecologico"],"dichiarato":false},"geometry":{"type":"Point","coordinates":[13.307683,38.1662]}},{"type":"Feature","properties":{"id":"albero-21","scheda":"21/G273/PA/19","nome":"Olivo","specie":"Olea europaea L.","insieme":false,"localita":"Via Ugo La Malfa 169","altitudine":52,"circonferenza":830,"altezza":15,"criteri":["età e/o dimensioni","valore ecologico"],"dichiarato":false},"geometry":{"type":"Point","coordinates":[13.307856,38.166275]}},{"type":"Feature","properties":{"id":"albero-22","scheda":"22/G273/PA/19","nome":"Pianta mangiafumo","specie":"Nolina longifolia (Karw. ex Shult. & Shult.f.) Hemsl","insieme":false,"localita":"Vivai Lo Porto - Corso Calatafimi 262","altitudine":51,"circonferenza":280,"altezza":8,"criteri":["età e/o dimensioni","rarità botanica"],"dichiarato":false},"geometry":{"type":"Point","coordinates":[13.338186,38.105475]}},{"type":"Feature","properties":{"id":"albero-23","scheda":"23/G273/PA/19","nome":"Pianta mangiafumo","specie":"Nolina longifolia (Karw. ex Shult. & Shult.f.) Hemsl","insieme":false,"localita":"Vivai Lo Porto","altitudine":51,"circonferenza":500,"altezza":8,"criteri":["età e/o dimensioni","rarità botanica"],"dichiarato":false},"geometry":{"type":"Point","coordinates":[13.338158,38.105497]}},{"type":"Feature","properties":{"id":"albero-24","scheda":"24/G273/PA/19","nome":"Albero del drago","specie":"Dracaena draco L.","insieme":false,"localita":"Vivai Lo Porto","altitudine":51,"circonferenza":700,"altezza":7,"criteri":["età e/o dimensioni","rarità botanica"],"dichiarato":false},"geometry":{"type":"Point","coordinates":[13.338656,38.105297]}},{"type":"Feature","properties":{"id":"albero-25","scheda":"25/G273/PA/19","nome":"Albero del fuoco","specie":"Sterculia acerifolia A. Cunn. Ex D. Don","insieme":false,"localita":"Vivai Lo Porto","altitudine":51,"circonferenza":450,"altezza":20,"criteri":["età e/o dimensioni","rarità botanica"],"dichiarato":false},"geometry":{"type":"Point","coordinates":[13.338078,38.105936]}},{"type":"Feature","properties":{"id":"albero-26","scheda":"26/G273/PA/19","nome":"Palma da datteri","specie":"Phoenix dactylifera L.","insieme":true,"localita":"Villa Bonanno - Piazza Vittoria","altitudine":33,"circonferenza":250,"altezza":25,"criteri":["età e/o dimensioni","rarità botanica","architettura vegetale","valore storico, culturale, religioso"],"dichiarato":true},"geometry":{"type":"Point","coordinates":[13.3553,38.112417]}},{"type":"Feature","properties":{"id":"albero-27","scheda":"27/G273/PA/19","nome":"Fico magnolioide","specie":"Ficus macrophylla Desf. ex Pers.","insieme":false,"localita":"Zen - Viale Sandro Pertini 710","altitudine":22,"circonferenza":3400,"altezza":25,"criteri":["età e/o dimensioni","forma e portamento","valore ecologico","rarità botanica"],"dichiarato":true},"geometry":{"type":"Point","coordinates":[13.320964,38.183042]}},{"type":"Feature","properties":{"id":"albero-28","scheda":"28/G273/PA/19","nome":"Albero del drago","specie":"Dracaena draco L.","insieme":false,"localita":"Palazzina Cinese - Via Duca degli Abruzzi","altitudine":63,"circonferenza":600,"altezza":7,"criteri":["età e/o dimensioni","rarità botanica"],"dichiarato":false},"geometry":{"type":"Point","coordinates":[13.330883,38.1665]}},{"type":"Feature","properties":{"id":"albero-29","scheda":"29/G273/PA/19","nome":"Ficus a frutti piccoli","specie":"Ficus microcarpa L.","insieme":false,"localita":"Villa Niscemi","altitudine":40,"circonferenza":420,"altezza":18,"criteri":["età e/o dimensioni","rarità botanica"],"dichiarato":false},"geometry":{"type":"Point","coordinates":[13.334544,38.164239]}},{"type":"Feature","properties":{"id":"albero-30","scheda":"30/G273/PA/19","nome":"Fico magnolioide","specie":"Ficus macrophylla Desf. ex Pers.","insieme":false,"localita":"Villa Niscemi","altitudine":50,"circonferenza":3600,"altezza":8,"criteri":["età e/o dimensioni","rarità botanica"],"dichiarato":false},"geometry":{"type":"Point","coordinates":[13.333533,38.163994]}},{"type":"Feature","properties":{"id":"albero-31","scheda":"31/G273/PA/19","nome":"Ficus a frutti piccoli","specie":"Ficus microcarpa L.","insieme":false,"localita":"Villa Niscemi","altitudine":50,"circonferenza":560,"altezza":20,"criteri":["età e/o dimensioni","rarità botanica"],"dichiarato":false},"geometry":{"type":"Point","coordinates":[13.333889,38.164167]}},{"type":"Feature","properties":{"id":"albero-32","scheda":"32/G273/PA/19","nome":"Albero del drago","specie":"Dracaena draco L.","insieme":false,"localita":"Villa Niscemi","altitudine":50,"circonferenza":250,"altezza":8,"criteri":["età e/o dimensioni","valore ecologico","rarità botanica"],"dichiarato":false},"geometry":{"type":"Point","coordinates":[13.333406,38.163656]}},{"type":"Feature","properties":{"id":"albero-33","scheda":"33/G273/PA/19","nome":"Noce Pecan","specie":"Carya illinoinensis (Wangenh.) K. Koch","insieme":false,"localita":"Orto Botanico","altitudine":10,"circonferenza":560,"altezza":30,"criteri":["età e/o dimensioni","rarità botanica"],"dichiarato":false},"geometry":{"type":"Point","coordinates":[13.373081,38.112394]}},{"type":"Feature","properties":{"id":"albero-34","scheda":"34/G273/PA/19","nome":"Falso kapok","specie":"Ceiba speciosa (A.St.-Hil, A.Juss & Cambess.) syn Chorisia speciosa A. St. Hill","insieme":false,"localita":"Orto Botanico","altitudine":10,"circonferenza":380,"altezza":15,"criteri":["età e/o dimensioni","forma e portamento","rarità botanica"],"dichiarato":false},"geometry":{"type":"Point","coordinates":[13.373458,38.112572]}},{"type":"Feature","properties":{"id":"albero-35","scheda":"35/G273/PA/19","nome":"Melaleuca glabra","specie":"Melaleuca glaberrima F. Muel","insieme":false,"localita":"Orto Botanico","altitudine":10,"circonferenza":210,"altezza":4,"criteri":["età e/o dimensioni","forma e portamento","rarità botanica"],"dichiarato":false},"geometry":{"type":"Point","coordinates":[13.37355,38.112456]}},{"type":"Feature","properties":{"id":"albero-36","scheda":"36/G273/PA/19","nome":"Fico magnolioide","specie":"Ficus macrophylla Desf. ex Pers.","insieme":false,"localita":"Orto Botanico","altitudine":10,"circonferenza":2400,"altezza":25,"criteri":["età e/o dimensioni","forma e portamento","valore ecologico","rarità botanica"],"dichiarato":true},"geometry":{"type":"Point","coordinates":[13.374717,38.111042]}},{"type":"Feature","properties":{"id":"albero-37","scheda":"37/G273/PA/19","nome":"Albero del drago","specie":"Dracaena draco L.","insieme":false,"localita":"Orto Botanico","altitudine":15,"circonferenza":300,"altezza":8,"criteri":["età e/o dimensioni","forma e portamento","rarità botanica"],"dichiarato":false},"geometry":{"type":"Point","coordinates":[13.3732,38.111431]}},{"type":"Feature","properties":{"id":"albero-38","scheda":"38/G273/PA/19","nome":"Cycas","specie":"Cycas revoluta Thunb.","insieme":false,"localita":"Orto Botanico","altitudine":10,"circonferenza":220,"altezza":8,"criteri":["età e/o dimensioni","rarità botanica"],"dichiarato":false},"geometry":{"type":"Point","coordinates":[13.3733,38.112483]}},{"type":"Feature","properties":{"id":"albero-39","scheda":"39/G273/PA/19","nome":"Pino colonna","specie":"Araucaria columnaris (G. Forst) Hook","insieme":false,"localita":"Orto Botanico","altitudine":10,"circonferenza":340,"altezza":36,"criteri":["età e/o dimensioni","rarità botanica"],"dichiarato":false},"geometry":{"type":"Point","coordinates":[13.374517,38.111642]}},{"type":"Feature","properties":{"id":"albero-40","scheda":"40/G273/PA/19","nome":"Fico magnolioide","specie":"Ficus macrophylla Desf. ex Pers.","insieme":false,"localita":"Villa Tasca - Viale Regione Siciliana","altitudine":89,"circonferenza":2730,"altezza":30,"criteri":["età e/o dimensioni","valore ecologico","rarità botanica"],"dichiarato":true},"geometry":{"type":"Point","coordinates":[13.327022,38.099142]}},{"type":"Feature","properties":{"id":"albero-41","scheda":"41/G273/PA/19","nome":"Pino colonna","specie":"Araucaria columnaris (G. Forst) Hook","insieme":false,"localita":"Villa Tasca - Viale Regione Siciliana","altitudine":88,"circonferenza":370,"altezza":38,"criteri":["età e/o dimensioni","valore ecologico","rarità botanica"],"dichiarato":true},"geometry":{"type":"Point","coordinates":[13.327883,38.098897]}},{"type":"Feature","properties":{"id":"albero-42","scheda":"42/G273/PA/19","nome":"Pino di Norfolk","specie":"Araucaria heterophylla (Salisb.) Franco","insieme":false,"localita":"Villa Tasca","altitudine":88,"circonferenza":480,"altezza":36,"criteri":["età e/o dimensioni","valore ecologico","rarità botanica"],"dichiarato":true},"geometry":{"type":"Point","coordinates":[13.327511,38.098767]}},{"type":"Feature","properties":{"id":"albero-43","scheda":"43/G273/PA/19","nome":"Platano comune","specie":"Platanus acerifolia (Aiton) Willd.","insieme":false,"localita":"Villa Tasca","altitudine":83,"circonferenza":465,"altezza":30,"criteri":["età e/o dimensioni","valore ecologico"],"dichiarato":false},"geometry":{"type":"Point","coordinates":[13.32815,38.100542]}},{"type":"Feature","properties":{"id":"albero-44","scheda":"44/G273/PA/19","nome":"Pino colonna","specie":"Araucaria columnaris (G. Forst) Hook","insieme":true,"localita":"Villa Tasca","altitudine":87,"circonferenza":360,"altezza":34,"criteri":["età e/o dimensioni","valore ecologico","rarità botanica"],"dichiarato":false},"geometry":{"type":"Point","coordinates":[13.327761,38.098836]}},{"type":"Feature","properties":{"id":"albero-45","scheda":"45/G273/PA/19","nome":"Palma da datteri","specie":"Phoenix dactylifera L.","insieme":true,"localita":"Villa Tasca","altitudine":84,"circonferenza":280,"altezza":18,"criteri":["età e/o dimensioni"],"dichiarato":false},"geometry":{"type":"Point","coordinates":[13.329867,38.099469]}},{"type":"Feature","properties":{"id":"albero-46","scheda":"46/G273/PA/19","nome":"Fico magnolioide","specie":"Ficus macrophylla Desf. ex Pers.","insieme":false,"localita":"Villa di Napoli","altitudine":68,"circonferenza":240,"altezza":28,"criteri":["età e/o dimensioni","valore ecologico"],"dichiarato":false},"geometry":{"type":"Point","coordinates":[13.334761,38.106756]}},{"type":"Feature","properties":{"id":"albero-47","scheda":"47/G273/PA/19","nome":"Olivo","specie":"Olea europaea L.","insieme":false,"localita":"S.M. di Gesu'","altitudine":112,"circonferenza":660,"altezza":12,"criteri":["età e/o dimensioni","valore ecologico"],"dichiarato":false},"geometry":{"type":"Point","coordinates":[13.379803,38.081989]}}]}