{"type": "FeatureCollection", "features": [{"type": "Feature", "geometry": {"type": "LineString", "coordinates": [[13.261582, 38.200152], [13.261792, 38.200932]]}, "properties": {"uf": 16, "confini_uf": "Capo Rama-Capo Gallo", "comune": "Palermo", "localita": "P.ta Matese-P.ta della Catena", "cls_coste_rischio": "R3 - Rischio elevato", "col_coste_rischio": "#e60000", "lung_m": 88.5}}, {"type": "Feature", "geometry": {"type": "LineString", "coordinates": [[13.295607, 38.219597], [13.293876, 38.221322]]}, "properties": {"uf": 16, "confini_uf": "Capo Rama-Capo Gallo", "comune": "Palermo", "localita": "Pietra Tara (Capo Gallo)", "cls_coste_rischio": "R3 - Rischio elevato", "col_coste_rischio": "#e60000", "lung_m": 244.2}}, {"type": "Feature", "geometry": {"type": "LineString", "coordinates": [[13.30244, 38.221071], [13.301131, 38.222844]]}, "properties": {"uf": 16, "confini_uf": "Capo Rama-Capo Gallo", "comune": "Palermo", "localita": "La Puntazza-Grotta dell'Olio (Capo Gallo)", "cls_coste_rischio": "R3 - Rischio elevato", "col_coste_rischio": "#e60000", "lung_m": 227.7}}, {"type": "Feature", "geometry": {"type": "LineString", "coordinates": [[13.258759, 38.212068], [13.259769, 38.212367]]}, "properties": {"uf": 16, "confini_uf": "Capo Rama-Capo Gallo", "comune": "Palermo", "localita": "Isolotto Est (Isola delle Femmine)", "cls_coste_rischio": "R3 - Rischio elevato", "col_coste_rischio": "#e60000", "lung_m": 94.5}}, {"type": "Feature", "geometry": {"type": "LineString", "coordinates": [[13.256707, 38.21277], [13.256665, 38.213265]]}, "properties": {"uf": 16, "confini_uf": "Capo Rama-Capo Gallo", "comune": "Palermo", "localita": "Isolotto Nord (Isola delle Femmine)", "cls_coste_rischio": "R3 - Rischio elevato", "col_coste_rischio": "#e60000", "lung_m": 55.1}}, {"type": "Feature", "geometry": {"type": "LineString", "coordinates": [[13.255176, 38.211684], [13.254278, 38.211718]]}, "properties": {"uf": 16, "confini_uf": "Capo Rama-Capo Gallo", "comune": "Palermo", "localita": "Isolotto Ovest (Isola delle Femmine)", "cls_coste_rischio": "R3 - Rischio elevato", "col_coste_rischio": "#e60000", "lung_m": 78.8}}, {"type": "Feature", "geometry": {"type": "LineString", "coordinates": [[13.367244, 38.179043], [13.369035, 38.179119]]}, "properties": {"uf": 17, "confini_uf": "Capo Gallo-Capo Mongerbino", "comune": "Palermo", "localita": "Torre del Rotolo", "cls_coste_rischio": "R3 - Rischio elevato", "col_coste_rischio": "#e60000", "lung_m": 157.1}}]}