{"type": "FeatureCollection", "features": [{"type": "Feature", "geometry": {"type": "Polygon", "coordinates": [[[13.294839, 38.216522], [13.29484, 38.21651], [13.294842, 38.216498], [13.294844, 38.216487], [13.294848, 38.216475], [13.294853, 38.216464], [13.294858, 38.216453], [13.294864, 38.216442], [13.294865, 38.216441], [13.294931, 38.216342], [13.294938, 38.216333], [13.294946, 38.216323], [13.294955, 38.216313], [13.294964, 38.216304], [13.294975, 38.216296], [13.294986, 38.216288], [13.294998, 38.216281], [13.29501, 38.216274], [13.295023, 38.216268], [13.295036, 38.216262], [13.29505, 38.216258], [13.295064, 38.216254], [13.295078, 38.216251], [13.295093, 38.216248], [13.295108, 38.216246], [13.295123, 38.216246], [13.295138, 38.216245], [13.295265, 38.216247], [13.29528, 38.216248], [13.295295, 38.216249], [13.295309, 38.216251], [13.295324, 38.216254], [13.295338, 38.216258], [13.295352, 38.216262], [13.295365, 38.216267], [13.295378, 38.216273], [13.295391, 38.216279], [13.295403, 38.216286], [13.295414, 38.216294], [13.295425, 38.216302], [13.295435, 38.216311], [13.295444, 38.21632], [13.295453, 38.21633], [13.29546, 38.21634], [13.295467, 38.216351], [13.295473, 38.216361], [13.295476, 38.216367], [13.29556, 38.216556], [13.295638, 38.216667], [13.29578, 38.216718], [13.296151, 38.216822], [13.296152, 38.216822], [13.296166, 38.216826], [13.296179, 38.216831], [13.296192, 38.216837], [13.296205, 38.216843], [13.296217, 38.21685], [13.296226, 38.216857], [13.296444, 38.21701], [13.296615, 38.217126], [13.297162, 38.217376], [13.297504, 38.21753], [13.297807, 38.217655], [13.298259, 38.217805], [13.298692, 38.217903], [13.299044, 38.217908], [13.299059, 38.217909], [13.299074, 38.21791], [13.299088, 38.217912], [13.299103, 38.217915], [13.299117, 38.217919], [13.299131, 38.217923], [13.299144, 38.217928], [13.299157, 38.217934], [13.29917, 38.217941], [13.299182, 38.217948], [13.299193, 38.217955], [13.299204, 38.217963], [13.299423, 38.218142], [13.299428, 38.218147], [13.299834, 38.218505], [13.299838, 38.218508], [13.299844, 38.218515], [13.299902, 38.218573], [13.299929, 38.218574], [13.300137, 38.218495], [13.300138, 38.218495], [13.300138, 38.218495], [13.300152, 38.21849], [13.300152, 38.21849], [13.300166, 38.218486], [13.30018, 38.218483], [13.300195, 38.218481], [13.30021, 38.218479], [13.300225, 38.218478], [13.30024, 38.218478], [13.300254, 38.218478], [13.300269, 38.21848], [13.300284, 38.218482], [13.300299, 38.218485], [13.300313, 38.218489], [13.300327, 38.218493], [13.300327, 38.218493], [13.30034, 38.218498], [13.300353, 38.218504], [13.300366, 38.21851], [13.300366, 38.21851], [13.300378, 38.218517], [13.300389, 38.218525], [13.300389, 38.218525], [13.3004, 38.218533], [13.30041, 38.218542], [13.30041, 38.218542], [13.300419, 38.218551], [13.300428, 38.218561], [13.300428, 38.218561], [13.300435, 38.218571], [13.300442, 38.218581], [13.300448, 38.218592], [13.300448, 38.218592], [13.300453, 38.218603], [13.300457, 38.218615], [13.30046, 38.218626], [13.300462, 38.218638], [13.300463, 38.21865], [13.300464, 38.218661], [13.30046, 38.218812], [13.300459, 38.218824], [13.300458, 38.218835], [13.300455, 38.218847], [13.300451, 38.218858], [13.300447, 38.21887], [13.300441, 38.218881], [13.300435, 38.218891], [13.300428, 38.218902], [13.300419, 38.218911], [13.30041, 38.218921], [13.300401, 38.21893], [13.30039, 38.218938], [13.300379, 38.218946], [13.300368, 38.218954], [13.300355, 38.21896], [13.300342, 38.218966], [13.300329, 38.218972], [13.300318, 38.218976], [13.300094, 38.219048], [13.300091, 38.219048], [13.300077, 38.219052], [13.300062, 38.219056], [13.300048, 38.219058], [13.300033, 38.21906], [13.300018, 38.219061], [13.300003, 38.219061], [13.299988, 38.21906], [13.299973, 38.219059], [13.299959, 38.219057], [13.299944, 38.219054], [13.29993, 38.21905], [13.299919, 38.219047], [13.299445, 38.218889], [13.299443, 38.218888], [13.299429, 38.218883], [13.299416, 38.218878], [13.299404, 38.218871], [13.299392, 38.218864], [13.29938, 38.218856], [13.299369, 38.218848], [13.299359, 38.21884], [13.299354, 38.218835], [13.299096, 38.218576], [13.298772, 38.218399], [13.298627, 38.218358], [13.298294, 38.218305], [13.29829, 38.218305], [13.298276, 38.218302], [13.298261, 38.218298], [13.298247, 38.218294], [13.298234, 38.218289], [13.298233, 38.218288], [13.297985, 38.218186], [13.297298, 38.217928], [13.296608, 38.217693], [13.296607, 38.217693], [13.296594, 38.217688], [13.296581, 38.217682], [13.296568, 38.217676], [13.296195, 38.217471], [13.295633, 38.217189], [13.295625, 38.217185], [13.295342, 38.21703], [13.295342, 38.21703], [13.29533, 38.217023], [13.295327, 38.217021], [13.29517, 38.216918], [13.295162, 38.216913], [13.295152, 38.216905], [13.295142, 38.216896], [13.295132, 38.216887], [13.295124, 38.216877], [13.295118, 38.216869], [13.29504, 38.216762], [13.294903, 38.21665], [13.294893, 38.216641], [13.294893, 38.216641], [13.294884, 38.216632], [13.294875, 38.216622], [13.294868, 38.216612], [13.294861, 38.216602], [13.294855, 38.216591], [13.29485, 38.21658], [13.294846, 38.216568], [13.294843, 38.216557], [13.29484, 38.216545], [13.294839, 38.216533], [13.294839, 38.216522]]]}, "properties": {"comune": "Palermo", "uf": 16, "confini_uf": "Capo Rama-Capo Gallo", "fenomeno": "crollo", "magnitudo": 3, "localita": "Pietra Tara", "cls_coste_pericolosita": "P3 - Area a pericolosità elevata", "col_coste_pericolosita": "#00c5ff", "bor_coste_pericolosita": "#6e6e6e", "sup_ha": 3.0116}}, {"type": "Feature", "geometry": {"type": "Polygon", "coordinates": [[[13.300403, 38.219388], [13.300404, 38.219377], [13.300406, 38.219365], [13.300409, 38.219353], [13.300412, 38.219342], [13.300417, 38.219331], [13.300422, 38.21932], [13.300429, 38.219309], [13.300436, 38.219299], [13.300444, 38.219289], [13.300453, 38.219279], [13.300463, 38.21927], [13.300473, 38.219262], [13.300484, 38.219254], [13.300496, 38.219247], [13.300504, 38.219242], [13.300826, 38.219071], [13.300831, 38.219069], [13.300843, 38.219063], [13.300857, 38.219058], [13.30087, 38.219053], [13.300885, 38.219049], [13.300899, 38.219046], [13.300914, 38.219043], [13.300928, 38.219042], [13.300943, 38.219041], [13.300958, 38.21904], [13.300973, 38.219041], [13.300988, 38.219042], [13.301003, 38.219045], [13.301017, 38.219047], [13.301018, 38.219048], [13.301366, 38.219128], [13.301379, 38.219131], [13.301393, 38.219136], [13.301407, 38.219141], [13.301408, 38.219141], [13.301723, 38.219271], [13.301735, 38.219277], [13.301748, 38.219283], [13.30176, 38.21929], [13.301771, 38.219298], [13.301772, 38.219299], [13.302017, 38.219476], [13.302283, 38.219544], [13.302503, 38.219597], [13.302514, 38.2196], [13.302528, 38.219604], [13.302541, 38.219609], [13.302554, 38.219615], [13.302567, 38.219621], [13.302579, 38.219628], [13.30259, 38.219636], [13.302601, 38.219644], [13.302611, 38.219653], [13.30262, 38.219662], [13.302629, 38.219672], [13.302635, 38.219679], [13.302692, 38.219758], [13.303039, 38.21989], [13.303044, 38.219892], [13.303052, 38.219896], [13.303715, 38.220194], [13.304144, 38.220268], [13.304481, 38.220297], [13.30449, 38.220298], [13.3045, 38.220299], [13.305039, 38.220382], [13.305044, 38.220383], [13.305059, 38.220386], [13.305073, 38.22039], [13.305084, 38.220393], [13.305341, 38.220478], [13.305661, 38.220441], [13.305668, 38.22044], [13.305683, 38.220439], [13.305698, 38.220439], [13.305825, 38.220441], [13.30584, 38.220442], [13.305855, 38.220443], [13.30587, 38.220445], [13.305884, 38.220448], [13.305897, 38.220451], [13.306064, 38.220498], [13.306326, 38.220525], [13.30633, 38.220525], [13.306345, 38.220527], [13.30636, 38.22053], [13.306374, 38.220534], [13.306388, 38.220538], [13.306401, 38.220543], [13.306402, 38.220544], [13.306654, 38.220648], [13.306666, 38.220653], [13.306673, 38.220656], [13.306925, 38.220786], [13.30693, 38.220789], [13.307213, 38.220943], [13.307213, 38.220943], [13.307225, 38.22095], [13.307237, 38.220958], [13.307247, 38.220966], [13.307257, 38.220975], [13.307267, 38.220984], [13.307275, 38.220994], [13.307283, 38.221004], [13.30729, 38.221015], [13.307295, 38.221025], [13.307301, 38.221036], [13.307305, 38.221048], [13.307308, 38.221059], [13.30731, 38.221071], [13.307311, 38.221083], [13.307311, 38.221083], [13.307311, 38.221095], [13.307311, 38.221106], [13.307311, 38.221106], [13.307309, 38.221118], [13.307306, 38.22113], [13.307302, 38.221141], [13.307298, 38.221152], [13.307292, 38.221163], [13.307286, 38.221174], [13.307279, 38.221184], [13.30727, 38.221194], [13.307262, 38.221204], [13.307252, 38.221213], [13.307241, 38.221221], [13.30723, 38.221229], [13.307219, 38.221236], [13.307217, 38.221237], [13.307263, 38.221368], [13.307265, 38.221374], [13.307268, 38.221385], [13.30727, 38.221397], [13.307272, 38.221408], [13.307272, 38.221408], [13.307272, 38.22142], [13.307271, 38.221432], [13.307271, 38.221432], [13.307269, 38.221444], [13.307267, 38.221455], [13.307263, 38.221467], [13.307258, 38.221478], [13.307253, 38.221489], [13.307247, 38.2215], [13.307239, 38.22151], [13.307231, 38.22152], [13.307222, 38.221529], [13.307212, 38.221538], [13.307202, 38.221547], [13.307191, 38.221555], [13.307179, 38.221562], [13.307167, 38.221569], [13.307154, 38.221575], [13.307141, 38.22158], [13.307127, 38.221585], [13.307113, 38.221589], [13.307099, 38.221592], [13.307084, 38.221594], [13.307069, 38.221596], [13.307054, 38.221597], [13.307054, 38.221597], [13.307039, 38.221597], [13.307024, 38.221597], [13.307024, 38.221597], [13.30701, 38.221595], [13.306995, 38.221593], [13.30698, 38.22159], [13.306967, 38.221587], [13.306873, 38.22156], [13.306871, 38.22156], [13.306857, 38.221556], [13.306844, 38.221551], [13.306831, 38.221545], [13.306818, 38.221538], [13.306806, 38.221531], [13.306795, 38.221524], [13.306784, 38.221516], [13.306774, 38.221507], [13.306765, 38.221498], [13.306756, 38.221488], [13.306749, 38.221478], [13.306743, 38.221468], [13.30674, 38.221463], [13.306729, 38.221461], [13.306715, 38.221457], [13.306701, 38.221453], [13.306687, 38.221448], [13.306674, 38.221442], [13.306662, 38.221436], [13.30665, 38.221429], [13.306638, 38.221421], [13.306628, 38.221413], [13.306618, 38.221404], [13.306608, 38.221395], [13.3066, 38.221385], [13.306592, 38.221375], [13.306585, 38.221365], [13.306579, 38.221354], [13.306574, 38.221343], [13.306574, 38.221342], [13.306534, 38.221241], [13.306491, 38.221213], [13.306285, 38.22121], [13.30627, 38.221209], [13.306255, 38.221208], [13.30624, 38.221206], [13.306226, 38.221203], [13.306212, 38.221199], [13.306198, 38.221195], [13.306184, 38.22119], [13.306171, 38.221184], [13.306159, 38.221178], [13.306147, 38.221171], [13.306135, 38.221163], [13.306124, 38.221155], [13.306114, 38.221146], [13.306105, 38.221137], [13.306097, 38.221127], [13.306089, 38.221117], [13.306082, 38.221106], [13.306076, 38.221096], [13.306071, 38.221084], [13.306067, 38.221073], [13.306064, 38.221062], [13.306053, 38.221014], [13.306023, 38.220999], [13.305859, 38.220981], [13.305787, 38.220993], [13.305642, 38.221037], [13.30563, 38.22104], [13.305616, 38.221043], [13.305602, 38.221046], [13.305282, 38.221091], [13.305282, 38.221091], [13.305267, 38.221093], [13.305252, 38.221094], [13.305237, 38.221094], [13.305223, 38.221094], [13.305208, 38.221092], [13.305193, 38.22109], [13.305178, 38.221087], [13.305164, 38.221084], [13.30515, 38.221079], [13.305137, 38.221074], [13.305124, 38.221068], [13.305111, 38.221062], [13.305099, 38.221055], [13.305088, 38.221047], [13.305077, 38.221039], [13.305067, 38.22103], [13.305058, 38.221021], [13.305056, 38.22102], [13.304937, 38.220889], [13.304193, 38.220878], [13.304178, 38.220878], [13.304163, 38.220876], [13.304148, 38.220874], [13.304134, 38.220871], [13.304119, 38.220868], [13.304119, 38.220868], [13.303107, 38.220577], [13.303094, 38.220573], [13.303081, 38.220568], [13.303068, 38.220562], [13.303055, 38.220555], [13.303043, 38.220548], [13.303039, 38.220546], [13.302603, 38.22026], [13.302233, 38.220164], [13.302227, 38.220163], [13.302213, 38.220158], [13.30221, 38.220157], [13.301771, 38.220001], [13.3013, 38.219845], [13.301297, 38.219844], [13.301284, 38.219839], [13.301271, 38.219833], [13.301258, 38.219827], [13.301246, 38.21982], [13.301235, 38.219812], [13.301026, 38.219662], [13.300572, 38.219566], [13.300569, 38.219565], [13.300554, 38.219561], [13.300541, 38.219557], [13.300527, 38.219552], [13.300514, 38.219546], [13.300501, 38.21954], [13.30049, 38.219533], [13.300478, 38.219525], [13.300467, 38.219517], [13.300457, 38.219508], [13.300448, 38.219499], [13.30044, 38.219489], [13.300432, 38.219479], [13.300425, 38.219468], [13.300419, 38.219458], [13.300414, 38.219446], [13.30041, 38.219435], [13.300407, 38.219424], [13.300405, 38.219412], [13.300404, 38.2194], [13.300404, 38.2194], [13.300403, 38.219388]]]}, "properties": {"comune": "Palermo", "uf": 16, "confini_uf": "Capo Rama-Capo Gallo", "fenomeno": "crollo", "magnitudo": 3, "localita": "La Puntazza-Grotta dell'Olio", "cls_coste_pericolosita": "P3 - Area a pericolosità elevata", "col_coste_pericolosita": "#00c5ff", "bor_coste_pericolosita": "#6e6e6e", "sup_ha": 4.1167}}, {"type": "Feature", "geometry": {"type": "Polygon", "coordinates": [[[13.267082, 38.201204], [13.267084, 38.201206], [13.267088, 38.201211], [13.267091, 38.201217], [13.267094, 38.201222], [13.267096, 38.201227], [13.267098, 38.201233], [13.2671, 38.201239], [13.2671, 38.201241], [13.267185, 38.201664], [13.267302, 38.202013], [13.267303, 38.202014], [13.267304, 38.20202], [13.267305, 38.202026], [13.267306, 38.202032], [13.267329, 38.202408], [13.267329, 38.202409], [13.267329, 38.202414], [13.267328, 38.20242], [13.267328, 38.202426], [13.267327, 38.202428], [13.267265, 38.202713], [13.267403, 38.202845], [13.267887, 38.203045], [13.267893, 38.203048], [13.267899, 38.203051], [13.267905, 38.203054], [13.267911, 38.203058], [13.267916, 38.203062], [13.267921, 38.203067], [13.267926, 38.203071], [13.26793, 38.203076], [13.267934, 38.203081], [13.267937, 38.203086], [13.26794, 38.203092], [13.267943, 38.203097], [13.267945, 38.203103], [13.267946, 38.203109], [13.267947, 38.203115], [13.267947, 38.203115], [13.267974, 38.203316], [13.267975, 38.203322], [13.267975, 38.203328], [13.267975, 38.203333], [13.267974, 38.203339], [13.267973, 38.203345], [13.267971, 38.203351], [13.267968, 38.203356], [13.267966, 38.203362], [13.267962, 38.203367], [13.267959, 38.203372], [13.267955, 38.203377], [13.26795, 38.203382], [13.267945, 38.203387], [13.26794, 38.203391], [13.267935, 38.203395], [13.267929, 38.203398], [13.267923, 38.203402], [13.267916, 38.203405], [13.26791, 38.203407], [13.267903, 38.20341], [13.267896, 38.203412], [13.267888, 38.203413], [13.267881, 38.203415], [13.267874, 38.203415], [13.267866, 38.203416], [13.267859, 38.203416], [13.267851, 38.203416], [13.267844, 38.203415], [13.267837, 38.203414], [13.267829, 38.203412], [13.267822, 38.203411], [13.267818, 38.203409], [13.267408, 38.203278], [13.267405, 38.203277], [13.267398, 38.203274], [13.267398, 38.203274], [13.266894, 38.203066], [13.266888, 38.203063], [13.266881, 38.20306], [13.266875, 38.203057], [13.26687, 38.203053], [13.266864, 38.203049], [13.266859, 38.203044], [13.266855, 38.20304], [13.26685, 38.203035], [13.266847, 38.20303], [13.266843, 38.203024], [13.26684, 38.203019], [13.266838, 38.203013], [13.266836, 38.203008], [13.266834, 38.203002], [13.266833, 38.202996], [13.266833, 38.20299], [13.266832, 38.202984], [13.266853, 38.202111], [13.266831, 38.201892], [13.266667, 38.201735], [13.266663, 38.201732], [13.266659, 38.201727], [13.266655, 38.201722], [13.266652, 38.201716], [13.266649, 38.201711], [13.266646, 38.201705], [13.266644, 38.2017], [13.266643, 38.201694], [13.266641, 38.201688], [13.266641, 38.201682], [13.266641, 38.201676], [13.266645, 38.201506], [13.266622, 38.201306], [13.266591, 38.201269], [13.266484, 38.201224], [13.266485, 38.201224], [13.266429, 38.201202], [13.266423, 38.201199], [13.266417, 38.201196], [13.266411, 38.201192], [13.266405, 38.201189], [13.2664, 38.201184], [13.266395, 38.20118], [13.26639, 38.201175], [13.266386, 38.201171], [13.266382, 38.201165], [13.266379, 38.20116], [13.266376, 38.201155], [13.266373, 38.201149], [13.266371, 38.201144], [13.26637, 38.201138], [13.266368, 38.201132], [13.266368, 38.201126], [13.266368, 38.20112], [13.266368, 38.201114], [13.266369, 38.201108], [13.26637, 38.201105], [13.266398, 38.200987], [13.266171, 38.20066], [13.266168, 38.200655], [13.266165, 38.20065], [13.266164, 38.200648], [13.266022, 38.20034], [13.265551, 38.200002], [13.265321, 38.199889], [13.265076, 38.199865], [13.264742, 38.199838], [13.264743, 38.199835], [13.264659, 38.199826], [13.264264, 38.199849], [13.264261, 38.199849], [13.264254, 38.199849], [13.264246, 38.199849], [13.264239, 38.199848], [13.264232, 38.199847], [13.264224, 38.199845], [13.26422, 38.199844], [13.263826, 38.199742], [13.263495, 38.199737], [13.26268, 38.19975], [13.261923, 38.199863], [13.261922, 38.199863], [13.261915, 38.199864], [13.261907, 38.199864], [13.2619, 38.199864], [13.261892, 38.199864], [13.261885, 38.199863], [13.26188, 38.199863], [13.261348, 38.19978], [13.260786, 38.199749], [13.260274, 38.199976], [13.259804, 38.200237], [13.258968, 38.200921], [13.258965, 38.200924], [13.25896, 38.200928], [13.258954, 38.200931], [13.258948, 38.200935], [13.258941, 38.200938], [13.258935, 38.20094], [13.258486, 38.201109], [13.258485, 38.201109], [13.258485, 38.201109], [13.258478, 38.201112], [13.258471, 38.201114], [13.258464, 38.201115], [13.258457, 38.201117], [13.258449, 38.201117], [13.258442, 38.201118], [13.258435, 38.201118], [13.258427, 38.201118], [13.25842, 38.201117], [13.258412, 38.201116], [13.258405, 38.201115], [13.258398, 38.201113], [13.258391, 38.201111], [13.258384, 38.201108], [13.258378, 38.201105], [13.258372, 38.201102], [13.258366, 38.201098], [13.25836, 38.201095], [13.258354, 38.20109], [13.258349, 38.201086], [13.258345, 38.201081], [13.258341, 38.201077], [13.258337, 38.201072], [13.258333, 38.201066], [13.25833, 38.201061], [13.258328, 38.201055], [13.258326, 38.20105], [13.258324, 38.201044], [13.258323, 38.201038], [13.258323, 38.201032], [13.258323, 38.201026], [13.258323, 38.20102], [13.258324, 38.201015], [13.258325, 38.201009], [13.258327, 38.201003], [13.258329, 38.200997], [13.258332, 38.200993], [13.258398, 38.200868], [13.258399, 38.200867], [13.258402, 38.200862], [13.258406, 38.200857], [13.25841, 38.200852], [13.258414, 38.200847], [13.258419, 38.200843], [13.258646, 38.200645], [13.258646, 38.200645], [13.258651, 38.200641], [13.258655, 38.200638], [13.259367, 38.200147], [13.259369, 38.200146], [13.25937, 38.200145], [13.260016, 38.199728], [13.26002, 38.199725], [13.260027, 38.199722], [13.260033, 38.199719], [13.26004, 38.199716], [13.260043, 38.199715], [13.260748, 38.199474], [13.260752, 38.199473], [13.260759, 38.199471], [13.260766, 38.199469], [13.260774, 38.199468], [13.260781, 38.199467], [13.260788, 38.199467], [13.260791, 38.199467], [13.261555, 38.199453], [13.26156, 38.199453], [13.261567, 38.199453], [13.261574, 38.199454], [13.261582, 38.199455], [13.261582, 38.199455], [13.26188, 38.199507], [13.263008, 38.1994], [13.263009, 38.1994], [13.263017, 38.199399], [13.263024, 38.199399], [13.263031, 38.1994], [13.263032, 38.1994], [13.26433, 38.199494], [13.264989, 38.199507], [13.265025, 38.199504], [13.265033, 38.199505], [13.26504, 38.199505], [13.265048, 38.199506], [13.265055, 38.199508], [13.265062, 38.19951], [13.265063, 38.19951], [13.265884, 38.199748], [13.26589, 38.19975], [13.265897, 38.199752], [13.265903, 38.199755], [13.26591, 38.199758], [13.265916, 38.199762], [13.265921, 38.199766], [13.265924, 38.199768], [13.266487, 38.200203], [13.266489, 38.200205], [13.266494, 38.200209], [13.266499, 38.200214], [13.266503, 38.200219], [13.266507, 38.200224], [13.26651, 38.200229], [13.266512, 38.200233], [13.266725, 38.200638], [13.266726, 38.200639], [13.266729, 38.200645], [13.266731, 38.20065], [13.266732, 38.200656], [13.266733, 38.200662], [13.266734, 38.200668], [13.266734, 38.200674], [13.266729, 38.200862], [13.266915, 38.201014], [13.26692, 38.201019], [13.266925, 38.201023], [13.266927, 38.201026], [13.266975, 38.201083], [13.266976, 38.201083], [13.267082, 38.201204]]]}, "properties": {"comune": "Palermo", "uf": 16, "confini_uf": "Capo Rama-Capo Gallo", "fenomeno": "crollo", "magnitudo": 3, "localita": "P.ta Matese-P.ta della Catena", "cls_coste_pericolosita": "P3 - Area a pericolosità elevata", "col_coste_pericolosita": "#00c5ff", "bor_coste_pericolosita": "#6e6e6e", "sup_ha": 4.4152}}, {"type": "Feature", "geometry": {"type": "Polygon", "coordinates": [[[13.36566, 38.181786], [13.365661, 38.18178], [13.365661, 38.181775], [13.365696, 38.181584], [13.365672, 38.181266], [13.365672, 38.181265], [13.365672, 38.181259], [13.365672, 38.181253], [13.365673, 38.181251], [13.365711, 38.180976], [13.365711, 38.180972], [13.365712, 38.180966], [13.365714, 38.180961], [13.365715, 38.180959], [13.365847, 38.180617], [13.365883, 38.180375], [13.365884, 38.180372], [13.365884, 38.180372], [13.365956, 38.179996], [13.365957, 38.179991], [13.365959, 38.179985], [13.365961, 38.179979], [13.365964, 38.179974], [13.365965, 38.179972], [13.366193, 38.179579], [13.366455, 38.178901], [13.366433, 38.17854], [13.366433, 38.17854], [13.366432, 38.178534], [13.366438, 38.178308], [13.366438, 38.178302], [13.366439, 38.178296], [13.366439, 38.178295], [13.366471, 38.178139], [13.366298, 38.177602], [13.366298, 38.177602], [13.366297, 38.177596], [13.366296, 38.17759], [13.366295, 38.177586], [13.366244, 38.177034], [13.366244, 38.177031], [13.366244, 38.177025], [13.366255, 38.176524], [13.366255, 38.176518], [13.366256, 38.176514], [13.366293, 38.176288], [13.366293, 38.176286], [13.366294, 38.176281], [13.366296, 38.176275], [13.366298, 38.176269], [13.366301, 38.176264], [13.366304, 38.176258], [13.366308, 38.176253], [13.366312, 38.176248], [13.366316, 38.176244], [13.366321, 38.176239], [13.366323, 38.176237], [13.366712, 38.175917], [13.366715, 38.175914], [13.366721, 38.17591], [13.366727, 38.175906], [13.366733, 38.175903], [13.366735, 38.175902], [13.367071, 38.17574], [13.367368, 38.175446], [13.367569, 38.174766], [13.36757, 38.174762], [13.367572, 38.174756], [13.367575, 38.17475], [13.367578, 38.174745], [13.367582, 38.17474], [13.367586, 38.174735], [13.36759, 38.17473], [13.367595, 38.174726], [13.3676, 38.174722], [13.367606, 38.174718], [13.367612, 38.174714], [13.367618, 38.174711], [13.367624, 38.174708], [13.367631, 38.174705], [13.367638, 38.174703], [13.367645, 38.174701], [13.367652, 38.174699], [13.367659, 38.174698], [13.367819, 38.174675], [13.367819, 38.174675], [13.367826, 38.174674], [13.367834, 38.174673], [13.367841, 38.174673], [13.367849, 38.174674], [13.367856, 38.174674], [13.367863, 38.174675], [13.367871, 38.174677], [13.367871, 38.174677], [13.367878, 38.174679], [13.367885, 38.174681], [13.367891, 38.174683], [13.367898, 38.174686], [13.367904, 38.174689], [13.36791, 38.174693], [13.367916, 38.174697], [13.367921, 38.174701], [13.367926, 38.174705], [13.367931, 38.17471], [13.367935, 38.174715], [13.367939, 38.17472], [13.367942, 38.174725], [13.367945, 38.17473], [13.367948, 38.174736], [13.36795, 38.174742], [13.36795, 38.174742], [13.367952, 38.174747], [13.367953, 38.174753], [13.367953, 38.174759], [13.367953, 38.174765], [13.367945, 38.175141], [13.367945, 38.175147], [13.367944, 38.175153], [13.367942, 38.175159], [13.36794, 38.175165], [13.367938, 38.17517], [13.367935, 38.175176], [13.367932, 38.175181], [13.367932, 38.175182], [13.367767, 38.17543], [13.367764, 38.175435], [13.367762, 38.175437], [13.367501, 38.17576], [13.367498, 38.175763], [13.367494, 38.175767], [13.367489, 38.175772], [13.367487, 38.175774], [13.367066, 38.176119], [13.367063, 38.176122], [13.367057, 38.176126], [13.367051, 38.176129], [13.36705, 38.17613], [13.36671, 38.176324], [13.3667, 38.176781], [13.3667, 38.176787], [13.366699, 38.176792], [13.366595, 38.177346], [13.366676, 38.177527], [13.366677, 38.17753], [13.366678, 38.177532], [13.366828, 38.177935], [13.366829, 38.177939], [13.36683, 38.17794], [13.366859, 38.178041], [13.36686, 38.178046], [13.366861, 38.178051], [13.366862, 38.178057], [13.366862, 38.178063], [13.366856, 38.178339], [13.366856, 38.178345], [13.366855, 38.178351], [13.366853, 38.178357], [13.366852, 38.178361], [13.366788, 38.178548], [13.366809, 38.179011], [13.366809, 38.179016], [13.366809, 38.179022], [13.366808, 38.179028], [13.366806, 38.179034], [13.366805, 38.179039], [13.366803, 38.179043], [13.3664, 38.180016], [13.366399, 38.180018], [13.366396, 38.180024], [13.366393, 38.180029], [13.366393, 38.18003], [13.366305, 38.180162], [13.366263, 38.180669], [13.366263, 38.180671], [13.366262, 38.180677], [13.366261, 38.180683], [13.366259, 38.180688], [13.366258, 38.180691], [13.366161, 38.180931], [13.366122, 38.181319], [13.366114, 38.181642], [13.366114, 38.181648], [13.366113, 38.181654], [13.366113, 38.181655], [13.366077, 38.18183], [13.366076, 38.181835], [13.366074, 38.18184], [13.366072, 38.181846], [13.366069, 38.181852], [13.366066, 38.181857], [13.366066, 38.181857], [13.365901, 38.182106], [13.365898, 38.182111], [13.365894, 38.182116], [13.365889, 38.18212], [13.365884, 38.182125], [13.365879, 38.182129], [13.365874, 38.182133], [13.365868, 38.182137], [13.365862, 38.18214], [13.365855, 38.182143], [13.365849, 38.182146], [13.365842, 38.182148], [13.365835, 38.18215], [13.365827, 38.182152], [13.36582, 38.182153], [13.365813, 38.182154], [13.365805, 38.182154], [13.365798, 38.182154], [13.36579, 38.182154], [13.365783, 38.182153], [13.365776, 38.182152], [13.365768, 38.182151], [13.365761, 38.182149], [13.365754, 38.182147], [13.365748, 38.182144], [13.365741, 38.182142], [13.365735, 38.182138], [13.365729, 38.182135], [13.365723, 38.182131], [13.365718, 38.182127], [13.365713, 38.182123], [13.365708, 38.182118], [13.365704, 38.182113], [13.3657, 38.182108], [13.365697, 38.182103], [13.365694, 38.182097], [13.365691, 38.182092], [13.365689, 38.182086], [13.365688, 38.18208], [13.365686, 38.182075], [13.365686, 38.182071], [13.36566, 38.181794], [13.36566, 38.181792], [13.36566, 38.181786]]]}, "properties": {"comune": "Palermo", "uf": 17, "confini_uf": "Capo Gallo-Capo Mongerbino", "fenomeno": "crollo", "magnitudo": 3, "localita": "Torre del Rotolo", "cls_coste_pericolosita": "P3 - Area a pericolosità elevata", "col_coste_pericolosita": "#00c5ff", "bor_coste_pericolosita": "#6e6e6e", "sup_ha": 3.0371}}]}