{"type": "FeatureCollection", "features": [{"type": "Feature", "geometry": {"type": "Polygon", "coordinates": [[[13.411458, 38.075728], [13.410788, 38.075726], [13.410197, 38.075726], [13.410001, 38.075661], [13.40987, 38.075348], [13.40982, 38.074919], [13.409885, 38.074647], [13.409977, 38.074493], [13.410148, 38.074339], [13.410477, 38.074157], [13.410813, 38.074122], [13.411247, 38.074089], [13.411658, 38.074212], [13.411949, 38.074418], [13.412208, 38.074757], [13.412123, 38.075511], [13.411774, 38.075685], [13.411458, 38.075728]]]}, "properties": {"bacino": "Area tra F. Eleuterio e F. Oreto", "provincia": "PA", "comune": "Palermo", "localita": "Casa Alliata", "sigla": "038-6PM-010", "tipologia": "A", "nuova_sigl": "SA-038-6PM-002", "modificato": "X", "n_dpr": 0, "n_dsg": 4, "data_dsg": "2026-01-09", "ngurs_dsg": 4, "dgurs_dsg": "2026-01-23", "cls_geo_siti": "Siti di attenzione geomorfologica", "col_geo_siti": "#bee8ff", "bor_geo_siti": "#000000", "sup_ha": 3.2145}}, {"type": "Feature", "geometry": {"type": "Polygon", "coordinates": [[[13.400978, 38.080255], [13.400613, 38.080444], [13.400395, 38.080487], [13.39983, 38.08057], [13.399368, 38.080518], [13.398609, 38.080246], [13.39837, 38.079945], [13.398389, 38.079729], [13.398539, 38.079479], [13.398775, 38.079243], [13.39894, 38.07896], [13.398974, 38.078732], [13.398951, 38.07848], [13.399044, 38.078173], [13.399178, 38.078004], [13.399663, 38.077611], [13.400146, 38.077343], [13.400861, 38.076999], [13.401313, 38.076799], [13.401618, 38.076747], [13.40205, 38.076775], [13.40241, 38.076837], [13.402595, 38.077], [13.402613, 38.077491], [13.402584, 38.07813], [13.40249, 38.078494], [13.402367, 38.078824], [13.402215, 38.079176], [13.40192, 38.079457], [13.401464, 38.079828], [13.4012, 38.080018], [13.400978, 38.080255]]]}, "properties": {"bacino": "Area tra F. Eleuterio e F. Oreto", "provincia": "PA", "comune": "Palermo", "localita": "Ciaculli", "sigla": "038-6PM-011", "tipologia": "A", "nuova_sigl": "SA-038-6PM-003", "modificato": "X", "n_dpr": 0, "n_dsg": 4, "data_dsg": "2026-01-09", "ngurs_dsg": 4, "dgurs_dsg": "2026-01-23", "cls_geo_siti": "Siti di attenzione geomorfologica", "col_geo_siti": "#bee8ff", "bor_geo_siti": "#000000", "sup_ha": 10.5513}}, {"type": "Feature", "geometry": {"type": "Polygon", "coordinates": [[[13.429938, 38.077936], [13.429959, 38.079054], [13.430165, 38.079439], [13.430872, 38.080341], [13.431074, 38.080513], [13.431144, 38.080785], [13.431199, 38.081116], [13.431313, 38.081608], [13.431198, 38.081888], [13.431007, 38.082155], [13.430581, 38.082468], [13.430408, 38.082601], [13.429894, 38.082729], [13.429647, 38.082652], [13.429403, 38.082465], [13.429113, 38.08224], [13.428838, 38.082065], [13.428621, 38.082087], [13.428337, 38.082303], [13.427729, 38.082467], [13.426951, 38.082579], [13.426579, 38.082586], [13.426149, 38.082409], [13.425891, 38.08216], [13.425851, 38.081829], [13.425947, 38.08025], [13.426205, 38.079077], [13.42631, 38.078515], [13.426381, 38.078111], [13.426731, 38.076952], [13.426832, 38.076586], [13.427058, 38.076172], [13.427372, 38.075956], [13.427792, 38.075888], [13.428333, 38.075981], [13.429379, 38.07635], [13.42984, 38.07654], [13.430392, 38.076829], [13.430678, 38.077201], [13.430854, 38.077693], [13.429938, 38.077936]]]}, "properties": {"bacino": "Area tra F. Eleuterio e F. Oreto", "provincia": "PA", "comune": "Palermo", "localita": "Valle Feritano", "sigla": "038-6PM-009", "tipologia": "A", "nuova_sigl": "SA-038-6PM-001", "modificato": "X", "n_dpr": 0, "n_dsg": 4, "data_dsg": "2026-01-09", "ngurs_dsg": 4, "dgurs_dsg": "2026-01-23", "cls_geo_siti": "Siti di attenzione geomorfologica", "col_geo_siti": "#bee8ff", "bor_geo_siti": "#000000", "sup_ha": 26.5085}}, {"type": "Feature", "geometry": {"type": "Polygon", "coordinates": [[[13.357735, 38.097946], [13.358015, 38.097809], [13.358357, 38.09768], [13.358681, 38.09763], [13.359362, 38.097586], [13.359594, 38.097831], [13.35971, 38.09794], [13.360384, 38.098205], [13.361293, 38.09858], [13.361664, 38.098679], [13.363053, 38.098873], [13.363204, 38.098955], [13.363659, 38.099109], [13.363996, 38.099235], [13.364718, 38.099594], [13.365242, 38.099722], [13.36563, 38.099875], [13.365807, 38.10028], [13.365904, 38.100523], [13.366131, 38.10101], [13.36629, 38.101468], [13.366556, 38.101767], [13.366872, 38.102067], [13.367339, 38.102436], [13.36784, 38.102845], [13.368091, 38.102997], [13.368475, 38.103284], [13.36859, 38.10346], [13.368801, 38.103919], [13.368828, 38.104215], [13.368837, 38.104577], [13.368817, 38.104752], [13.368657, 38.105045], [13.368372, 38.105645], [13.368249, 38.105845], [13.367895, 38.106471], [13.367577, 38.10703], [13.366899, 38.108443], [13.366841, 38.108792], [13.366542, 38.109244], [13.366262, 38.109602], [13.366054, 38.109801], [13.365796, 38.109931], [13.365283, 38.110059], [13.364824, 38.110079], [13.364231, 38.11003], [13.363587, 38.109928], [13.363081, 38.1098], [13.362624, 38.109699], [13.36205, 38.109557], [13.361644, 38.109444], [13.361222, 38.109358], [13.360885, 38.109232], [13.360632, 38.109148], [13.360262, 38.108982], [13.35955, 38.108905], [13.359143, 38.108859], [13.35843, 38.108822], [13.358074, 38.108804], [13.357546, 38.10885], [13.357273, 38.108927], [13.356994, 38.109245], [13.356734, 38.109456], [13.356391, 38.109599], [13.355998, 38.109701], [13.355507, 38.109613], [13.355153, 38.109528], [13.354967, 38.109472], [13.354733, 38.109307], [13.354618, 38.109131], [13.354532, 38.108419], [13.354342, 38.107798], [13.35441, 38.107034], [13.354501, 38.106754], [13.354598, 38.106245], [13.354848, 38.105698], [13.35499, 38.105405], [13.355168, 38.105045], [13.355307, 38.104912], [13.355413, 38.104738], [13.355423, 38.104324], [13.355725, 38.103033], [13.35585, 38.102531], [13.355676, 38.102151], [13.355831, 38.101361], [13.355964, 38.100742], [13.356107, 38.100474], [13.356278, 38.09968], [13.356585, 38.098969], [13.35669, 38.098849], [13.356709, 38.098769], [13.356832, 38.098608], [13.357024, 38.098409], [13.35725, 38.09825], [13.357457, 38.098145], [13.357735, 38.097946]]]}, "properties": {"bacino": "F. Oreto", "provincia": "PA", "comune": "Palermo", "localita": "Cimitero S.Orsola-Ospedale Civico-Policlinico", "sigla": "039-6PM-078", "tipologia": "A", "nuova_sigl": "SA-039-6PM-001", "modificato": "X", "n_dpr": 0, "n_dsg": 4, "data_dsg": "2026-01-09", "ngurs_dsg": 4, "dgurs_dsg": "2026-01-23", "cls_geo_siti": "Siti di attenzione geomorfologica", "col_geo_siti": "#bee8ff", "bor_geo_siti": "#000000", "sup_ha": 125.6342}}, {"type": "Feature", "geometry": {"type": "Polygon", "coordinates": [[[13.321604, 38.099821], [13.321961, 38.099891], [13.322349, 38.100025], [13.323238, 38.100386], [13.324419, 38.100854], [13.325146, 38.101148], [13.325907, 38.101417], [13.326507, 38.101593], [13.327299, 38.101927], [13.327734, 38.102139], [13.328025, 38.102285], [13.328314, 38.102482], [13.328602, 38.102719], [13.32897, 38.103046], [13.329516, 38.103441], [13.329495, 38.103621], [13.329754, 38.10445], [13.32987, 38.105083], [13.329872, 38.106437], [13.329796, 38.106887], [13.329652, 38.107465], [13.329439, 38.108223], [13.329194, 38.10898], [13.328809, 38.109374], [13.328526, 38.109641], [13.328293, 38.109831], [13.327409, 38.109947], [13.327097, 38.110046], [13.326639, 38.110078], [13.326118, 38.110045], [13.325728, 38.109962], [13.325388, 38.109841], [13.325114, 38.109696], [13.324848, 38.109215], [13.324682, 38.108632], [13.324632, 38.107948], [13.324794, 38.107267], [13.324853, 38.10683], [13.324385, 38.105908], [13.324095, 38.105723], [13.323378, 38.105004], [13.322412, 38.104435], [13.321462, 38.103867], [13.321139, 38.103708], [13.320672, 38.103457], [13.319798, 38.103135], [13.318582, 38.102795], [13.318032, 38.102594], [13.31761, 38.102484], [13.316655, 38.102148], [13.316251, 38.101975], [13.315899, 38.101673], [13.315886, 38.101531], [13.315995, 38.101043], [13.316103, 38.100645], [13.31637, 38.100365], [13.316572, 38.10011], [13.317084, 38.099808], [13.317659, 38.099636], [13.318412, 38.099543], [13.318624, 38.099547], [13.31944, 38.099532], [13.32019, 38.099569], [13.320548, 38.099613], [13.321117, 38.099711], [13.321604, 38.099821]]]}, "properties": {"bacino": "Area tra F. Oreto e Punta Raisi", "provincia": "PA", "comune": "Palermo", "localita": "Pietratagliata-Altarello di Baida", "sigla": "040-6PM-163", "tipologia": "A", "nuova_sigl": "SA-040-6PM-001", "modificato": "X", "n_dpr": 0, "n_dsg": 4, "data_dsg": "2026-01-09", "ngurs_dsg": 4, "dgurs_dsg": "2026-01-23", "cls_geo_siti": "Siti di attenzione geomorfologica", "col_geo_siti": "#bee8ff", "bor_geo_siti": "#000000", "sup_ha": 68.1731}}, {"type": "Feature", "geometry": {"type": "Polygon", "coordinates": [[[13.330731, 38.108099], [13.33101, 38.108052], [13.331676, 38.108164], [13.332304, 38.108534], [13.332624, 38.108835], [13.333091, 38.1091], [13.333282, 38.109309], [13.33336, 38.109465], [13.333322, 38.109709], [13.333252, 38.109901], [13.333104, 38.109964], [13.332876, 38.109948], [13.332619, 38.109776], [13.332295, 38.109643], [13.331989, 38.109497], [13.331403, 38.109398], [13.331079, 38.109329], [13.330364, 38.109177], [13.330155, 38.109045], [13.330047, 38.10876], [13.330053, 38.108489], [13.330354, 38.108197], [13.330731, 38.108099]]]}, "properties": {"bacino": "Area tra F. Oreto e Punta Raisi", "provincia": "PA", "comune": "Palermo", "localita": "E di Altarello di Baida", "sigla": "040-6PM-164", "tipologia": "A", "nuova_sigl": "SA-040-6PM-002", "modificato": "X", "n_dpr": 0, "n_dsg": 4, "data_dsg": "2026-01-09", "ngurs_dsg": 4, "dgurs_dsg": "2026-01-23", "cls_geo_siti": "Siti di attenzione geomorfologica", "col_geo_siti": "#bee8ff", "bor_geo_siti": "#000000", "sup_ha": 3.3699}}, {"type": "Feature", "geometry": {"type": "Polygon", "coordinates": [[[13.340628, 38.111321], [13.340925, 38.111183], [13.341352, 38.111086], [13.34222, 38.110944], [13.342874, 38.110876], [13.343314, 38.11092], [13.343785, 38.111017], [13.344223, 38.111114], [13.344694, 38.111198], [13.345067, 38.111319], [13.345553, 38.111468], [13.34604, 38.111578], [13.346727, 38.11151], [13.347645, 38.111342], [13.347923, 38.111295], [13.348283, 38.111274], [13.348461, 38.111328], [13.34885, 38.111462], [13.349176, 38.11148], [13.349747, 38.111488], [13.350283, 38.11156], [13.350589, 38.111771], [13.351344, 38.112271], [13.351536, 38.112454], [13.352014, 38.112964], [13.352512, 38.113345], [13.352863, 38.113659], [13.3532, 38.113922], [13.353306, 38.114297], [13.353236, 38.114502], [13.353168, 38.114643], [13.352953, 38.114756], [13.352591, 38.114893], [13.352231, 38.114914], [13.351757, 38.114946], [13.351148, 38.115182], [13.350951, 38.115244], [13.350653, 38.115446], [13.350353, 38.115725], [13.350155, 38.115813], [13.34973, 38.115846], [13.349436, 38.115841], [13.349192, 38.115799], [13.348983, 38.115693], [13.348742, 38.115496], [13.348717, 38.115161], [13.348741, 38.114813], [13.348666, 38.114528], [13.348424, 38.114422], [13.347986, 38.114313], [13.347694, 38.114205], [13.34768, 38.114128], [13.34746, 38.113751], [13.347299, 38.113645], [13.346845, 38.113497], [13.346536, 38.113467], [13.346046, 38.113512], [13.345671, 38.113494], [13.345135, 38.113383], [13.34494, 38.113341], [13.344469, 38.113206], [13.344178, 38.113086], [13.344017, 38.113019], [13.343498, 38.11287], [13.342945, 38.112772], [13.342325, 38.112776], [13.341967, 38.112758], [13.341592, 38.112714], [13.341124, 38.112488], [13.340835, 38.112291], [13.340628, 38.112043], [13.340555, 38.111694], [13.340628, 38.111321]]]}, "properties": {"bacino": "Area tra F. Oreto e Punta Raisi", "provincia": "PA", "comune": "Palermo", "localita": "Via Cappuccini-Corso Alberto Amedeo", "sigla": "040-6PM-165", "tipologia": "A", "nuova_sigl": "SA-040-6PM-003", "modificato": "X", "n_dpr": 0, "n_dsg": 4, "data_dsg": "2026-01-09", "ngurs_dsg": 4, "dgurs_dsg": "2026-01-23", "cls_geo_siti": "Siti di attenzione geomorfologica", "col_geo_siti": "#bee8ff", "bor_geo_siti": "#000000", "sup_ha": 29.3563}}, {"type": "Feature", "geometry": {"type": "Polygon", "coordinates": [[[13.35033, 38.122545], [13.350757, 38.122422], [13.351182, 38.122377], [13.35159, 38.12237], [13.352175, 38.122494], [13.352614, 38.12259], [13.353068, 38.122726], [13.353618, 38.122927], [13.354022, 38.123087], [13.354329, 38.123246], [13.35447, 38.123519], [13.354714, 38.124283], [13.354885, 38.124646], [13.355054, 38.1251], [13.355256, 38.125567], [13.355496, 38.125776], [13.356047, 38.125965], [13.356418, 38.126163], [13.357062, 38.126546], [13.357349, 38.126872], [13.357734, 38.127174], [13.358306, 38.127853], [13.358715, 38.128529], [13.359151, 38.12945], [13.359762, 38.130619], [13.360164, 38.131605], [13.36035, 38.132071], [13.360628, 38.132746], [13.361005, 38.134891], [13.361222, 38.135397], [13.361511, 38.13562], [13.362078, 38.135796], [13.362399, 38.136058], [13.36271, 38.13672], [13.363127, 38.137048], [13.363418, 38.137194], [13.363917, 38.137497], [13.364288, 38.137709], [13.365253, 38.138354], [13.365637, 38.138695], [13.366, 38.13928], [13.366224, 38.140198], [13.366292, 38.140792], [13.366119, 38.141241], [13.366298, 38.142752], [13.366874, 38.14325], [13.367116, 38.143369], [13.367515, 38.143813], [13.367816, 38.144217], [13.367909, 38.144451], [13.3678, 38.144939], [13.367663, 38.145221], [13.367539, 38.14567], [13.367448, 38.146056], [13.367047, 38.146463], [13.3665, 38.146868], [13.366082, 38.147275], [13.365764, 38.147644], [13.365321, 38.148489], [13.365218, 38.148681], [13.36499, 38.149387], [13.364719, 38.149834], [13.364388, 38.150049], [13.364043, 38.150108], [13.363344, 38.150008], [13.36224, 38.149735], [13.360942, 38.149369], [13.35948, 38.149], [13.359189, 38.148893], [13.358949, 38.148658], [13.358722, 38.148616], [13.358543, 38.148562], [13.357664, 38.148446], [13.357157, 38.148491], [13.356371, 38.148596], [13.355467, 38.148867], [13.353518, 38.149845], [13.352892, 38.15012], [13.35271, 38.150234], [13.352117, 38.15047], [13.351674, 38.150554], [13.350384, 38.151271], [13.349244, 38.151861], [13.348335, 38.152351], [13.347009, 38.153222], [13.344514, 38.154528], [13.343985, 38.154843], [13.343422, 38.155157], [13.34268, 38.155482], [13.341423, 38.156212], [13.340365, 38.156777], [13.339055, 38.157648], [13.337753, 38.15821], [13.335981, 38.158571], [13.335635, 38.158683], [13.334605, 38.158758], [13.333465, 38.158639], [13.332242, 38.158557], [13.331248, 38.15844], [13.33042, 38.15826], [13.329273, 38.157703], [13.328337, 38.157225], [13.327707, 38.156933], [13.327291, 38.15654], [13.327092, 38.155983], [13.327001, 38.155672], [13.32714, 38.154591], [13.327494, 38.153397], [13.32771, 38.15251], [13.328441, 38.150535], [13.32903, 38.149048], [13.329423, 38.148293], [13.329662, 38.147807], [13.329988, 38.147128], [13.330229, 38.14659], [13.330534, 38.146104], [13.330937, 38.145633], [13.331286, 38.145329], [13.331783, 38.145039], [13.332246, 38.144775], [13.33274, 38.144563], [13.333021, 38.144451], [13.333679, 38.144202], [13.334552, 38.143892], [13.33529, 38.143722], [13.336191, 38.143567], [13.337472, 38.14325], [13.338627, 38.142699], [13.338961, 38.142369], [13.339099, 38.142074], [13.339098, 38.141404], [13.338997, 38.140784], [13.338932, 38.140086], [13.338992, 38.139584], [13.339115, 38.139199], [13.339368, 38.138855], [13.339733, 38.138589], [13.340128, 38.138453], [13.34036, 38.138276], [13.340792, 38.13796], [13.34191, 38.137614], [13.342337, 38.137479], [13.342898, 38.137203], [13.343559, 38.136877], [13.343714, 38.136505], [13.343961, 38.135697], [13.344008, 38.13504], [13.344214, 38.134617], [13.34435, 38.134374], [13.344785, 38.133916], [13.345594, 38.133515], [13.346225, 38.133047], [13.34666, 38.132537], [13.346871, 38.131883], [13.346844, 38.131637], [13.346701, 38.13072], [13.346402, 38.129504], [13.346402, 38.12882], [13.346477, 38.12837], [13.346667, 38.127187], [13.346931, 38.126327], [13.34741, 38.125366], [13.347768, 38.124675], [13.348138, 38.124216], [13.348657, 38.123643], [13.348958, 38.123312], [13.349556, 38.122844], [13.349707, 38.122678], [13.35033, 38.122545]]]}, "properties": {"bacino": "Area tra F. Oreto e Punta Raisi", "provincia": "PA", "comune": "Palermo", "localita": "sottosuolo città", "sigla": "040-6PM-166", "tipologia": "A", "nuova_sigl": "SA-040-6PM-004", "modificato": "X", "n_dpr": 0, "n_dsg": 4, "data_dsg": "2026-01-09", "ngurs_dsg": 4, "dgurs_dsg": "2026-01-23", "cls_geo_siti": "Siti di attenzione geomorfologica", "col_geo_siti": "#bee8ff", "bor_geo_siti": "#000000", "sup_ha": 697.9899}}, {"type": "Feature", "geometry": {"type": "Polygon", "coordinates": [[[13.327884, 38.16489], [13.327595, 38.164692], [13.327499, 38.164614], [13.327355, 38.164457], [13.326908, 38.163999], [13.326929, 38.163793], [13.326902, 38.163561], [13.32724, 38.163089], [13.327656, 38.162708], [13.328003, 38.162571], [13.328235, 38.162407], [13.328483, 38.162281], [13.329106, 38.162174], [13.329795, 38.162016], [13.330008, 38.162006], [13.330992, 38.161827], [13.331482, 38.161795], [13.33233, 38.161846], [13.332625, 38.161824], [13.333449, 38.162197], [13.333942, 38.162784], [13.334002, 38.163004], [13.334104, 38.16356], [13.333984, 38.164512], [13.333829, 38.164845], [13.333527, 38.165202], [13.333067, 38.16535], [13.332837, 38.165386], [13.332673, 38.165422], [13.331804, 38.165603], [13.331212, 38.165749], [13.330476, 38.165791], [13.329645, 38.16574], [13.329335, 38.165697], [13.32856, 38.165312], [13.327804, 38.164824], [13.327884, 38.16489]]]}, "properties": {"bacino": "Area tra F. Oreto e Punta Raisi", "provincia": "PA", "comune": "Palermo", "localita": "Villa Niscemi-Villa Lampedusa", "sigla": "040-6PM-167", "tipologia": "A", "nuova_sigl": "SA-040-6PM-005", "modificato": "X", "n_dpr": 0, "n_dsg": 4, "data_dsg": "2026-01-09", "ngurs_dsg": 4, "dgurs_dsg": "2026-01-23", "cls_geo_siti": "Siti di attenzione geomorfologica", "col_geo_siti": "#bee8ff", "bor_geo_siti": "#000000", "sup_ha": 21.8041}}, {"type": "Feature", "geometry": {"type": "Polygon", "coordinates": [[[13.334386, 38.171957], [13.33491, 38.171874], [13.335431, 38.171946], [13.335789, 38.172042], [13.33613, 38.172124], [13.336774, 38.172533], [13.336917, 38.172689], [13.337152, 38.173131], [13.337178, 38.173415], [13.337142, 38.174304], [13.336917, 38.174855], [13.336674, 38.175484], [13.336319, 38.175994], [13.336118, 38.176211], [13.3355, 38.176821], [13.334991, 38.176955], [13.334389, 38.176844], [13.333872, 38.176604], [13.332853, 38.176151], [13.332344, 38.175551], [13.332273, 38.175099], [13.332291, 38.174313], [13.332314, 38.174004], [13.332391, 38.173476], [13.332579, 38.173131], [13.332667, 38.172835], [13.333088, 38.172274], [13.333552, 38.171997], [13.334386, 38.171957]]]}, "properties": {"bacino": "Area tra F. Oreto e Punta Raisi", "provincia": "PA", "comune": "Palermo", "localita": "Pallavicino", "sigla": "040-6PM-168", "tipologia": "A", "nuova_sigl": "SA-040-6PM-006", "modificato": "X", "n_dpr": 0, "n_dsg": 4, "data_dsg": "2026-01-09", "ngurs_dsg": 4, "dgurs_dsg": "2026-01-23", "cls_geo_siti": "Siti di attenzione geomorfologica", "col_geo_siti": "#bee8ff", "bor_geo_siti": "#000000", "sup_ha": 19.0333}}]}