{"type": "FeatureCollection", "features": [{"type": "Feature", "geometry": {"type": "Polygon", "coordinates": [[[13.325295, 38.206973], [13.325215, 38.206911], [13.325091, 38.206829], [13.324525, 38.206416], [13.323671, 38.205853], [13.323228, 38.205478], [13.323106, 38.20533], [13.322764, 38.204775], [13.32236, 38.204056], [13.322311, 38.203966], [13.322204, 38.2039], [13.321767, 38.203707], [13.321469, 38.20361], [13.321429, 38.203561], [13.321269, 38.202959], [13.321196, 38.202561], [13.321255, 38.202445], [13.321583, 38.202], [13.321584, 38.201882], [13.321603, 38.20149], [13.321668, 38.201106], [13.321809, 38.200772], [13.322032, 38.200447], [13.322163, 38.200319], [13.322312, 38.200208], [13.322681, 38.199776], [13.322833, 38.199669], [13.323052, 38.199514], [13.323826, 38.199088], [13.324147, 38.198971], [13.325028, 38.198708], [13.325881, 38.198437], [13.327116, 38.198057], [13.330352, 38.19705], [13.330982, 38.196865], [13.331659, 38.196664], [13.332052, 38.19654], [13.332339, 38.196791], [13.332595, 38.196698], [13.333341, 38.196392], [13.3338, 38.196273], [13.33396, 38.196251], [13.334155, 38.19625], [13.334606, 38.196268], [13.334934, 38.196289], [13.335206, 38.196297], [13.335595, 38.196359], [13.335844, 38.196456], [13.335991, 38.196539], [13.336117, 38.196638], [13.336306, 38.196904], [13.336499, 38.197215], [13.336577, 38.197402], [13.336514, 38.197446], [13.336458, 38.197445], [13.336402, 38.19742], [13.33633, 38.197411], [13.336264, 38.197402], [13.336242, 38.197438], [13.336192, 38.19738], [13.336057, 38.197241], [13.335988, 38.19713], [13.335981, 38.196984], [13.335956, 38.196936], [13.335887, 38.196829], [13.335888, 38.19676], [13.335879, 38.196704], [13.335859, 38.196679], [13.335768, 38.196613], [13.335668, 38.196539], [13.335433, 38.196471], [13.335051, 38.196449], [13.334128, 38.196448], [13.333721, 38.196479], [13.333391, 38.196575], [13.332425, 38.196975], [13.331714, 38.19728], [13.331325, 38.197473], [13.330456, 38.198125], [13.330084, 38.198436], [13.329294, 38.199101], [13.328501, 38.199806], [13.328014, 38.200233], [13.327598, 38.200668], [13.32711, 38.201378], [13.32716, 38.201415], [13.327009, 38.201636], [13.326635, 38.202254], [13.326042, 38.203161], [13.325778, 38.203518], [13.325494, 38.20402], [13.325395, 38.204326], [13.325333, 38.204653], [13.325297, 38.204884], [13.32524, 38.205357], [13.325243, 38.205669], [13.325294, 38.205937], [13.32537, 38.206164], [13.325413, 38.206319], [13.325503, 38.206446], [13.325593, 38.206532], [13.32576, 38.206652], [13.326205, 38.206942], [13.326594, 38.207194], [13.326035, 38.207644], [13.325707, 38.20736], [13.325295, 38.206973]]]}, "properties": {"bcn_nmr": "040", "pericolo": "SA", "cls_idraulica_siti": "Siti di attenzione idraulica", "col_idraulica_siti": "#9eaad7", "bor_idraulica_siti": "#bed2ff", "sup_ha": 39.5274}}, {"type": "Feature", "geometry": {"type": "Polygon", "coordinates": [[[13.350023, 38.113511], [13.349997, 38.113473], [13.350178, 38.113021], [13.349649, 38.112466], [13.350849, 38.111866], [13.351418, 38.111858], [13.351493, 38.11187], [13.351361, 38.112263], [13.351819, 38.112611], [13.351987, 38.112754], [13.351982, 38.112997], [13.351156, 38.113154], [13.350758, 38.113153], [13.350697, 38.113721], [13.350023, 38.113511]]]}, "properties": {"bcn_nmr": "040", "pericolo": "SA", "cls_idraulica_siti": "Siti di attenzione idraulica", "col_idraulica_siti": "#9eaad7", "bor_idraulica_siti": "#bed2ff", "sup_ha": 2.2562}}, {"type": "Feature", "geometry": {"type": "Polygon", "coordinates": [[[13.353045, 38.109775], [13.353674, 38.109105], [13.354755, 38.109704], [13.354384, 38.110083], [13.354931, 38.110308], [13.355601, 38.110544], [13.355751, 38.110421], [13.355777, 38.110439], [13.355788, 38.110469], [13.356153, 38.110805], [13.356492, 38.110857], [13.356676, 38.110788], [13.356917, 38.110792], [13.357259, 38.110862], [13.357405, 38.110906], [13.35752, 38.110979], [13.358046, 38.111257], [13.358411, 38.111379], [13.358812, 38.111498], [13.359583, 38.111735], [13.359859, 38.111715], [13.360154, 38.112184], [13.360186, 38.112172], [13.360739, 38.111739], [13.361147, 38.111381], [13.361612, 38.111659], [13.362058, 38.111894], [13.362319, 38.112026], [13.362905, 38.112261], [13.363425, 38.112471], [13.36397, 38.112657], [13.364441, 38.11281], [13.364954, 38.113007], [13.365604, 38.113288], [13.365891, 38.113491], [13.366155, 38.113692], [13.366365, 38.113897], [13.366492, 38.114125], [13.366586, 38.114451], [13.366604, 38.114756], [13.366595, 38.114851], [13.366534, 38.115181], [13.366407, 38.115656], [13.366303, 38.116003], [13.366211, 38.116255], [13.366102, 38.116539], [13.36604, 38.116616], [13.365731, 38.116805], [13.365349, 38.117018], [13.365154, 38.117128], [13.365165, 38.117155], [13.365335, 38.117217], [13.365533, 38.1173], [13.366071, 38.117507], [13.36674, 38.117779], [13.367236, 38.117613], [13.367846, 38.117326], [13.368353, 38.117098], [13.368697, 38.116903], [13.368957, 38.116728], [13.369026, 38.116768], [13.369775, 38.117362], [13.369775, 38.117663], [13.369722, 38.11785], [13.36967, 38.118064], [13.369597, 38.118304], [13.369518, 38.118479], [13.369511, 38.118628], [13.369423, 38.118832], [13.370437, 38.119278], [13.371405, 38.119682], [13.372193, 38.120018], [13.372117, 38.120228], [13.37193, 38.120312], [13.371903, 38.120359], [13.371674, 38.120636], [13.371622, 38.120635], [13.370692, 38.120542], [13.370271, 38.120542], [13.370128, 38.120537], [13.369684, 38.120332], [13.369224, 38.12014], [13.36918, 38.120092], [13.369082, 38.119852], [13.369002, 38.119711], [13.368821, 38.119521], [13.368663, 38.119367], [13.3685, 38.119204], [13.368332, 38.119118], [13.368164, 38.119071], [13.367957, 38.11902], [13.367739, 38.119002], [13.367531, 38.119017], [13.367296, 38.119089], [13.367187, 38.119153], [13.367099, 38.119223], [13.366968, 38.119334], [13.366877, 38.119521], [13.366844, 38.119663], [13.366847, 38.119845], [13.366881, 38.120007], [13.366957, 38.120157], [13.367075, 38.120298], [13.366498, 38.120257], [13.366001, 38.120084], [13.365208, 38.119703], [13.364639, 38.119481], [13.364034, 38.119249], [13.364014, 38.119094], [13.363618, 38.118769], [13.363323, 38.118729], [13.363019, 38.118493], [13.362628, 38.118446], [13.362621, 38.118425], [13.362781, 38.118004], [13.362635, 38.11796], [13.361949, 38.118111], [13.361394, 38.118041], [13.360653, 38.11795], [13.360025, 38.117879], [13.359836, 38.11807], [13.359112, 38.11781], [13.359119, 38.117795], [13.359212, 38.117537], [13.359212, 38.117534], [13.358264, 38.117273], [13.35742, 38.11705], [13.35741, 38.117062], [13.357346, 38.117258], [13.356899, 38.11715], [13.356447, 38.11712], [13.355984, 38.117018], [13.355394, 38.116751], [13.355278, 38.116552], [13.354625, 38.116233], [13.354378, 38.115911], [13.354055, 38.115513], [13.353835, 38.115725], [13.353381, 38.115256], [13.35377, 38.115077], [13.354621, 38.114895], [13.35486, 38.114642], [13.355228, 38.115425], [13.355322, 38.115567], [13.355426, 38.115646], [13.355782, 38.116103], [13.356107, 38.115911], [13.356154, 38.115924], [13.357268, 38.116526], [13.358021, 38.116513], [13.358639, 38.116531], [13.359182, 38.116705], [13.359894, 38.116956], [13.360512, 38.117165], [13.361282, 38.11731], [13.361531, 38.117313], [13.361719, 38.117259], [13.362364, 38.117098], [13.36317, 38.117142], [13.363501, 38.116515], [13.363314, 38.116438], [13.363374, 38.116287], [13.363253, 38.116118], [13.363257, 38.115937], [13.363306, 38.115621], [13.363306, 38.115267], [13.363012, 38.115239], [13.362636, 38.114969], [13.362405, 38.114912], [13.36194, 38.114783], [13.362109, 38.11449], [13.361865, 38.114445], [13.361385, 38.114319], [13.361116, 38.114193], [13.360926, 38.114075], [13.360676, 38.113892], [13.360558, 38.113783], [13.360399, 38.113465], [13.360373, 38.113251], [13.360372, 38.112967], [13.360326, 38.112833], [13.36021, 38.11264], [13.359318, 38.112553], [13.359382, 38.112298], [13.35909, 38.112196], [13.358906, 38.112184], [13.358831, 38.11232], [13.358516, 38.112256], [13.357691, 38.112191], [13.357488, 38.112069], [13.357131, 38.112031], [13.356699, 38.111936], [13.355879, 38.111758], [13.355348, 38.111583], [13.355066, 38.111377], [13.35498, 38.111325], [13.354364, 38.110717], [13.354081, 38.110639], [13.353432, 38.110153], [13.353316, 38.11011], [13.353067, 38.109778], [13.353045, 38.109775]]]}, "properties": {"bcn_nmr": "040", "pericolo": "SA", "cls_idraulica_siti": "Siti di attenzione idraulica", "col_idraulica_siti": "#9eaad7", "bor_idraulica_siti": "#bed2ff", "sup_ha": 51.7946}}, {"type": "Feature", "geometry": {"type": "Polygon", "coordinates": [[[13.35485, 38.114654], [13.354621, 38.114895], [13.35377, 38.115077], [13.353381, 38.115256], [13.353414, 38.11529], [13.353123, 38.115226], [13.352014, 38.114905], [13.35174, 38.114804], [13.352, 38.114444], [13.352114, 38.114281], [13.352272, 38.114327], [13.352221, 38.114413], [13.353049, 38.114701], [13.353719, 38.114929], [13.353792, 38.11493], [13.354001, 38.114899], [13.354365, 38.114812], [13.354576, 38.114732], [13.354825, 38.114561], [13.35485, 38.114654]]]}, "properties": {"bcn_nmr": "040", "pericolo": "SA", "cls_idraulica_siti": "Siti di attenzione idraulica", "col_idraulica_siti": "#9eaad7", "bor_idraulica_siti": "#bed2ff", "sup_ha": 1.0319}}, {"type": "Feature", "geometry": {"type": "Polygon", "coordinates": [[[13.302695, 38.078898], [13.303623, 38.078917], [13.304158, 38.07938], [13.303887, 38.079881], [13.303737, 38.080199], [13.303372, 38.080187], [13.302547, 38.079732], [13.302695, 38.078898]]]}, "properties": {"bcn_nmr": "039", "pericolo": "SA", "data_dpr": "1899-12-30", "data_gurs": "1899-12-30", "codice": "039-E18", "comune": "Monreale", "provincia": "Palermo", "n_adsg": 0, "data_adsg": "1899-12-30", "ngurs_adsg": 0, "dgurs_adsg": "1899-12-30", "n_dsg": 819, "data_dsg": "2023-10-17", "ngurs_dsg": 0, "cls_idraulica_siti": "Siti di attenzione idraulica", "col_idraulica_siti": "#9eaad7", "bor_idraulica_siti": "#bed2ff", "sup_ha": 1.4737}}, {"type": "Feature", "geometry": {"type": "Polygon", "coordinates": [[[13.319895, 38.091864], [13.319388, 38.09099], [13.319711, 38.089894], [13.321098, 38.089488], [13.322028, 38.089892], [13.322768, 38.090546], [13.322771, 38.091572], [13.321935, 38.092338], [13.319895, 38.091864]]]}, "properties": {"bcn_nmr": "039", "pericolo": "SA", "data_dpr": "1899-12-30", "data_gurs": "1899-12-30", "codice": "039-E19", "comune": "Palermo", "provincia": "Palermo", "n_adsg": 0, "data_adsg": "1899-12-30", "ngurs_adsg": 0, "dgurs_adsg": "1899-12-30", "n_dsg": 819, "data_dsg": "2023-10-17", "ngurs_dsg": 0, "cls_idraulica_siti": "Siti di attenzione idraulica", "col_idraulica_siti": "#9eaad7", "bor_idraulica_siti": "#bed2ff", "sup_ha": 6.8635}}, {"type": "Feature", "geometry": {"type": "Polygon", "coordinates": [[[13.308986, 38.209721], [13.309071, 38.208158], [13.309446, 38.207384], [13.30955, 38.206624], [13.309529, 38.205382], [13.309636, 38.20531], [13.310413, 38.20577], [13.310913, 38.206019], [13.311541, 38.205774], [13.312434, 38.205619], [13.31276, 38.205172], [13.313385, 38.204533], [13.313416, 38.204582], [13.313013, 38.205003], [13.312917, 38.205205], [13.312932, 38.20525], [13.313289, 38.20538], [13.313372, 38.205427], [13.313564, 38.205452], [13.313556, 38.205506], [13.313175, 38.205461], [13.312937, 38.20549], [13.312527, 38.205879], [13.312024, 38.206353], [13.31134, 38.206388], [13.310703, 38.206656], [13.31017, 38.207158], [13.309505, 38.20828], [13.30939, 38.209062], [13.308986, 38.209721]]]}, "properties": {"bcn_nmr": "040", "pericolo": "SA", "data_dpr": "1899-12-30", "data_gurs": "1899-12-30", "codice": "040-E23", "comune": "Palermo", "provincia": "Palermo", "n_adsg": 0, "data_adsg": "1899-12-30", "ngurs_adsg": 0, "dgurs_adsg": "1899-12-30", "n_dsg": 819, "data_dsg": "2023-10-17", "ngurs_dsg": 0, "cls_idraulica_siti": "Siti di attenzione idraulica", "col_idraulica_siti": "#9eaad7", "bor_idraulica_siti": "#bed2ff", "sup_ha": 3.9753}}, {"type": "Feature", "geometry": {"type": "Polygon", "coordinates": [[[13.33203, 38.09404], [13.331789, 38.094636], [13.328108, 38.09343], [13.328435, 38.092658], [13.328455, 38.092666], [13.328484, 38.092681], [13.328537, 38.092722], [13.328596, 38.092785], [13.328661, 38.092836], [13.328737, 38.092865], [13.328846, 38.09289], [13.328948, 38.092899], [13.329024, 38.092909], [13.329088, 38.092905], [13.329165, 38.092889], [13.329202, 38.092884], [13.329233, 38.092885], [13.329275, 38.092899], [13.329332, 38.092917], [13.329401, 38.09294], [13.3295, 38.092963], [13.329583, 38.092969], [13.32967, 38.092961], [13.329741, 38.092952], [13.329804, 38.092953], [13.329865, 38.092961], [13.329919, 38.092977], [13.329975, 38.092985], [13.330038, 38.092992], [13.330086, 38.092983], [13.330131, 38.092967], [13.330167, 38.092944], [13.33028, 38.092902], [13.33033, 38.092887], [13.330369, 38.092885], [13.330423, 38.092899], [13.330487, 38.092956], [13.33052, 38.093009], [13.330551, 38.093068], [13.330583, 38.093134], [13.330672, 38.09321], [13.33079, 38.093284], [13.330993, 38.093441], [13.331059, 38.093497], [13.33119, 38.093555], [13.331354, 38.09362], [13.331481, 38.093666], [13.331566, 38.093694], [13.331649, 38.093726], [13.331787, 38.093819], [13.33191, 38.093951], [13.33201, 38.094028], [13.33203, 38.09404]]]}, "properties": {"bcn_nmr": "039", "pericolo": "SA", "data_dpr": "1899-12-30", "data_gurs": "1899-12-30", "codice": "039-E20", "comune": "Palermo", "provincia": "Palermo", "n_adsg": 0, "data_adsg": "1899-12-30", "ngurs_adsg": 0, "dgurs_adsg": "1899-12-30", "n_dsg": 819, "data_dsg": "2023-10-17", "ngurs_dsg": 0, "cls_idraulica_siti": "Siti di attenzione idraulica", "col_idraulica_siti": "#9eaad7", "bor_idraulica_siti": "#bed2ff", "sup_ha": 3.3596}}, {"type": "Feature", "geometry": {"type": "Polygon", "coordinates": [[[13.332334, 38.092683], [13.332199, 38.092693], [13.332111, 38.092702], [13.332047, 38.092702], [13.331975, 38.092674], [13.33194, 38.092623], [13.331935, 38.092539], [13.331909, 38.092463], [13.33185, 38.092374], [13.331778, 38.092328], [13.331698, 38.092295], [13.331576, 38.092259], [13.3315, 38.092236], [13.331436, 38.092241], [13.331401, 38.092257], [13.331361, 38.092271], [13.331277, 38.092274], [13.331112, 38.092261], [13.330951, 38.092266], [13.330849, 38.092276], [13.330777, 38.092282], [13.330707, 38.092276], [13.330613, 38.092274], [13.33059, 38.092279], [13.330553, 38.092299], [13.330501, 38.092343], [13.330445, 38.09237], [13.330385, 38.092381], [13.330306, 38.092388], [13.330227, 38.092382], [13.330184, 38.092376], [13.330111, 38.092341], [13.330016, 38.092298], [13.329942, 38.092248], [13.329816, 38.092169], [13.329708, 38.0921], [13.329537, 38.092011], [13.329394, 38.09194], [13.329284, 38.091908], [13.329158, 38.091895], [13.329007, 38.091899], [13.328855, 38.091889], [13.32877, 38.091868], [13.329039, 38.091234], [13.331411, 38.091233], [13.332334, 38.092683]]]}, "properties": {"bcn_nmr": "039", "pericolo": "SA", "data_dpr": "1899-12-30", "data_gurs": "1899-12-30", "codice": "039-E20", "comune": "Palermo", "provincia": "Palermo", "n_adsg": 0, "data_adsg": "1899-12-30", "ngurs_adsg": 0, "dgurs_adsg": "1899-12-30", "n_dsg": 819, "data_dsg": "2023-10-17", "ngurs_dsg": 0, "cls_idraulica_siti": "Siti di attenzione idraulica", "col_idraulica_siti": "#9eaad7", "bor_idraulica_siti": "#bed2ff", "sup_ha": 2.767}}, {"type": "Feature", "geometry": {"type": "Polygon", "coordinates": [[[13.328779, 38.128099], [13.329079, 38.127934], [13.329331, 38.127709], [13.329344, 38.127428], [13.329262, 38.126783], [13.32948, 38.126738], [13.329883, 38.126834], [13.329943, 38.127646], [13.330003, 38.128171], [13.330047, 38.128649], [13.33014, 38.129323], [13.330243, 38.130106], [13.329771, 38.130133], [13.329648, 38.129468], [13.329576, 38.128885], [13.32946, 38.128164], [13.329237, 38.128369], [13.329213, 38.128249], [13.329211, 38.128075], [13.329038, 38.128172], [13.328811, 38.128109], [13.328779, 38.128099]]]}, "properties": {"bcn_nmr": "040", "pericolo": "SA", "data_dpr": "1899-12-30", "data_gurs": "1899-12-30", "codice": "040-E24", "comune": "Palermo", "provincia": "Palermo", "n_adsg": 0, "data_adsg": "1899-12-30", "ngurs_adsg": 0, "dgurs_adsg": "1899-12-30", "n_dsg": 819, "data_dsg": "2023-10-17", "ngurs_dsg": 0, "cls_idraulica_siti": "Siti di attenzione idraulica", "col_idraulica_siti": "#9eaad7", "bor_idraulica_siti": "#bed2ff", "sup_ha": 1.933}}, {"type": "Feature", "geometry": {"type": "Polygon", "coordinates": [[[13.328447, 38.128109], [13.328368, 38.128147], [13.328142, 38.128082], [13.327914, 38.128019], [13.327914, 38.127977], [13.328447, 38.128109]]]}, "properties": {"bcn_nmr": "040", "pericolo": "SA", "data_dpr": "1899-12-30", "data_gurs": "1899-12-30", "codice": "040-E24", "comune": "Palermo", "provincia": "Palermo", "n_adsg": 0, "data_adsg": "1899-12-30", "ngurs_adsg": 0, "dgurs_adsg": "1899-12-30", "n_dsg": 819, "data_dsg": "2023-10-17", "ngurs_dsg": 0, "cls_idraulica_siti": "Siti di attenzione idraulica", "col_idraulica_siti": "#9eaad7", "bor_idraulica_siti": "#bed2ff", "sup_ha": 0.0239}}, {"type": "Feature", "geometry": {"type": "Polygon", "coordinates": [[[13.322231, 38.127143], [13.321925, 38.127141], [13.321407, 38.127123], [13.321412, 38.127117], [13.321457, 38.127118], [13.321503, 38.127119], [13.321549, 38.127121], [13.321594, 38.127122], [13.32164, 38.127124], [13.321685, 38.127125], [13.321731, 38.127126], [13.321776, 38.127128], [13.321822, 38.127129], [13.321867, 38.127131], [13.321913, 38.127132], [13.321958, 38.127133], [13.322004, 38.127135], [13.322049, 38.127136], [13.322095, 38.127138], [13.32214, 38.127139], [13.322186, 38.12714], [13.322231, 38.127142], [13.322231, 38.127143]]]}, "properties": {"bcn_nmr": "040", "pericolo": "SA", "data_dpr": "1899-12-30", "data_gurs": "1899-12-30", "codice": "040-E24", "comune": "Palermo", "provincia": "Palermo", "n_adsg": 0, "data_adsg": "1899-12-30", "ngurs_adsg": 0, "dgurs_adsg": "1899-12-30", "n_dsg": 819, "data_dsg": "2023-10-17", "ngurs_dsg": 0, "cls_idraulica_siti": "Siti di attenzione idraulica", "col_idraulica_siti": "#9eaad7", "bor_idraulica_siti": "#bed2ff", "sup_ha": 0.0052}}, {"type": "Feature", "geometry": {"type": "Polygon", "coordinates": [[[13.313828, 38.126973], [13.313827, 38.126972], [13.313793, 38.126963], [13.31379, 38.126925], [13.313751, 38.126924], [13.313705, 38.126928], [13.313714, 38.126891], [13.313774, 38.126883], [13.313843, 38.12689], [13.313899, 38.126898], [13.31396, 38.12691], [13.314017, 38.126888], [13.314, 38.126831], [13.314066, 38.126861], [13.314129, 38.126886], [13.31419, 38.126903], [13.314231, 38.126882], [13.314257, 38.126906], [13.314257, 38.126929], [13.31428, 38.126942], [13.314315, 38.126928], [13.314357, 38.12692], [13.314388, 38.126942], [13.314406, 38.126974], [13.314448, 38.126968], [13.314489, 38.126962], [13.31453, 38.126956], [13.314537, 38.126923], [13.314569, 38.126951], [13.314608, 38.126947], [13.314598, 38.126974], [13.314588, 38.127011], [13.314591, 38.127025], [13.314001, 38.127013], [13.313828, 38.126973]]]}, "properties": {"bcn_nmr": "040", "pericolo": "SA", "data_dpr": "1899-12-30", "data_gurs": "1899-12-30", "codice": "040-E24", "comune": "Palermo", "provincia": "Palermo", "n_adsg": 0, "data_adsg": "1899-12-30", "ngurs_adsg": 0, "dgurs_adsg": "1899-12-30", "n_dsg": 819, "data_dsg": "2023-10-17", "ngurs_dsg": 0, "cls_idraulica_siti": "Siti di attenzione idraulica", "col_idraulica_siti": "#9eaad7", "bor_idraulica_siti": "#bed2ff", "sup_ha": 0.0806}}, {"type": "Feature", "geometry": {"type": "Polygon", "coordinates": [[[13.320504, 38.127092], [13.320501, 38.127089], [13.320547, 38.12709], [13.320592, 38.127092], [13.320638, 38.127093], [13.320683, 38.127094], [13.320729, 38.127096], [13.320775, 38.127097], [13.32082, 38.127099], [13.320866, 38.1271], [13.320911, 38.127101], [13.320957, 38.127103], [13.321002, 38.127104], [13.321023, 38.127077], [13.321048, 38.127105], [13.321093, 38.127107], [13.321139, 38.127108], [13.321184, 38.12711], [13.32123, 38.127111], [13.321275, 38.127112], [13.321278, 38.127119], [13.320719, 38.1271], [13.320504, 38.127092]]]}, "properties": {"bcn_nmr": "040", "pericolo": "SA", "data_dpr": "1899-12-30", "data_gurs": "1899-12-30", "codice": "040-E24", "comune": "Palermo", "provincia": "Palermo", "n_adsg": 0, "data_adsg": "1899-12-30", "ngurs_adsg": 0, "dgurs_adsg": "1899-12-30", "n_dsg": 819, "data_dsg": "2023-10-17", "ngurs_dsg": 0, "cls_idraulica_siti": "Siti di attenzione idraulica", "col_idraulica_siti": "#9eaad7", "bor_idraulica_siti": "#bed2ff", "sup_ha": 0.0042}}, {"type": "Feature", "geometry": {"type": "Polygon", "coordinates": [[[13.31507, 38.126937], [13.31509, 38.126978], [13.315046, 38.127019], [13.314984, 38.127022], [13.315004, 38.126975], [13.314954, 38.126971], [13.314934, 38.126934], [13.31498, 38.126935], [13.315025, 38.126936], [13.315049, 38.126905], [13.315093, 38.126907], [13.31507, 38.126937]]]}, "properties": {"bcn_nmr": "040", "pericolo": "SA", "data_dpr": "1899-12-30", "data_gurs": "1899-12-30", "codice": "040-E24", "comune": "Palermo", "provincia": "Palermo", "n_adsg": 0, "data_adsg": "1899-12-30", "ngurs_adsg": 0, "dgurs_adsg": "1899-12-30", "n_dsg": 819, "data_dsg": "2023-10-17", "ngurs_dsg": 0, "cls_idraulica_siti": "Siti di attenzione idraulica", "col_idraulica_siti": "#9eaad7", "bor_idraulica_siti": "#bed2ff", "sup_ha": 0.0096}}, {"type": "Feature", "geometry": {"type": "Polygon", "coordinates": [[[13.319849, 38.127069], [13.319864, 38.127069], [13.319909, 38.127071], [13.319955, 38.127072], [13.320001, 38.127073], [13.320046, 38.127075], [13.320092, 38.127076], [13.320137, 38.127078], [13.320183, 38.127079], [13.320228, 38.12708], [13.320254, 38.127053], [13.320298, 38.127054], [13.320319, 38.127083], [13.320321, 38.127085], [13.319849, 38.127069]]]}, "properties": {"bcn_nmr": "040", "pericolo": "SA", "data_dpr": "1899-12-30", "data_gurs": "1899-12-30", "codice": "040-E24", "comune": "Palermo", "provincia": "Palermo", "n_adsg": 0, "data_adsg": "1899-12-30", "ngurs_adsg": 0, "dgurs_adsg": "1899-12-30", "n_dsg": 819, "data_dsg": "2023-10-17", "ngurs_dsg": 0, "cls_idraulica_siti": "Siti di attenzione idraulica", "col_idraulica_siti": "#9eaad7", "bor_idraulica_siti": "#bed2ff", "sup_ha": 0.0024}}, {"type": "Feature", "geometry": {"type": "Polygon", "coordinates": [[[13.316672, 38.126972], [13.316696, 38.126982], [13.316722, 38.126973], [13.316768, 38.126974], [13.316813, 38.126976], [13.316859, 38.126977], [13.316905, 38.126979], [13.31695, 38.12698], [13.316996, 38.126981], [13.317041, 38.126983], [13.317014, 38.12701], [13.317031, 38.127037], [13.316632, 38.127029], [13.316647, 38.127012], [13.316664, 38.127015], [13.316672, 38.126972]]]}, "properties": {"bcn_nmr": "040", "pericolo": "SA", "data_dpr": "1899-12-30", "data_gurs": "1899-12-30", "codice": "040-E24", "comune": "Palermo", "provincia": "Palermo", "n_adsg": 0, "data_adsg": "1899-12-30", "ngurs_adsg": 0, "dgurs_adsg": "1899-12-30", "n_dsg": 819, "data_dsg": "2023-10-17", "ngurs_dsg": 0, "cls_idraulica_siti": "Siti di attenzione idraulica", "col_idraulica_siti": "#9eaad7", "bor_idraulica_siti": "#bed2ff", "sup_ha": 0.0199}}, {"type": "Feature", "geometry": {"type": "Polygon", "coordinates": [[[13.31755, 38.127031], [13.317515, 38.127031], [13.317496, 38.126997], [13.31753, 38.126957], [13.317572, 38.126959], [13.31762, 38.126923], [13.317612, 38.126973], [13.317633, 38.127001], [13.317679, 38.127002], [13.317724, 38.127004], [13.31777, 38.127005], [13.317815, 38.127006], [13.317861, 38.127008], [13.317906, 38.127009], [13.317952, 38.127011], [13.317997, 38.127012], [13.318043, 38.127013], [13.318088, 38.127015], [13.318134, 38.127016], [13.318179, 38.127018], [13.318181, 38.127021], [13.317562, 38.12703], [13.317562, 38.12703], [13.31755, 38.127031]]]}, "properties": {"bcn_nmr": "040", "pericolo": "SA", "data_dpr": "1899-12-30", "data_gurs": "1899-12-30", "codice": "040-E24", "comune": "Palermo", "provincia": "Palermo", "n_adsg": 0, "data_adsg": "1899-12-30", "ngurs_adsg": 0, "dgurs_adsg": "1899-12-30", "n_dsg": 819, "data_dsg": "2023-10-17", "ngurs_dsg": 0, "cls_idraulica_siti": "Siti di attenzione idraulica", "col_idraulica_siti": "#9eaad7", "bor_idraulica_siti": "#bed2ff", "sup_ha": 0.0172}}, {"type": "Feature", "geometry": {"type": "Polygon", "coordinates": [[[13.31736, 38.126992], [13.317335, 38.127024], [13.317314, 38.126991], [13.317344, 38.126956], [13.31736, 38.126992]]]}, "properties": {"bcn_nmr": "040", "pericolo": "SA", "data_dpr": "1899-12-30", "data_gurs": "1899-12-30", "codice": "040-E24", "comune": "Palermo", "provincia": "Palermo", "n_adsg": 0, "data_adsg": "1899-12-30", "ngurs_adsg": 0, "dgurs_adsg": "1899-12-30", "n_dsg": 819, "data_dsg": "2023-10-17", "ngurs_dsg": 0, "cls_idraulica_siti": "Siti di attenzione idraulica", "col_idraulica_siti": "#9eaad7", "bor_idraulica_siti": "#bed2ff", "sup_ha": 0.0015}}, {"type": "Feature", "geometry": {"type": "Polygon", "coordinates": [[[13.318272, 38.127023], [13.31827, 38.12702], [13.318316, 38.127022], [13.318361, 38.127023], [13.318407, 38.127025], [13.318453, 38.127026], [13.318498, 38.127027], [13.318544, 38.127029], [13.318589, 38.12703], [13.318635, 38.127032], [13.318661, 38.126995], [13.31868, 38.127033], [13.318726, 38.127034], [13.318771, 38.127036], [13.318798, 38.127002], [13.318839, 38.127001], [13.318862, 38.127038], [13.318272, 38.127023]]]}, "properties": {"bcn_nmr": "040", "pericolo": "SA", "data_dpr": "1899-12-30", "data_gurs": "1899-12-30", "codice": "040-E24", "comune": "Palermo", "provincia": "Palermo", "n_adsg": 0, "data_adsg": "1899-12-30", "ngurs_adsg": 0, "dgurs_adsg": "1899-12-30", "n_dsg": 819, "data_dsg": "2023-10-17", "ngurs_dsg": 0, "cls_idraulica_siti": "Siti di attenzione idraulica", "col_idraulica_siti": "#9eaad7", "bor_idraulica_siti": "#bed2ff", "sup_ha": 0.0037}}, {"type": "Feature", "geometry": {"type": "Polygon", "coordinates": [[[13.316479, 38.126961], [13.316454, 38.12697], [13.316422, 38.126963], [13.316385, 38.126965], [13.31634, 38.126964], [13.316294, 38.126963], [13.316249, 38.126962], [13.316262, 38.126931], [13.316318, 38.126934], [13.31636, 38.126936], [13.316399, 38.126933], [13.31645, 38.126937], [13.316477, 38.126909], [13.316492, 38.126939], [13.316528, 38.126939], [13.316563, 38.126941], [13.316595, 38.126945], [13.316608, 38.126969], [13.316479, 38.126961]]]}, "properties": {"bcn_nmr": "040", "pericolo": "SA", "data_dpr": "1899-12-30", "data_gurs": "1899-12-30", "codice": "040-E24", "comune": "Palermo", "provincia": "Palermo", "n_adsg": 0, "data_adsg": "1899-12-30", "ngurs_adsg": 0, "dgurs_adsg": "1899-12-30", "n_dsg": 819, "data_dsg": "2023-10-17", "ngurs_dsg": 0, "cls_idraulica_siti": "Siti di attenzione idraulica", "col_idraulica_siti": "#9eaad7", "bor_idraulica_siti": "#bed2ff", "sup_ha": 0.01}}, {"type": "Feature", "geometry": {"type": "Polygon", "coordinates": [[[13.316572, 38.126652], [13.316591, 38.126681], [13.316571, 38.126708], [13.316526, 38.126708], [13.316491, 38.126759], [13.316442, 38.126758], [13.316395, 38.126756], [13.316384, 38.126706], [13.316363, 38.126675], [13.316318, 38.126674], [13.316286, 38.126703], [13.316236, 38.126714], [13.316177, 38.126687], [13.316137, 38.126723], [13.316062, 38.126732], [13.316011, 38.126705], [13.315962, 38.126714], [13.315914, 38.126689], [13.315879, 38.126664], [13.315839, 38.126672], [13.315806, 38.126676], [13.315771, 38.126675], [13.315743, 38.126673], [13.315709, 38.126671], [13.315678, 38.126669], [13.315637, 38.126663], [13.315673, 38.126651], [13.315811, 38.126655], [13.315816, 38.126632], [13.315533, 38.126474], [13.315577, 38.126467], [13.315461, 38.126413], [13.315422, 38.126425], [13.31542, 38.126422], [13.315331, 38.126449], [13.315345, 38.126425], [13.315368, 38.126409], [13.315357, 38.126389], [13.31532, 38.126369], [13.315329, 38.126332], [13.315302, 38.126307], [13.315273, 38.126283], [13.315241, 38.126283], [13.315212, 38.126267], [13.315189, 38.126251], [13.315163, 38.12622], [13.315117, 38.12621], [13.315075, 38.126202], [13.315031, 38.126208], [13.314995, 38.126188], [13.314959, 38.126168], [13.314927, 38.126182], [13.31489, 38.126157], [13.314887, 38.126128], [13.314851, 38.126107], [13.314814, 38.126087], [13.31482, 38.126062], [13.314794, 38.12605], [13.314768, 38.126036], [13.314775, 38.126004], [13.314786, 38.125981], [13.314808, 38.125992], [13.314857, 38.126021], [13.314914, 38.126062], [13.314929, 38.126049], [13.314989, 38.126078], [13.315676, 38.126369], [13.3164, 38.126652], [13.316572, 38.126652]]]}, "properties": {"bcn_nmr": "040", "pericolo": "SA", "data_dpr": "1899-12-30", "data_gurs": "1899-12-30", "codice": "040-E24", "comune": "Palermo", "provincia": "Palermo", "n_adsg": 0, "data_adsg": "1899-12-30", "ngurs_adsg": 0, "dgurs_adsg": "1899-12-30", "n_dsg": 819, "data_dsg": "2023-10-17", "ngurs_dsg": 0, "cls_idraulica_siti": "Siti di attenzione idraulica", "col_idraulica_siti": "#9eaad7", "bor_idraulica_siti": "#bed2ff", "sup_ha": 0.243}}, {"type": "Feature", "geometry": {"type": "Polygon", "coordinates": [[[13.314541, 38.1263], [13.314578, 38.126298], [13.314586, 38.126325], [13.314601, 38.126346], [13.31464, 38.126349], [13.314672, 38.126377], [13.314666, 38.126409], [13.314686, 38.126439], [13.314704, 38.126464], [13.314724, 38.1265], [13.314697, 38.12652], [13.314711, 38.126554], [13.314704, 38.126596], [13.314734, 38.126636], [13.314681, 38.126684], [13.314624, 38.126647], [13.314568, 38.126666], [13.314498, 38.126678], [13.314436, 38.12668], [13.314366, 38.126661], [13.314329, 38.126698], [13.314273, 38.126718], [13.314228, 38.126687], [13.314179, 38.12666], [13.314128, 38.126672], [13.314055, 38.126664], [13.314042, 38.126626], [13.314032, 38.126591], [13.314024, 38.126558], [13.313987, 38.126555], [13.313963, 38.126547], [13.313959, 38.126523], [13.31388, 38.126517], [13.313874, 38.126439], [13.313987, 38.126372], [13.313952, 38.12619], [13.314101, 38.126159], [13.314084, 38.126095], [13.314073, 38.126073], [13.314201, 38.126067], [13.314211, 38.126106], [13.314222, 38.12614], [13.314144, 38.126131], [13.314181, 38.126322], [13.314338, 38.126297], [13.314349, 38.126255], [13.314493, 38.126191], [13.314497, 38.12622], [13.314507, 38.12626], [13.314528, 38.126277], [13.314394, 38.126321], [13.314433, 38.126396], [13.314309, 38.12643], [13.314003, 38.126429], [13.314006, 38.126538], [13.314312, 38.126549], [13.314312, 38.126499], [13.314457, 38.126458], [13.314517, 38.126558], [13.314658, 38.126508], [13.314541, 38.1263]]]}, "properties": {"bcn_nmr": "040", "pericolo": "SA", "data_dpr": "1899-12-30", "data_gurs": "1899-12-30", "codice": "040-E24", "comune": "Palermo", "provincia": "Palermo", "n_adsg": 0, "data_adsg": "1899-12-30", "ngurs_adsg": 0, "dgurs_adsg": "1899-12-30", "n_dsg": 819, "data_dsg": "2023-10-17", "ngurs_dsg": 0, "cls_idraulica_siti": "Siti di attenzione idraulica", "col_idraulica_siti": "#9eaad7", "bor_idraulica_siti": "#bed2ff", "sup_ha": 0.2272}}, {"type": "Feature", "geometry": {"type": "Polygon", "coordinates": [[[13.31925, 38.126693], [13.319241, 38.126721], [13.319232, 38.126759], [13.319194, 38.126756], [13.319135, 38.126735], [13.319093, 38.126725], [13.319059, 38.126733], [13.31902, 38.126738], [13.318981, 38.126734], [13.31894, 38.126769], [13.318901, 38.126726], [13.31886, 38.12673], [13.31882, 38.126725], [13.318787, 38.126732], [13.318746, 38.126726], [13.318717, 38.126717], [13.318674, 38.126729], [13.318631, 38.126733], [13.318592, 38.126721], [13.318544, 38.126726], [13.318493, 38.126724], [13.318431, 38.126726], [13.318371, 38.12672], [13.318311, 38.126705], [13.318244, 38.12673], [13.318182, 38.126746], [13.318109, 38.126727], [13.318053, 38.126695], [13.318002, 38.12671], [13.317987, 38.126734], [13.317946, 38.126732], [13.317924, 38.12676], [13.317884, 38.126757], [13.317865, 38.126729], [13.317827, 38.12673], [13.31779, 38.12673], [13.317744, 38.126726], [13.317678, 38.126718], [13.317658, 38.126763], [13.3176, 38.12676], [13.317546, 38.12674], [13.317501, 38.126737], [13.317461, 38.126732], [13.317422, 38.126732], [13.31738, 38.126728], [13.31734, 38.126728], [13.317299, 38.126727], [13.317248, 38.126726], [13.317208, 38.126727], [13.317169, 38.126725], [13.317126, 38.126724], [13.317079, 38.126724], [13.317033, 38.12672], [13.316978, 38.126719], [13.316934, 38.126717], [13.31689, 38.126717], [13.316834, 38.126715], [13.316792, 38.126717], [13.316748, 38.126715], [13.316727, 38.126684], [13.316755, 38.126653], [13.316932, 38.126654], [13.317759, 38.126623], [13.318453, 38.126603], [13.318448, 38.126658], [13.318819, 38.126664], [13.318837, 38.126691], [13.31887, 38.126694], [13.318902, 38.126691], [13.318935, 38.126693], [13.31897, 38.126694], [13.319004, 38.126697], [13.319038, 38.126698], [13.319072, 38.126695], [13.31911, 38.126694], [13.319145, 38.126697], [13.319183, 38.126697], [13.319215, 38.126693], [13.31925, 38.126693]]]}, "properties": {"bcn_nmr": "040", "pericolo": "SA", "data_dpr": "1899-12-30", "data_gurs": "1899-12-30", "codice": "040-E24", "comune": "Palermo", "provincia": "Palermo", "n_adsg": 0, "data_adsg": "1899-12-30", "ngurs_adsg": 0, "dgurs_adsg": "1899-12-30", "n_dsg": 819, "data_dsg": "2023-10-17", "ngurs_dsg": 0, "cls_idraulica_siti": "Siti di attenzione idraulica", "col_idraulica_siti": "#9eaad7", "bor_idraulica_siti": "#bed2ff", "sup_ha": 0.2039}}, {"type": "Feature", "geometry": {"type": "Polygon", "coordinates": [[[13.322413, 38.126699], [13.322384, 38.126746], [13.322291, 38.12682], [13.322167, 38.126819], [13.32222, 38.126731], [13.32219, 38.126691], [13.322413, 38.126699]]]}, "properties": {"bcn_nmr": "040", "pericolo": "SA", "data_dpr": "1899-12-30", "data_gurs": "1899-12-30", "codice": "040-E24", "comune": "Palermo", "provincia": "Palermo", "n_adsg": 0, "data_adsg": "1899-12-30", "ngurs_adsg": 0, "dgurs_adsg": "1899-12-30", "n_dsg": 819, "data_dsg": "2023-10-17", "ngurs_dsg": 0, "cls_idraulica_siti": "Siti di attenzione idraulica", "col_idraulica_siti": "#9eaad7", "bor_idraulica_siti": "#bed2ff", "sup_ha": 0.0201}}, {"type": "Feature", "geometry": {"type": "Polygon", "coordinates": [[[13.320885, 38.126721], [13.320869, 38.126744], [13.320865, 38.126779], [13.320815, 38.126781], [13.320772, 38.126782], [13.320728, 38.126779], [13.320685, 38.12678], [13.32064, 38.126775], [13.320597, 38.126771], [13.320551, 38.126763], [13.320511, 38.126772], [13.320472, 38.126777], [13.320457, 38.126738], [13.320424, 38.126736], [13.320387, 38.126735], [13.320374, 38.126707], [13.320885, 38.126721]]]}, "properties": {"bcn_nmr": "040", "pericolo": "SA", "data_dpr": "1899-12-30", "data_gurs": "1899-12-30", "codice": "040-E24", "comune": "Palermo", "provincia": "Palermo", "n_adsg": 0, "data_adsg": "1899-12-30", "ngurs_adsg": 0, "dgurs_adsg": "1899-12-30", "n_dsg": 819, "data_dsg": "2023-10-17", "ngurs_dsg": 0, "cls_idraulica_siti": "Siti di attenzione idraulica", "col_idraulica_siti": "#9eaad7", "bor_idraulica_siti": "#bed2ff", "sup_ha": 0.0262}}, {"type": "Feature", "geometry": {"type": "Polygon", "coordinates": [[[13.31548, 38.126581], [13.315476, 38.126606], [13.315474, 38.126629], [13.315462, 38.126658], [13.315439, 38.126694], [13.315407, 38.126669], [13.315358, 38.126658], [13.31531, 38.126657], [13.315272, 38.126682], [13.31521, 38.126701], [13.315167, 38.126674], [13.315112, 38.126693], [13.315054, 38.126691], [13.315034, 38.126647], [13.314976, 38.12663], [13.31493, 38.1266], [13.314892, 38.126618], [13.31486, 38.126592], [13.31487, 38.126567], [13.314857, 38.126545], [13.314836, 38.126524], [13.314824, 38.126498], [13.314818, 38.126473], [13.314805, 38.126452], [13.314798, 38.126425], [13.314764, 38.126423], [13.314782, 38.126401], [13.314771, 38.126375], [13.314794, 38.12636], [13.314889, 38.126545], [13.314993, 38.126512], [13.31497, 38.126467], [13.314998, 38.126458], [13.315004, 38.126475], [13.31501, 38.126496], [13.315029, 38.126514], [13.315058, 38.126522], [13.315077, 38.126539], [13.315105, 38.126542], [13.315138, 38.126608], [13.315436, 38.126514], [13.31548, 38.126581]]]}, "properties": {"bcn_nmr": "040", "pericolo": "SA", "data_dpr": "1899-12-30", "data_gurs": "1899-12-30", "codice": "040-E24", "comune": "Palermo", "provincia": "Palermo", "n_adsg": 0, "data_adsg": "1899-12-30", "ngurs_adsg": 0, "dgurs_adsg": "1899-12-30", "n_dsg": 819, "data_dsg": "2023-10-17", "ngurs_dsg": 0, "cls_idraulica_siti": "Siti di attenzione idraulica", "col_idraulica_siti": "#9eaad7", "bor_idraulica_siti": "#bed2ff", "sup_ha": 0.0756}}, {"type": "Feature", "geometry": {"type": "Polygon", "coordinates": [[[13.313267, 38.125669], [13.313268, 38.125679], [13.313207, 38.125721], [13.3132, 38.125788], [13.313152, 38.125813], [13.313112, 38.125845], [13.313107, 38.125878], [13.313074, 38.12589], [13.313052, 38.12587], [13.312943, 38.125866], [13.312604, 38.125577], [13.312177, 38.125241], [13.311778, 38.125011], [13.311368, 38.124724], [13.310995, 38.124409], [13.310634, 38.124075], [13.310088, 38.123666], [13.309553, 38.123296], [13.309132, 38.122985], [13.308763, 38.122736], [13.308308, 38.122348], [13.307809, 38.121983], [13.30724, 38.121537], [13.306693, 38.121171], [13.306265, 38.120888], [13.305849, 38.120596], [13.30528, 38.120407], [13.304565, 38.120239], [13.303918, 38.120063], [13.303305, 38.11992], [13.302885, 38.119833], [13.302392, 38.119716], [13.30194, 38.119715], [13.301365, 38.119764], [13.300808, 38.119827], [13.300226, 38.119957], [13.299843, 38.120056], [13.299588, 38.120119], [13.29913, 38.120089], [13.29866, 38.120068], [13.29818, 38.119918], [13.297679, 38.119691], [13.297267, 38.119475], [13.296605, 38.119137], [13.295649, 38.118708], [13.294764, 38.118342], [13.29398, 38.118045], [13.293343, 38.117931], [13.292898, 38.117862], [13.29232, 38.117806], [13.291915, 38.117843], [13.291061, 38.11794], [13.29025, 38.118043], [13.289487, 38.118137], [13.288719, 38.118202], [13.288242, 38.118195], [13.287891, 38.117989], [13.287697, 38.117767], [13.287701, 38.117615], [13.287832, 38.117435], [13.288167, 38.117297], [13.288587, 38.117151], [13.289054, 38.117024], [13.289643, 38.116894], [13.28996, 38.11678], [13.290343, 38.116657], [13.290731, 38.116562], [13.291158, 38.116363], [13.291444, 38.116262], [13.291747, 38.116234], [13.292126, 38.116263], [13.292591, 38.116274], [13.292897, 38.116112], [13.293084, 38.116096], [13.293608, 38.116165], [13.294097, 38.116158], [13.294686, 38.115985], [13.295312, 38.115813], [13.295816, 38.115673], [13.296275, 38.11566], [13.296724, 38.115581], [13.297059, 38.115676], [13.297763, 38.115796], [13.29831, 38.115904], [13.29861, 38.116243], [13.298999, 38.116644], [13.299457, 38.117194], [13.299905, 38.117668], [13.300104, 38.1179], [13.300396, 38.118066], [13.301216, 38.118402], [13.302277, 38.118704], [13.303039, 38.11892], [13.303933, 38.119119], [13.304505, 38.119213], [13.305123, 38.11936], [13.30566, 38.119621], [13.306407, 38.119975], [13.306907, 38.120268], [13.307062, 38.120595], [13.307379, 38.121], [13.30765, 38.12129], [13.308058, 38.121672], [13.308569, 38.122018], [13.309298, 38.122577], [13.309974, 38.123111], [13.310614, 38.123617], [13.310989, 38.123889], [13.311381, 38.124157], [13.311848, 38.124555], [13.312288, 38.124906], [13.312046, 38.124897], [13.312161, 38.125036], [13.312206, 38.125075], [13.312281, 38.125108], [13.312404, 38.125103], [13.312407, 38.125229], [13.312542, 38.125234], [13.312535, 38.125212], [13.3127, 38.125221], [13.312833, 38.125322], [13.313267, 38.125669]]]}, "properties": {"bcn_nmr": "040", "pericolo": "SA", "data_dpr": "1899-12-30", "data_gurs": "1899-12-30", "codice": "040-E24", "comune": "Palermo", "provincia": "Palermo", "n_adsg": 0, "data_adsg": "1899-12-30", "ngurs_adsg": 0, "dgurs_adsg": "1899-12-30", "n_dsg": 819, "data_dsg": "2023-10-17", "ngurs_dsg": 0, "cls_idraulica_siti": "Siti di attenzione idraulica", "col_idraulica_siti": "#9eaad7", "bor_idraulica_siti": "#bed2ff", "sup_ha": 37.88}}, {"type": "Feature", "geometry": {"type": "Polygon", "coordinates": [[[13.314425, 38.125815], [13.314399, 38.125828], [13.314367, 38.125837], [13.314327, 38.125844], [13.314302, 38.125821], [13.314346, 38.125817], [13.314374, 38.125808], [13.314389, 38.125803], [13.314425, 38.125815]]]}, "properties": {"bcn_nmr": "040", "pericolo": "SA", "data_dpr": "1899-12-30", "data_gurs": "1899-12-30", "codice": "040-E24", "comune": "Palermo", "provincia": "Palermo", "n_adsg": 0, "data_adsg": "1899-12-30", "ngurs_adsg": 0, "dgurs_adsg": "1899-12-30", "n_dsg": 819, "data_dsg": "2023-10-17", "ngurs_dsg": 0, "cls_idraulica_siti": "Siti di attenzione idraulica", "col_idraulica_siti": "#9eaad7", "bor_idraulica_siti": "#bed2ff", "sup_ha": 0.0024}}, {"type": "Feature", "geometry": {"type": "Polygon", "coordinates": [[[13.313934, 38.125774], [13.313922, 38.125802], [13.313889, 38.125796], [13.313856, 38.125792], [13.313834, 38.125814], [13.313797, 38.125813], [13.313761, 38.125795], [13.313728, 38.125786], [13.313698, 38.125785], [13.313683, 38.125815], [13.313665, 38.125777], [13.313628, 38.125775], [13.313594, 38.125779], [13.313564, 38.125772], [13.313533, 38.125777], [13.313556, 38.125748], [13.313934, 38.125774]]]}, "properties": {"bcn_nmr": "040", "pericolo": "SA", "data_dpr": "1899-12-30", "data_gurs": "1899-12-30", "codice": "040-E24", "comune": "Palermo", "provincia": "Palermo", "n_adsg": 0, "data_adsg": "1899-12-30", "ngurs_adsg": 0, "dgurs_adsg": "1899-12-30", "n_dsg": 819, "data_dsg": "2023-10-17", "ngurs_dsg": 0, "cls_idraulica_siti": "Siti di attenzione idraulica", "col_idraulica_siti": "#9eaad7", "bor_idraulica_siti": "#bed2ff", "sup_ha": 0.0116}}, {"type": "Feature", "geometry": {"type": "Polygon", "coordinates": [[[13.313987, 38.12573], [13.313967, 38.125743], [13.313967, 38.125769], [13.313934, 38.125774], [13.313945, 38.125729], [13.313945, 38.125729], [13.313987, 38.12573]]]}, "properties": {"bcn_nmr": "040", "pericolo": "SA", "data_dpr": "1899-12-30", "data_gurs": "1899-12-30", "codice": "040-E24", "comune": "Palermo", "provincia": "Palermo", "n_adsg": 0, "data_adsg": "1899-12-30", "ngurs_adsg": 0, "dgurs_adsg": "1899-12-30", "n_dsg": 819, "data_dsg": "2023-10-17", "ngurs_dsg": 0, "cls_idraulica_siti": "Siti di attenzione idraulica", "col_idraulica_siti": "#9eaad7", "bor_idraulica_siti": "#bed2ff", "sup_ha": 0.0012}}, {"type": "Feature", "geometry": {"type": "Polygon", "coordinates": [[[13.357406, 38.117074], [13.35741, 38.117062], [13.35742, 38.11705], [13.358264, 38.117273], [13.359212, 38.117534], [13.359212, 38.117537], [13.359187, 38.117607], [13.357406, 38.117074]]]}, "properties": {"bcn_nmr": "040", "pericolo": "SA", "data_dpr": "1899-12-30", "data_gurs": "1899-12-30", "codice": "040-E25", "comune": "Palermo", "provincia": "Palermo", "n_adsg": 0, "data_adsg": "1899-12-30", "ngurs_adsg": 0, "dgurs_adsg": "1899-12-30", "n_dsg": 819, "data_dsg": "2023-10-17", "ngurs_dsg": 0, "cls_idraulica_siti": "Siti di attenzione idraulica", "col_idraulica_siti": "#9eaad7", "bor_idraulica_siti": "#bed2ff", "sup_ha": 0.0979}}, {"type": "Feature", "geometry": {"type": "Polygon", "coordinates": [[[13.356062, 38.115938], [13.355782, 38.116103], [13.355621, 38.115897], [13.356062, 38.115938]]]}, "properties": {"bcn_nmr": "040", "pericolo": "SA", "data_dpr": "1899-12-30", "data_gurs": "1899-12-30", "codice": "040-E25", "comune": "Palermo", "provincia": "Palermo", "n_adsg": 0, "data_adsg": "1899-12-30", "ngurs_adsg": 0, "dgurs_adsg": "1899-12-30", "n_dsg": 819, "data_dsg": "2023-10-17", "ngurs_dsg": 0, "cls_idraulica_siti": "Siti di attenzione idraulica", "col_idraulica_siti": "#9eaad7", "bor_idraulica_siti": "#bed2ff", "sup_ha": 0.0411}}, {"type": "Feature", "geometry": {"type": "Polygon", "coordinates": [[[13.354885, 38.114694], [13.354909, 38.114706], [13.355235, 38.115436], [13.355228, 38.115425], [13.354885, 38.114694]]]}, "properties": {"bcn_nmr": "040", "pericolo": "SA", "data_dpr": "1899-12-30", "data_gurs": "1899-12-30", "codice": "040-E25", "comune": "Palermo", "provincia": "Palermo", "n_adsg": 0, "data_adsg": "1899-12-30", "ngurs_adsg": 0, "dgurs_adsg": "1899-12-30", "n_dsg": 819, "data_dsg": "2023-10-17", "ngurs_dsg": 0, "cls_idraulica_siti": "Siti di attenzione idraulica", "col_idraulica_siti": "#9eaad7", "bor_idraulica_siti": "#bed2ff", "sup_ha": 0.0077}}, {"type": "Feature", "geometry": {"type": "Polygon", "coordinates": [[[13.354735, 38.114623], [13.354576, 38.114732], [13.354365, 38.114812], [13.354001, 38.114899], [13.353792, 38.11493], [13.353719, 38.114929], [13.353569, 38.114878], [13.35369, 38.114893], [13.354704, 38.114609], [13.354735, 38.114623]]]}, "properties": {"bcn_nmr": "040", "pericolo": "SA", "data_dpr": "1899-12-30", "data_gurs": "1899-12-30", "codice": "040-E25", "comune": "Palermo", "provincia": "Palermo", "n_adsg": 0, "data_adsg": "1899-12-30", "ngurs_adsg": 0, "dgurs_adsg": "1899-12-30", "n_dsg": 819, "data_dsg": "2023-10-17", "ngurs_dsg": 0, "cls_idraulica_siti": "Siti di attenzione idraulica", "col_idraulica_siti": "#9eaad7", "bor_idraulica_siti": "#bed2ff", "sup_ha": 0.0861}}, {"type": "Feature", "geometry": {"type": "Polygon", "coordinates": [[[13.351794, 38.114824], [13.351935, 38.114876], [13.351783, 38.114841], [13.351794, 38.114824]]]}, "properties": {"bcn_nmr": "040", "pericolo": "SA", "data_dpr": "1899-12-30", "data_gurs": "1899-12-30", "codice": "040-E25", "comune": "Palermo", "provincia": "Palermo", "n_adsg": 0, "data_adsg": "1899-12-30", "ngurs_adsg": 0, "dgurs_adsg": "1899-12-30", "n_dsg": 819, "data_dsg": "2023-10-17", "ngurs_dsg": 0, "cls_idraulica_siti": "Siti di attenzione idraulica", "col_idraulica_siti": "#9eaad7", "bor_idraulica_siti": "#bed2ff", "sup_ha": 0.0015}}, {"type": "Feature", "geometry": {"type": "Polygon", "coordinates": [[[13.350298, 38.113597], [13.350104, 38.114081], [13.349752, 38.114493], [13.349796, 38.114294], [13.350014, 38.113972], [13.35019, 38.113563], [13.350298, 38.113597]]]}, "properties": {"bcn_nmr": "040", "pericolo": "SA", "data_dpr": "1899-12-30", "data_gurs": "1899-12-30", "codice": "040-E25", "comune": "Palermo", "provincia": "Palermo", "n_adsg": 0, "data_adsg": "1899-12-30", "ngurs_adsg": 0, "dgurs_adsg": "1899-12-30", "n_dsg": 819, "data_dsg": "2023-10-17", "ngurs_dsg": 0, "cls_idraulica_siti": "Siti di attenzione idraulica", "col_idraulica_siti": "#9eaad7", "bor_idraulica_siti": "#bed2ff", "sup_ha": 0.1067}}, {"type": "Feature", "geometry": {"type": "Polygon", "coordinates": [[[13.350977, 38.111864], [13.351233, 38.111753], [13.351768, 38.111933], [13.352213, 38.112197], [13.35237, 38.113004], [13.352604, 38.113894], [13.352437, 38.114489], [13.352221, 38.114413], [13.352272, 38.114327], [13.35212, 38.114283], [13.352293, 38.113976], [13.352339, 38.113516], [13.352158, 38.113153], [13.352042, 38.112672], [13.351828, 38.112265], [13.351656, 38.112084], [13.351447, 38.112005], [13.351493, 38.11187], [13.351418, 38.111858], [13.350977, 38.111864]]]}, "properties": {"bcn_nmr": "040", "pericolo": "SA", "data_dpr": "1899-12-30", "data_gurs": "1899-12-30", "codice": "040-E25", "comune": "Palermo", "provincia": "Palermo", "n_adsg": 0, "data_adsg": "1899-12-30", "ngurs_adsg": 0, "dgurs_adsg": "1899-12-30", "n_dsg": 819, "data_dsg": "2023-10-17", "ngurs_dsg": 0, "cls_idraulica_siti": "Siti di attenzione idraulica", "col_idraulica_siti": "#9eaad7", "bor_idraulica_siti": "#bed2ff", "sup_ha": 0.7447}}]}