{"type":"FeatureCollection","features":[{"type":"Feature","properties":{"id":"seggio-1","nome":"Circolo Didattico LOMBARDO RADICE","tipo":"Sede di sezioni elettorali","indirizzo":"Corso Calatafimi, 241","circoscrizione":"4","sezioni":"247*, 248, 249, 251, 254, 256, 273, 279","n_sezioni":8,"lon":13.3439469,"lat":38.1087374,"abbinamento":"vicino"},"geometry":{"type":"Point","coordinates":[13.3439469,38.1087374]}},{"type":"Feature","properties":{"id":"seggio-2","nome":"Circolo Didattico PEREZ","tipo":"Sede di sezioni elettorali","indirizzo":"Via Perez Francesco Paolo, 1","circoscrizione":"3","sezioni":"297*, 305, 308, 309, 590","n_sezioni":5,"lon":13.3641817,"lat":38.1097125,"abbinamento":"contenuto"},"geometry":{"type":"Point","coordinates":[13.3641817,38.1097125]}},{"type":"Feature","properties":{"id":"seggio-3","nome":"Direzione Didattica ALMEJDA","tipo":"Sede di sezioni elettorali","indirizzo":"Via Damiano Almejda, 27","circoscrizione":"8","sezioni":"176, 178, 470","n_sezioni":3,"lon":13.3438316,"lat":38.1302821,"abbinamento":"contenuto"},"geometry":{"type":"Point","coordinates":[13.3438316,38.1302821]}},{"type":"Feature","properties":{"id":"seggio-5","nome":"Direzione Didattica BASILE","tipo":"Sede di sezioni elettorali","indirizzo":"Piazza San Paolo, 4","circoscrizione":"5","sezioni":"6, 258, 271, 380, 550","n_sezioni":5,"lon":13.2918692,"lat":38.129607,"abbinamento":"vicino"},"geometry":{"type":"Point","coordinates":[13.2918692,38.129607]}},{"type":"Feature","properties":{"id":"seggio-6","nome":"Direzione Didattica BENTIVEGNA","tipo":"Sede di sezioni elettorali","indirizzo":"Via San Lorenzo, 85","circoscrizione":"6","sezioni":"411, 412, 445, 478","n_sezioni":4,"lon":13.3277678,"lat":38.1607768,"abbinamento":"vicino"},"geometry":{"type":"Point","coordinates":[13.3277678,38.1607768]}},{"type":"Feature","properties":{"id":"seggio-10","nome":"Direzione Didattica BUTTITTA IGNAZIO","tipo":"Sede di sezioni elettorali","indirizzo":"Via Cimabue, 20","circoscrizione":"5","sezioni":"27, 61, 163, 243, 548","n_sezioni":5,"lon":13.3269417,"lat":38.1314974,"abbinamento":"vicino"},"geometry":{"type":"Point","coordinates":[13.3269417,38.1314974]}},{"type":"Feature","properties":{"id":"seggio-11","nome":"Direzione Didattica CAP. BASILE - PAULSEN","tipo":"Sede di sezioni elettorali","indirizzo":"Piazzale Carpino Francesco Card., 3","circoscrizione":"4","sezioni":"14, 25, 86, 302, 357, 360, 468, 491, 504, 567","n_sezioni":10,"lon":13.3249623,"lat":38.1002676,"abbinamento":"vicino"},"geometry":{"type":"Point","coordinates":[13.3249623,38.1002676]}},{"type":"Feature","properties":{"id":"seggio-16","nome":"Direzione Didattica DE AMICIS","tipo":"Sede di sezioni elettorali","indirizzo":"Via Rosso di San Secondo, 1","circoscrizione":"5","sezioni":"443, 446, 447, 519","n_sezioni":4,"lon":13.3297594,"lat":38.1202175,"abbinamento":"vicino"},"geometry":{"type":"Point","coordinates":[13.3297594,38.1202175]}},{"type":"Feature","properties":{"id":"seggio-17","nome":"Direzione Didattica DE GASPERI","tipo":"Sede di sezioni elettorali","indirizzo":"Piazzale Giovanni Paolo II Papa, 24, Piazza De Gasperi","circoscrizione":"6","sezioni":"87*, 145, 147, 310, 407, 576","n_sezioni":6,"lon":13.3386093,"lat":38.1522466,"abbinamento":"vicino"},"geometry":{"type":"Point","coordinates":[13.3386093,38.1522466]}},{"type":"Feature","properties":{"id":"seggio-20","nome":"Direzione Didattica G. COSTA","tipo":"Sede di sezioni elettorali","indirizzo":"Via Ughetti Giovan Battista, 27","circoscrizione":"4","sezioni":"175, 339, 482, 536, 594","n_sezioni":5,"lon":13.356387,"lat":38.0994317,"abbinamento":"vicino"},"geometry":{"type":"Point","coordinates":[13.356387,38.0994317]}},{"type":"Feature","properties":{"id":"seggio-21","nome":"Direzione Didattica GABELLI","tipo":"Sede di sezioni elettorali","indirizzo":"Via Eugenio l’Emiro, 30","circoscrizione":"5","sezioni":"39*, 134, 237, 244, 474, 542","n_sezioni":6,"lon":13.3394918,"lat":38.1145431,"abbinamento":"vicino"},"geometry":{"type":"Point","coordinates":[13.3394918,38.1145431]}},{"type":"Feature","properties":{"id":"seggio-24","nome":"Direzione Didattica KAROL WOJTYLA","tipo":"Sede di sezioni elettorali","indirizzo":"via dell'Arsenale 62","circoscrizione":"8","sezioni":"152, 154, 158","n_sezioni":3,"lon":13.3637899,"lat":38.1356705,"abbinamento":"vicino"},"geometry":{"type":"Point","coordinates":[13.3637899,38.1356705]}},{"type":"Feature","properties":{"id":"seggio-26","nome":"Direzione Didattica LEONARDO DAVINCI","tipo":"Sede di sezioni elettorali","indirizzo":"Via Di Giorni, Ferdinando, 48","circoscrizione":"5","sezioni":"26*, 52, 65, 165, 358, 546, 578","n_sezioni":7,"lon":13.3261719,"lat":38.1261109,"abbinamento":"vicino"},"geometry":{"type":"Point","coordinates":[13.3261719,38.1261109]}},{"type":"Feature","properties":{"id":"seggio-27","nome":"Direzione Didattica MANZONI","tipo":"Sede di sezioni elettorali","indirizzo":"Via Filippo Parlatore, 56","circoscrizione":"5","sezioni":"2, 432*, 435, 545","n_sezioni":4,"lon":13.3431584,"lat":38.125807,"abbinamento":"vicino"},"geometry":{"type":"Point","coordinates":[13.3431584,38.125807]}},{"type":"Feature","properties":{"id":"seggio-30","nome":"Direzione Didattica ORESTANO","tipo":"Sede di sezioni elettorali","indirizzo":"Via San Ciro, 48","circoscrizione":"2","sezioni":"229, 332*, 333, 335, 354, 509, 528, 586","n_sezioni":8,"lon":13.383397,"lat":38.094267,"abbinamento":"contenuto"},"geometry":{"type":"Point","coordinates":[13.383397,38.094267]}},{"type":"Feature","properties":{"id":"seggio-34","nome":"Direzione Didattica SAURO NAZARIO","tipo":"Sede di sezioni elettorali","indirizzo":"Viale Amedeo D’Aosta , 20","circoscrizione":"2","sezioni":"317*, 318, 322, 531","n_sezioni":4,"lon":13.386401,"lat":38.10374,"abbinamento":"vicino"},"geometry":{"type":"Point","coordinates":[13.386401,38.10374]}},{"type":"Feature","properties":{"id":"seggio-37","nome":"Istituto Comprensivo D’AQUINO RINALDO","tipo":"Sede di sezioni elettorali","indirizzo":"Via Rinaldo D’Aquino, 8","circoscrizione":"5","sezioni":"195, 344, 366, 369","n_sezioni":4,"lon":13.335679,"lat":38.1174479,"abbinamento":"vicino"},"geometry":{"type":"Point","coordinates":[13.335679,38.1174479]}},{"type":"Feature","properties":{"id":"seggio-38","nome":"Istituto Comprensivo DI BARTOLO","tipo":"Sede di sezioni elettorali","indirizzo":"Lungomare Colombo Cristofolo, 240","circoscrizione":"7","sezioni":"418, 497","n_sezioni":2,"lon":13.3658163,"lat":38.1663485,"abbinamento":"vicino"},"geometry":{"type":"Point","coordinates":[13.3658163,38.1663485]}},{"type":"Feature","properties":{"id":"seggio-43","nome":"Istituto Comprensivo MANTEGNA","tipo":"Sede di sezioni elettorali","indirizzo":"Via Bologni 4, Boccadifalco","circoscrizione":"4","sezioni":"9*, 74, 374, 375, 377, 378","n_sezioni":6,"lon":13.3086249,"lat":38.1103371,"abbinamento":"vicino"},"geometry":{"type":"Point","coordinates":[13.3086249,38.1103371]}},{"type":"Feature","properties":{"id":"seggio-46","nome":"Istituto.comprensivo MATTARELLA","tipo":"Sede di sezioni elettorali","indirizzo":"Via Bonagia, 14","circoscrizione":"3","sezioni":"80, 101, 104, 110, 125, 430, 457, 568","n_sezioni":8,"lon":13.36446,"lat":38.076888,"abbinamento":"vicino"},"geometry":{"type":"Point","coordinates":[13.36446,38.076888]}},{"type":"Feature","properties":{"id":"seggio-47","nome":"Liceo Classico V.E. II","tipo":"Sede di sezioni elettorali","indirizzo":"Piazza Casa Professa, 3","circoscrizione":"1","sezioni":"67, 85, 114","n_sezioni":3,"lon":13.360662,"lat":38.113785,"abbinamento":"vicino"},"geometry":{"type":"Point","coordinates":[13.360662,38.113785]}},{"type":"Feature","properties":{"id":"seggio-48","nome":"OSPEDALE BUCCHERI LA FERLA","tipo":"Sede di sezioni elettorali","indirizzo":"Via Messina Marine, 197","circoscrizione":"2","sezioni":"510","n_sezioni":1,"lon":13.386058,"lat":38.106112,"abbinamento":"vicino"},"geometry":{"type":"Point","coordinates":[13.386058,38.106112]}},{"type":"Feature","properties":{"id":"seggio-49","nome":"Ospedale Cervello","tipo":"Sede di sezioni elettorali","indirizzo":"Via Trabucco, 180","circoscrizione":"6","sezioni":"485","n_sezioni":1,"lon":13.3133322,"lat":38.1545878,"abbinamento":"contenuto"},"geometry":{"type":"Point","coordinates":[13.3133322,38.1545878]}},{"type":"Feature","properties":{"id":"seggio-50","nome":"OSPEDALE CIVICO BENFRATELLI","tipo":"Sede di sezioni elettorali","indirizzo":"Piazza Leotta Bicola, 1","circoscrizione":"4","sezioni":"487, 488","n_sezioni":2,"lon":13.3575457,"lat":38.1048287,"abbinamento":"contenuto"},"geometry":{"type":"Point","coordinates":[13.3575457,38.1048287]}},{"type":"Feature","properties":{"id":"seggio-51","nome":"Ospedale Ingrassia","tipo":"Sede di sezioni elettorali","indirizzo":"Corso Calatafimi, 1004","circoscrizione":"4","sezioni":"484","n_sezioni":1,"lon":13.3101484,"lat":38.0933378,"abbinamento":"contenuto"},"geometry":{"type":"Point","coordinates":[13.3101484,38.0933378]}},{"type":"Feature","properties":{"id":"seggio-52","nome":"OSPEDALE POLICLINICO","tipo":"Sede di sezioni elettorali","indirizzo":"Via del Vespro, 129","circoscrizione":"3","sezioni":"486","n_sezioni":1,"lon":13.362787,"lat":38.104331,"abbinamento":"vicino"},"geometry":{"type":"Point","coordinates":[13.362787,38.104331]}},{"type":"Feature","properties":{"id":"seggio-53","nome":"OSPEDALE VILLA SOFIA","tipo":"Sede di sezioni elettorali","indirizzo":"Piazza Salerno, 1","circoscrizione":"6","sezioni":"492","n_sezioni":1,"lon":13.3376062,"lat":38.1548029,"abbinamento":"contenuto"},"geometry":{"type":"Point","coordinates":[13.3376062,38.1548029]}},{"type":"Feature","properties":{"id":"seggio-54","nome":"Scuola dell’infanzia comunale LAGIOSTRA","tipo":"Sede di sezioni elettorali","indirizzo":"Via Dietro la Parrocchia, 53","circoscrizione":"7","sezioni":"38*, 64","n_sezioni":2,"lon":13.3326361,"lat":38.1747969,"abbinamento":"vicino"},"geometry":{"type":"Point","coordinates":[13.3326361,38.1747969]}},{"type":"Feature","properties":{"id":"seggio-55","nome":"Scuola dell’infanzia DIAZ VECCHIO","tipo":"Sede di sezioni elettorali","indirizzo":"V. Regina Maria di Sicilia, 7","circoscrizione":"2","sezioni":"49, 319, 320, 323, 327, 408, 449, 529","n_sezioni":8,"lon":13.391744,"lat":38.09929,"abbinamento":"contenuto"},"geometry":{"type":"Point","coordinates":[13.391744,38.09929]}},{"type":"Feature","properties":{"id":"seggio-60","nome":"Scuola materna comunale WHITAKER","tipo":"Sede di sezioni elettorali","indirizzo":"Via Zisa, 17","circoscrizione":"5","sezioni":"214, 239","n_sezioni":2,"lon":13.3419594,"lat":38.115805,"abbinamento":"contenuto"},"geometry":{"type":"Point","coordinates":[13.3419594,38.115805]}},{"type":"Feature","properties":{"id":"seggio-61","nome":"SCUOLA MEDIA ANNESSA ALL’ISTITUTO D’ARTE","tipo":"Sede di sezioni elettorali","indirizzo":"Via Salemi Francesco Generale n. 22","circoscrizione":"4","sezioni":"215, 512, 559","n_sezioni":3,"lon":13.3327353,"lat":38.1121162,"abbinamento":"vicino"},"geometry":{"type":"Point","coordinates":[13.3327353,38.1121162]}},{"type":"Feature","properties":{"id":"seggio-62","nome":"Scuola Media BORGESE PLESSOCERERE","tipo":"Sede di sezioni elettorali","indirizzo":"Via Danae, 30","circoscrizione":"7","sezioni":"392, 395, 396, 466","n_sezioni":4,"lon":13.3359191,"lat":38.191244,"abbinamento":"vicino"},"geometry":{"type":"Point","coordinates":[13.3359191,38.191244]}},{"type":"Feature","properties":{"id":"seggio-63","nome":"Scuola primaria “MANCINI NUOVO”","tipo":"Sede di sezioni elettorali","indirizzo":"Via Villani Giovanni, 36","circoscrizione":"4","sezioni":"190, 329, 454, 456","n_sezioni":4,"lon":13.3349803,"lat":38.0924449,"abbinamento":"vicino"},"geometry":{"type":"Point","coordinates":[13.3349803,38.0924449]}},{"type":"Feature","properties":{"id":"seggio-68","nome":"Scuola primaria BARONE DELLA SCALA","tipo":"Sede di sezioni elettorali","indirizzo":"Baglio Barone della Scala, 22","circoscrizione":"3","sezioni":"347, 348","n_sezioni":2,"lon":13.347777,"lat":38.086,"abbinamento":"vicino"},"geometry":{"type":"Point","coordinates":[13.347777,38.086]}},{"type":"Feature","properties":{"id":"seggio-71","nome":"Scuola primaria BORSELLINO","tipo":"Sede di sezioni elettorali","indirizzo":"Largo Camastra, 4","circoscrizione":"5","sezioni":"15, 28, 359, 476, 520, 521, 551","n_sezioni":7,"lon":13.2969144,"lat":38.1275815,"abbinamento":"vicino"},"geometry":{"type":"Point","coordinates":[13.2969144,38.1275815]}},{"type":"Feature","properties":{"id":"seggio-75","nome":"Scuola primaria D’ANGELO","tipo":"Sede di sezioni elettorali","indirizzo":"Via San Lorenzo, 295","circoscrizione":"7","sezioni":"46, 100, 266, 431","n_sezioni":4,"lon":13.3041081,"lat":38.172254,"abbinamento":"vicino"},"geometry":{"type":"Point","coordinates":[13.3041081,38.172254]}},{"type":"Feature","properties":{"id":"seggio-77","nome":"Scuola primaria DEL VESPRO","tipo":"Sede di sezioni elettorali","indirizzo":"Via OS.1, 2","circoscrizione":"3","sezioni":"259, 265, 286, 291","n_sezioni":4,"lon":13.370436,"lat":38.098235,"abbinamento":"vicino"},"geometry":{"type":"Point","coordinates":[13.370436,38.098235]}},{"type":"Feature","properties":{"id":"seggio-78","nome":"Scuola primaria DONAUDY","tipo":"Sede di sezioni elettorali","indirizzo":"Piazza Donaudy Stefano, 16","circoscrizione":"4","sezioni":"353*, 469, 543","n_sezioni":3,"lon":13.335274,"lat":38.1007478,"abbinamento":"contenuto"},"geometry":{"type":"Point","coordinates":[13.335274,38.1007478]}},{"type":"Feature","properties":{"id":"seggio-79","nome":"Scuola primaria e dell’infanzia BONANNO","tipo":"Sede di sezioni elettorali","indirizzo":"Via Pitrè Giuseppe, 183","circoscrizione":"4","sezioni":"40*, 234, 370, 371, 507, 544","n_sezioni":6,"lon":13.3281755,"lat":38.1106368,"abbinamento":"vicino"},"geometry":{"type":"Point","coordinates":[13.3281755,38.1106368]}},{"type":"Feature","properties":{"id":"seggio-80","nome":"Scuola primaria e dell’infanzia LAMBRUSCHINI","tipo":"Sede di sezioni elettorali","indirizzo":"Via Don Giovanni Minzoni,1","circoscrizione":"8","sezioni":"296, 426, 502, 503, 514","n_sezioni":5,"lon":13.3501469,"lat":38.1455464,"abbinamento":"vicino"},"geometry":{"type":"Point","coordinates":[13.3501469,38.1455464]}},{"type":"Feature","properties":{"id":"seggio-83","nome":"SCUOLA PRIMARIA G. FALCONE","tipo":"Sede di sezioni elettorali","indirizzo":"Via Marchese Nicolò Pensabene, 30","circoscrizione":"7","sezioni":"10, 115, 136, 493, 534, 591","n_sezioni":6,"lon":13.3208317,"lat":38.1786365,"abbinamento":"vicino"},"geometry":{"type":"Point","coordinates":[13.3208317,38.1786365]}},{"type":"Feature","properties":{"id":"seggio-84","nome":"Scuola primaria G. FAVA","tipo":"Sede di sezioni elettorali","indirizzo":"Via Monte San Calogero, 20","circoscrizione":"6","sezioni":"20, 96, 149, 216, 307","n_sezioni":5,"lon":13.3259171,"lat":38.152776,"abbinamento":"contenuto"},"geometry":{"type":"Point","coordinates":[13.3259171,38.152776]}},{"type":"Feature","properties":{"id":"seggio-91","nome":"Scuola primaria NICOLO’ TURRISI","tipo":"Sede di sezioni elettorali","indirizzo":"Piazza Vittorio E. Orlando 3","circoscrizione":"8","sezioni":"193, 194, 201","n_sezioni":3,"lon":13.3526587,"lat":38.1197912,"abbinamento":"vicino"},"geometry":{"type":"Point","coordinates":[13.3526587,38.1197912]}},{"type":"Feature","properties":{"id":"seggio-94","nome":"Scuola primaria PADRE PUGLISI","tipo":"Sede di sezioni elettorali","indirizzo":"Via Giannotta Nicolò, 4","circoscrizione":"2","sezioni":"379, 417, 588","n_sezioni":3,"lon":13.408545,"lat":38.095803,"abbinamento":"vicino"},"geometry":{"type":"Point","coordinates":[13.408545,38.095803]}},{"type":"Feature","properties":{"id":"seggio-96","nome":"Scuola primaria PASCOLI","tipo":"Sede di sezioni elettorali","indirizzo":"Via Nettuno, 7","circoscrizione":"7","sezioni":"35, 66, 91, 367, 389*, 390, 391, 433","n_sezioni":8,"lon":13.3164704,"lat":38.1966942,"abbinamento":"vicino"},"geometry":{"type":"Point","coordinates":[13.3164704,38.1966942]}},{"type":"Feature","properties":{"id":"seggio-99","nome":"Scuola primaria RODARI","tipo":"Sede di sezioni elettorali","indirizzo":"Via Caduti sul Lavoro, 70","circoscrizione":"7","sezioni":"8, 32, 79*, 84, 384, 522","n_sezioni":6,"lon":13.2935321,"lat":38.1877993,"abbinamento":"vicino"},"geometry":{"type":"Point","coordinates":[13.2935321,38.1877993]}},{"type":"Feature","properties":{"id":"seggio-100","nome":"Scuola primaria ROSMINI","tipo":"Sede di sezioni elettorali","indirizzo":"Via Cruillas, 4","circoscrizione":"6","sezioni":"381, 416, 434, 453","n_sezioni":4,"lon":13.327387,"lat":38.1405701,"abbinamento":"vicino"},"geometry":{"type":"Point","coordinates":[13.327387,38.1405701]}},{"type":"Feature","properties":{"id":"seggio-102","nome":"Scuola primaria SAN LORENZO","tipo":"Sede di sezioni elettorali","indirizzo":"Via San Lorenzo, 89","circoscrizione":"6","sezioni":"81, 106, 210, 409","n_sezioni":4,"lon":13.3268452,"lat":38.1609656,"abbinamento":"vicino"},"geometry":{"type":"Point","coordinates":[13.3268452,38.1609656]}},{"type":"Feature","properties":{"id":"seggio-106","nome":"Scuola primaria TOMASINO BARTOLOMEO","tipo":"Sede di sezioni elettorali","indirizzo":"Via S. Maria di Gesù, 89","circoscrizione":"3","sezioni":"230, 334, 423","n_sezioni":3,"lon":13.375382,"lat":38.088491,"abbinamento":"contenuto"},"geometry":{"type":"Point","coordinates":[13.375382,38.088491]}},{"type":"Feature","properties":{"id":"seggio-109","nome":"Scuola primaria VALVERDE","tipo":"Sede di sezioni elettorali","indirizzo":"Via Valverde, 2","circoscrizione":"1","sezioni":"36, 37, 41, 43","n_sezioni":4,"lon":13.362079,"lat":38.120251,"abbinamento":"vicino"},"geometry":{"type":"Point","coordinates":[13.362079,38.120251]}},{"type":"Feature","properties":{"id":"seggio-114","nome":"Scuola RIZZO","tipo":"Sede di sezioni elettorali","indirizzo":"Via Sergio Papa I, 21/D","circoscrizione":"7","sezioni":"262*, 420, 421, 498, 562, 598","n_sezioni":6,"lon":13.3709085,"lat":38.1506225,"abbinamento":"contenuto"},"geometry":{"type":"Point","coordinates":[13.3709085,38.1506225]}},{"type":"Feature","properties":{"id":"seggio-121","nome":"Scuola secondaria di I grado DANTE ALIGHIERI","tipo":"Sede di sezioni elettorali","indirizzo":"Via Ruggero Marturano, 79","circoscrizione":"8","sezioni":"102, 161, 162, 169","n_sezioni":4,"lon":13.3620143,"lat":38.1470831,"abbinamento":"vicino"},"geometry":{"type":"Point","coordinates":[13.3620143,38.1470831]}},{"type":"Feature","properties":{"id":"seggio-126","nome":"Scuola secondaria di I grado MARCONI","tipo":"Sede di sezioni elettorali","indirizzo":"Via Di Giorgio A. Gen., 4","circoscrizione":"8","sezioni":"350, 403, 422, 465, 479","n_sezioni":5,"lon":13.3437189,"lat":38.1438514,"abbinamento":"vicino"},"geometry":{"type":"Point","coordinates":[13.3437189,38.1438514]}},{"type":"Feature","properties":{"id":"seggio-127","nome":"Scuola secondaria di I grado MAZZINI","tipo":"Sede di sezioni elettorali","indirizzo":"Via De Maria Federico, 36","circoscrizione":"4","sezioni":"270, 272, 340","n_sezioni":3,"lon":13.341659,"lat":38.1096217,"abbinamento":"vicino"},"geometry":{"type":"Point","coordinates":[13.341659,38.1096217]}},{"type":"Feature","properties":{"id":"seggio-128","nome":"Scuola secondaria di I grado PIAZZI","tipo":"Sede di sezioni elettorali","indirizzo":"Via Rutelli Mario, 50","circoscrizione":"8","sezioni":"148, 170, 172, 363, 501, 530, 535","n_sezioni":7,"lon":13.3481714,"lat":38.139624,"abbinamento":"vicino"},"geometry":{"type":"Point","coordinates":[13.3481714,38.139624]}},{"type":"Feature","properties":{"id":"seggio-129","nome":"Scuola secondaria di I grado PIRANDELLO","tipo":"Sede di sezioni elettorali","indirizzo":"Via dell’Usignolo, 5","circoscrizione":"3","sezioni":"16*, 280, 458, 515, 527, 592","n_sezioni":6,"lon":13.353163,"lat":38.08909,"abbinamento":"contenuto"},"geometry":{"type":"Point","coordinates":[13.353163,38.08909]}},{"type":"Feature","properties":{"id":"seggio-131","nome":"Scuola Secondaria di I grado VERDI","tipo":"Sede di sezioni elettorali","indirizzo":"Via Casella Alfredo, 35","circoscrizione":"8","sezioni":"22, 436, 463, 499","n_sezioni":4,"lon":13.339587,"lat":38.1276817,"abbinamento":"vicino"},"geometry":{"type":"Point","coordinates":[13.339587,38.1276817]}}]}