{"type":"FeatureCollection","features":[{"type":"Feature","properties":{"id":"seggio-1","nome":"Circolo Didattico LOMBARDO RADICE","tipo":"Sede di sezioni elettorali","abbinamento":"vicino"},"geometry":{"type":"MultiPolygon","coordinates":[[[[13.343633,38.10867,42.32710154727101],[13.343502,38.10887,42.32722537685186],[13.343607,38.108913,42.327182963490486],[13.343685,38.108796,42.327110030688345],[13.343811,38.108847,42.32705920282751],[13.343976,38.108914,42.3269927976653],[13.344101,38.108965,42.32694252207875],[13.344005,38.109111,42.3270328650251],[13.344113,38.109155,42.326989794149995],[13.344262,38.108928,42.32684894744307],[13.344079,38.108852,42.3269225275144],[13.344085,38.108843,42.32691662851721],[13.343821,38.108735,42.32702244352549],[13.343815,38.108745,42.327028586529195],[13.343633,38.10867,42.32710154727101]]]]}},{"type":"Feature","properties":{"id":"seggio-2","nome":"Circolo Didattico PEREZ","tipo":"Sede di sezioni elettorali","abbinamento":"contenuto"},"geometry":{"type":"MultiPolygon","coordinates":[[[[13.364241,38.109831,42.3167891157791],[13.364341,38.109724,42.31670767907053],[13.364379,38.109744,42.3166937995702],[13.364401,38.109718,42.31667524948716],[13.364346,38.109686,42.31669429503381],[13.36432,38.109713,42.31671551801264],[13.364284,38.109692,42.31672812439501],[13.36431,38.109665,42.316707199439406],[13.364398,38.109572,42.316635510884225],[13.36445,38.109518,42.31659346818924],[13.36481,38.109142,42.316302509978414],[13.364746,38.109101,42.31632387265563],[13.364732,38.109093,42.3163289828226],[13.364721,38.109105,42.31633825134486],[13.364609,38.109221,42.31642800476402],[13.364507,38.109327,42.31651054602116],[13.364465,38.109371,42.31654463429004],[13.364078,38.109781,42.31685940083116],[13.364241,38.109831,42.3167891157791]]]]}},{"type":"Feature","properties":{"id":"seggio-3","nome":"Direzione Didattica ALMEJDA","tipo":"Sede di sezioni elettorali","abbinamento":"contenuto"},"geometry":{"type":"MultiPolygon","coordinates":[[[[13.343789,38.130305,42.33308063261211],[13.343757,38.130359,42.33311244472861],[13.343804,38.130379,42.333093450404704],[13.343831,38.13039,42.33308278210461],[13.343844,38.130369,42.33307044766843],[13.343878,38.130382,42.33305658493191],[13.343921,38.130305,42.33301258273423],[13.343814,38.130263,42.33305582217872],[13.343789,38.130305,42.33308063261211]]]]}},{"type":"Feature","properties":{"id":"seggio-5","nome":"Direzione Didattica BASILE","tipo":"Sede di sezioni elettorali","abbinamento":"vicino"},"geometry":{"type":"MultiPolygon","coordinates":[[[[13.291709,38.129547,42.359771818853915],[13.291686,38.129548,42.35978382918984],[13.291688,38.129567,42.359788241796196],[13.291698,38.129725,42.35982751194388],[13.291699,38.129744,42.3598316879943],[13.291721,38.129743,42.35982022807002],[13.291709,38.129547,42.359771818853915]]]]}},{"type":"Feature","properties":{"id":"seggio-6","nome":"Direzione Didattica BENTIVEGNA","tipo":"Sede di sezioni elettorali","abbinamento":"vicino"},"geometry":{"type":"MultiPolygon","coordinates":[[[[13.327844,38.160864,42.34985707513988],[13.32799,38.16083,42.34977223724127],[13.327955,38.160739,42.349764549173415],[13.327905,38.160751,42.34979394823313],[13.327622,38.160817,42.349958669394255],[13.327573,38.160828,42.34998676739633],[13.327605,38.160914,42.349994075484574],[13.327708,38.160892,42.34993524290621],[13.327752,38.160882,42.349909568205476],[13.327766,38.16092,42.34991284459829],[13.327857,38.160899,42.34986000973731],[13.327844,38.160864,42.34985707513988]]]]}},{"type":"Feature","properties":{"id":"seggio-10","nome":"Direzione Didattica BUTTITTA IGNAZIO","tipo":"Sede di sezioni elettorali","abbinamento":"vicino"},"geometry":{"type":"MultiPolygon","coordinates":[[[[13.327101,38.131322,42.34198132529855],[13.327094,38.131325,42.34198589157313],[13.32712,38.131367,42.34198443032801],[13.327156,38.131352,42.3419612692669],[13.327154,38.131349,42.341961613856256],[13.327169,38.131343,42.34195230063051],[13.327138,38.131289,42.3419530056417],[13.327164,38.13128,42.34193753357977],[13.327141,38.131277,42.341948157176375],[13.327125,38.131252,42.341949520632625],[13.327077,38.13127,42.34197911713272],[13.327072,38.131262,42.34197980724275],[13.327061,38.131267,42.34198669809848],[13.327068,38.131278,42.34198610018939],[13.327073,38.131276,42.34198323171586],[13.327101,38.131322,42.34198132529855]]]]}},{"type":"Feature","properties":{"id":"seggio-11","nome":"Direzione Didattica CAP. BASILE - PAULSEN","tipo":"Sede di sezioni elettorali","abbinamento":"vicino"},"geometry":{"type":"MultiPolygon","coordinates":[[[[13.324882,38.100234,42.334422463551164],[13.324886,38.100236,42.33442077599466],[13.324901,38.100213,42.334406707435846],[13.324759,38.100155,42.33446376211941],[13.32472,38.100215,42.33450091909617],[13.324689,38.100263,42.33453059755266],[13.324673,38.100286,42.33454499300569],[13.324642,38.100336,42.33457523304969],[13.324616,38.100376,42.334599933587015],[13.32475,38.100431,42.33454605564475],[13.324762,38.100413,42.3345348900184],[13.324776,38.100392,42.33452190924436],[13.324781,38.100394,42.33451962750405],[13.324818,38.100336,42.334484519436955],[13.324882,38.100234,42.334422463551164]]]]}},{"type":"Feature","properties":{"id":"seggio-16","nome":"Direzione Didattica DE AMICIS","tipo":"Sede di sezioni elettorali","abbinamento":"vicino"},"geometry":{"type":"MultiPolygon","coordinates":[[[[13.329891,38.120325,42.337462643161416],[13.329832,38.120233,42.337467566132545],[13.329621,38.120319,42.33760057296604],[13.32968,38.12041,42.33759564161301],[13.329891,38.120325,42.337462643161416]]]]}},{"type":"Feature","properties":{"id":"seggio-17","nome":"Direzione Didattica DE GASPERI","tipo":"Sede di sezioni elettorali","abbinamento":"vicino"},"geometry":{"type":"MultiPolygon","coordinates":[[[[13.338299,38.152321,42.342073027044535],[13.338329,38.152334,42.342061249539256],[13.338402,38.152363,42.342031398788095],[13.338438,38.152306,42.34199733659625],[13.338544,38.152349,42.34195484034717],[13.33858,38.152293,42.34192012436688],[13.338594,38.152273,42.34190765582025],[13.33859,38.152272,42.34190926421434],[13.338491,38.15223,42.34194883611053],[13.338453,38.152215,42.34196404740214],[13.338449,38.152221,42.34196788817644],[13.338393,38.152198,42.341989983804524],[13.338364,38.152241,42.342016943730414],[13.338356,38.152237,42.34202039707452],[13.338299,38.152321,42.342073027044535]]]]}},{"type":"Feature","properties":{"id":"seggio-20","nome":"Direzione Didattica G. COSTA","tipo":"Sede di sezioni elettorali","abbinamento":"vicino"},"geometry":{"type":"MultiPolygon","coordinates":[[[[13.356221,38.099606,42.31806149147451],[13.35627,38.099616,42.31803894601762],[13.35628,38.099583,42.31802437454462],[13.356231,38.099572,42.31804681196809],[13.356241,38.099543,42.31803335621953],[13.356274,38.099444,42.31798874679953],[13.356282,38.099418,42.31797708198428],[13.356314,38.099424,42.31796224042773],[13.356337,38.099354,42.31793098151684],[13.356354,38.0993,42.31790655758232],[13.356287,38.099286,42.31793776061386],[13.356294,38.099264,42.31792808044702],[13.356126,38.099231,42.318005161359906],[13.356108,38.099287,42.318030272610486],[13.356095,38.099284,42.31803601887077],[13.356075,38.099347,42.31806378252804],[13.356088,38.099349,42.318057829514146],[13.356079,38.099377,42.31807044707239],[13.356053,38.099372,42.31808263622224],[13.356047,38.099388,42.31808978691697],[13.356061,38.099391,42.318083743564785],[13.356051,38.099419,42.31809661537409],[13.356103,38.09943,42.31807276420295],[13.356107,38.099419,42.31806808337569],[13.356126,38.099423,42.31805911567062],[13.356138,38.099385,42.318042133934796],[13.35621,38.0994,42.3180091958493],[13.3562,38.099438,42.318025248125196],[13.356195,38.099445,42.31802957225591],[13.356187,38.099453,42.31803616322577],[13.356176,38.099458,42.318042980507016],[13.356158,38.09946,42.31805305182934],[13.356188,38.099465,42.31803892087191],[13.356184,38.099477,42.3180441390723],[13.356151,38.09947,42.31805909797549],[13.356145,38.099489,42.31806757487357],[13.35618,38.099496,42.318051665090024],[13.35616,38.099559,42.31808000057936],[13.356093,38.099546,42.318110502325],[13.356083,38.099577,42.31812428962439],[13.35607,38.099575,42.318130498752],[13.356032,38.0997,42.31818505935371],[13.356013,38.09976,42.31821219623089],[13.356025,38.099763,42.31820632982999],[13.356018,38.099787,42.31821679044515],[13.356005,38.099784,42.31822278350592],[13.356,38.099801,42.31823021359742],[13.356012,38.099803,42.318224302493036],[13.356003,38.099834,42.318237870931625],[13.356013,38.099836,42.31823324318975],[13.356056,38.099844,42.31821340415627],[13.35606,38.099833,42.31820825859904],[13.356109,38.099843,42.318185712210834],[13.356144,38.09985,42.318169561214745],[13.356221,38.099606,42.31806149147451]]]]}},{"type":"Feature","properties":{"id":"seggio-21","nome":"Direzione Didattica GABELLI","tipo":"Sede di sezioni elettorali","abbinamento":"vicino"},"geometry":{"type":"MultiPolygon","coordinates":[[[[13.340101,38.114401,42.33053105510771],[13.340008,38.114383,42.330573878251016],[13.339975,38.11449,42.33062086813152],[13.339168,38.11434,42.33099568542093],[13.33919,38.114266,42.330963818356395],[13.339096,38.114249,42.3310074955225],[13.339049,38.114407,42.3310762476176],[13.339083,38.114414,42.33106040023267],[13.339102,38.114417,42.331051415763795],[13.339108,38.114419,42.33104856777936],[13.33911,38.114412,42.33104570955038],[13.339465,38.114478,42.33088111784309],[13.339462,38.114486,42.33088454976678],[13.339628,38.114516,42.33080750145018],[13.339631,38.114509,42.33080409374088],[13.339987,38.114575,42.33063873834908],[13.339985,38.114582,42.33064174186438],[13.340041,38.114592,42.330615570768714],[13.340101,38.114401,42.33053105510771]]]]}},{"type":"Feature","properties":{"id":"seggio-24","nome":"Direzione Didattica KAROL WOJTYLA","tipo":"Sede di sezioni elettorali","abbinamento":"vicino"},"geometry":{"type":"MultiPolygon","coordinates":[[[[13.363554,38.135732,42.324400613084435],[13.363869,38.13581,42.32425981760025],[13.36371,38.136209,42.32445341348648],[13.363819,38.136236,42.32440491672605],[13.36394,38.135933,42.324257833883166],[13.364015,38.135744,42.324165855534375],[13.363474,38.135609,42.324407489970326],[13.363463,38.135606,42.32441212143749],[13.363441,38.135662,42.324439369142056],[13.363454,38.135665,42.32443329785019],[13.363311,38.136034,42.32461055368185],[13.3633,38.136062,42.32462397497147],[13.363218,38.136042,42.32466090749949],[13.363201,38.13608,42.32468025293201],[13.363396,38.136127,42.324592725373805],[13.363399,38.13612,42.32458906061947],[13.363416,38.136078,42.324568956159055],[13.363554,38.135732,42.324400613084435]]]]}},{"type":"Feature","properties":{"id":"seggio-26","nome":"Direzione Didattica LEONARDO DAVINCI","tipo":"Sede di sezioni elettorali","abbinamento":"vicino"},"geometry":{"type":"MultiPolygon","coordinates":[[[[13.326274,38.125936,42.340901414863765],[13.326248,38.125938,42.34091544337571],[13.326244,38.125896,42.34090589918196],[13.326133,38.125901,42.34096444118768],[13.326134,38.12591,42.34096640627831],[13.325979,38.12592,42.34104923438281],[13.325965,38.125787,42.341018971055746],[13.325894,38.125793,42.34105739463121],[13.325909,38.125934,42.341089606285095],[13.325827,38.125939,42.34113307017833],[13.325828,38.125953,42.34113640431315],[13.325912,38.125948,42.34109166543931],[13.325924,38.126064,42.34111833292991],[13.325995,38.12606,42.341080454178154],[13.325996,38.12607,42.34108269959688],[13.326116,38.126062,42.34101862926036],[13.326115,38.126053,42.34101646672934],[13.326285,38.126042,42.340925701893866],[13.326274,38.125936,42.340901414863765]],[[13.325985,38.125999,42.34106838796288],[13.325982,38.125967,42.341060830280185],[13.325985,38.125963,42.34105815459043],[13.326056,38.125957,42.341019697487354],[13.326063,38.125962,42.341017400845885],[13.326066,38.125994,42.34102537762374],[13.326062,38.126,42.34102898649871],[13.325993,38.126004,42.34106554929167],[13.325985,38.125999,42.34106838796288]]]]}},{"type":"Feature","properties":{"id":"seggio-27","nome":"Direzione Didattica MANZONI","tipo":"Sede di sezioni elettorali","abbinamento":"vicino"},"geometry":{"type":"MultiPolygon","coordinates":[[[[13.343165,38.12577,42.33213328476995],[13.343252,38.125539,42.33202377613634],[13.343101,38.125504,42.33209192752838],[13.34308,38.125559,42.332117955200374],[13.343124,38.125569,42.332098110578954],[13.34306,38.12574,42.33217904437333],[13.342967,38.125718,42.33222084492445],[13.34295,38.125764,42.332242734730244],[13.343044,38.125786,42.332200367935],[13.342977,38.125965,42.332285080105066],[13.342957,38.126017,42.33230969309807],[13.342888,38.126001,42.33234080951661],[13.342864,38.126063,42.332370665855706],[13.34304,38.126104,42.33229133859277],[13.343154,38.125798,42.33214661851525],[13.343136,38.125794,42.33215497247875],[13.343146,38.125766,42.33214163873345],[13.343165,38.12577,42.33213328476995]]]]}},{"type":"Feature","properties":{"id":"seggio-30","nome":"Direzione Didattica ORESTANO","tipo":"Sede di sezioni elettorali","abbinamento":"contenuto"},"geometry":{"type":"MultiPolygon","coordinates":[[[[13.383401,38.094338,42.30255681462586],[13.383454,38.094332,42.30252755340189],[13.383452,38.094293,42.302518075332046],[13.383441,38.094294,42.30252387281507],[13.383435,38.094257,42.302516364492476],[13.383387,38.094258,42.302541512064636],[13.383401,38.094338,42.30255681462586]]]]}},{"type":"Feature","properties":{"id":"seggio-34","nome":"Direzione Didattica SAURO NAZARIO","tipo":"Sede di sezioni elettorali","abbinamento":"vicino"},"geometry":{"type":"MultiPolygon","coordinates":[[[[13.386305,38.103857,42.30373075976968],[13.386347,38.103833,42.303702182136476],[13.38632,38.103802,42.30370723735541],[13.386229,38.103852,42.30376860126853],[13.386245,38.103873,42.303765694610775],[13.386214,38.103891,42.303787340410054],[13.386245,38.103922,42.30377972126007],[13.386322,38.103876,42.303727054037154],[13.386305,38.103857,42.30373075976968]]]]}},{"type":"Feature","properties":{"id":"seggio-37","nome":"Istituto Comprensivo D’AQUINO RINALDO","tipo":"Sede di sezioni elettorali","abbinamento":"vicino"},"geometry":{"type":"MultiPolygon","coordinates":[[[[13.335828,38.117515,42.33360971044749],[13.335844,38.117443,42.3335816077888],[13.335707,38.117425,42.33364714961499],[13.335693,38.117491,42.33367300033569],[13.335814,38.117513,42.333616743795574],[13.335828,38.117515,42.33360971044749]]]]}},{"type":"Feature","properties":{"id":"seggio-38","nome":"Istituto Comprensivo DI BARTOLO","tipo":"Sede di sezioni elettorali","abbinamento":"vicino"},"geometry":{"type":"MultiPolygon","coordinates":[[[[13.365757,38.166552,42.33188641536981],[13.36573,38.166555,42.33190122526139],[13.365739,38.166596,42.33190803416073],[13.365764,38.166592,42.331894057802856],[13.365767,38.166604,42.33189595583826],[13.365891,38.166587,42.33182727638632],[13.36586,38.166438,42.33180182799697],[13.365878,38.166436,42.33179190196097],[13.365864,38.166371,42.33178087044507],[13.365824,38.166376,42.33180305175483],[13.365784,38.166381,42.33182473573834],[13.365727,38.166342,42.33184330165386],[13.365727,38.166317,42.33183655049652],[13.365727,38.166286,42.331827737390995],[13.365649,38.166286,42.33186763804406],[13.365649,38.166294,42.33186980895698],[13.365461,38.166294,42.331967185251415],[13.365461,38.166386,42.33199261967093],[13.365478,38.166387,42.33198440261185],[13.36547,38.166457,42.3320078253746],[13.3655,38.166457,42.331992253661156],[13.365507,38.166388,42.33196985255927],[13.365638,38.166396,42.33190422132611],[13.365737,38.166457,42.331870223395526],[13.365757,38.166552,42.33188641536981]]]]}},{"type":"Feature","properties":{"id":"seggio-43","nome":"Istituto Comprensivo MANTEGNA","tipo":"Sede di sezioni elettorali","abbinamento":"vicino"},"geometry":{"type":"MultiPolygon","coordinates":[[[[13.308488,38.110291,42.34571143705398],[13.308597,38.110306,42.34565938916057],[13.308604,38.110272,42.345646020025015],[13.308607,38.110261,42.34564147796482],[13.308626,38.110176,42.34560784418136],[13.308619,38.110174,42.34561116434634],[13.30869,38.109863,42.34548725094646],[13.308587,38.109849,42.34553637634963],[13.308513,38.110163,42.345662320032716],[13.308097,38.110103,42.345860599540174],[13.308077,38.110182,42.345893271267414],[13.308398,38.110228,42.34574011247605],[13.308325,38.110555,42.345869653858244],[13.308425,38.110569,42.34582207351923],[13.308488,38.110291,42.34571143705398]]]]}},{"type":"Feature","properties":{"id":"seggio-46","nome":"Istituto.comprensivo MATTARELLA","tipo":"Sede di sezioni elettorali","abbinamento":"vicino"},"geometry":{"type":"MultiPolygon","coordinates":[[[[13.364529,38.076968,42.30741878692061],[13.364496,38.077024,42.3074513329193],[13.364515,38.077035,42.30744436662644],[13.364502,38.077055,42.307456811890006],[13.364533,38.077071,42.307445062324405],[13.364523,38.077086,42.30745468009263],[13.364693,38.077143,42.30738313961774],[13.364742,38.077048,42.307331217452884],[13.364529,38.076968,42.30741878692061]]]]}},{"type":"Feature","properties":{"id":"seggio-47","nome":"Liceo Classico V.E. II","tipo":"Sede di sezioni elettorali","abbinamento":"vicino"},"geometry":{"type":"MultiPolygon","coordinates":[[[[13.360658,38.113775,42.31974402349442],[13.360776,38.113701,42.31966236978769],[13.360734,38.113659,42.31967186462134],[13.36075,38.113645,42.319660258479416],[13.360725,38.113617,42.319664870388806],[13.360605,38.113684,42.31974582467228],[13.360658,38.113775,42.31974402349442]]]]}},{"type":"Feature","properties":{"id":"seggio-48","nome":"OSPEDALE BUCCHERI LA FERLA","tipo":"Sede di sezioni elettorali","abbinamento":"vicino"},"geometry":{"type":"MultiPolygon","coordinates":[[[[13.385972,38.106168,0.0],[13.385983,38.106192,0.0],[13.386113,38.106158,0.0],[13.386136,38.106151,0.0],[13.386182,38.106139,0.0],[13.386163,38.106095,0.0],[13.385964,38.106148,0.0],[13.385972,38.106168,0.0]]]]}},{"type":"Feature","properties":{"id":"seggio-49","nome":"Ospedale Cervello","tipo":"Sede di sezioni elettorali","abbinamento":"contenuto"},"geometry":{"type":"MultiPolygon","coordinates":[[[[13.312637,38.154849,42.356028866022825],[13.312843,38.154798,42.355907830409706],[13.312849,38.154811,42.35590886045247],[13.3129,38.154798,42.35587884392589],[13.312894,38.154783,42.35587777197361],[13.313049,38.154744,42.355786501429975],[13.313055,38.15476,42.35578765813261],[13.313099,38.154749,42.355761824175715],[13.313094,38.154734,42.35576073080301],[13.313138,38.154723,42.35573454853147],[13.313153,38.154765,42.3557388195768],[13.313239,38.154745,42.35568875912577],[13.313344,38.154718,42.355626937001944],[13.313368,38.154777,42.35563086066395],[13.313314,38.154791,42.355662885122],[13.313322,38.15481,42.35566418990493],[13.31327,38.154824,42.35569513775408],[13.313186,38.154844,42.3557436875999],[13.313261,38.155039,42.355759331956506],[13.31327,38.155062,42.35576119180769],[13.313286,38.155102,42.35576438438147],[13.313597,38.155027,42.355582411400974],[13.313497,38.154767,42.35556153114885],[13.313424,38.154784,42.3556043272838],[13.313392,38.154703,42.35559771768749],[13.313455,38.154687,42.35556089691818],[13.31344,38.15465,42.355558125302196],[13.313479,38.15464,42.355535704642534],[13.313485,38.154657,42.35553700104356],[13.313539,38.154644,42.35550540685654],[13.313532,38.154626,42.355504028499126],[13.313657,38.154595,42.3554312242195],[13.313664,38.154613,42.35543248988688],[13.313719,38.154599,42.35539980791509],[13.313713,38.154583,42.355398618616164],[13.313944,38.154525,42.355263113975525],[13.31391,38.154439,42.35525676701218],[13.313907,38.15444,42.35525868926197],[13.313437,38.154558,42.355534514412284],[13.313342,38.154581,42.35558975208551],[13.313332,38.154555,42.35558764450252],[13.313225,38.154582,42.3556503187865],[13.313226,38.154585,42.35565050225705],[13.313179,38.154595,42.355677713640034],[13.313189,38.154619,42.35567957535386],[13.313086,38.154644,42.355739733204246],[13.312601,38.154765,42.35602361522615],[13.312637,38.154849,42.356028866022825]],[[13.313202,38.154678,42.35568933002651],[13.313363,38.154638,42.3555949004367],[13.313381,38.154682,42.35559803619981],[13.313332,38.154695,42.35562694258988],[13.313336,38.154705,42.35562764201313],[13.313294,38.154715,42.35565205849707],[13.31329,38.154705,42.355651373043656],[13.31322,38.154723,42.35569247510284],[13.313202,38.154678,42.35568933002651]]]]}},{"type":"Feature","properties":{"id":"seggio-50","nome":"OSPEDALE CIVICO BENFRATELLI","tipo":"Sede di sezioni elettorali","abbinamento":"contenuto"},"geometry":{"type":"MultiPolygon","coordinates":[[[[13.358284,38.104885,42.31847678869963],[13.358124,38.104992,42.31858951970935],[13.358033,38.104906,42.31861240230501],[13.358055,38.104891,42.318596709519625],[13.357981,38.104822,42.318615386262536],[13.35796,38.104836,42.3186306245625],[13.357875,38.104757,42.31865195650607],[13.35795,38.104707,42.31859921105206],[13.357812,38.104577,42.31863405369222],[13.357737,38.104627,42.31868713628501],[13.357653,38.104548,42.31870836485177],[13.357675,38.104534,42.31869293842465],[13.3576,38.104464,42.318711679428816],[13.357579,38.104478,42.318726401776075],[13.357492,38.104395,42.318748502992094],[13.357651,38.10429,42.318636905401945],[13.357575,38.104218,42.31865603476763],[13.357572,38.104221,42.31865826435387],[13.357026,38.104583,42.319041665643454],[13.357102,38.104654,42.31902255862951],[13.357312,38.104515,42.31887474749237],[13.357432,38.104627,42.31884445436299],[13.35747,38.104602,42.31881781760603],[13.357495,38.104626,42.31881129927933],[13.357524,38.104625,42.318796118721366],[13.357549,38.104608,42.318778578191996],[13.357662,38.104714,42.31875015050173],[13.357615,38.104745,42.318782571703196],[13.357604,38.104734,42.31878536287695],[13.357499,38.104804,42.31885944027454],[13.357461,38.104768,42.31886892672628],[13.357427,38.104791,42.31889281235635],[13.357407,38.104787,42.318902330473065],[13.357386,38.104789,42.318913619965315],[13.357371,38.104797,42.31892325822264],[13.35736,38.104809,42.318932364694774],[13.357354,38.10482,42.31893861107528],[13.357353,38.104835,42.31894314382225],[13.357356,38.104843,42.318944001570344],[13.357405,38.104889,42.318931634537876],[13.357376,38.104908,42.31895192153752],[13.357466,38.104993,42.318929294124246],[13.357496,38.104973,42.31890822853893],[13.357534,38.105009,42.31889887154102],[13.357554,38.10502,42.318891427479684],[13.357575,38.105022,42.31888142041862],[13.357597,38.105018,42.318868862465024],[13.357614,38.105007,42.318856921978295],[13.357621,38.104995,42.31884990911931],[13.357623,38.104979,42.318844622932374],[13.357619,38.104966,42.31884256564081],[13.357651,38.104945,42.3188205473125],[13.357616,38.104912,42.31882934086025],[13.357722,38.104843,42.31875525880605],[13.357715,38.104836,42.31875704508275],[13.357758,38.104807,42.31872627791017],[13.357868,38.104911,42.31869852449745],[13.357843,38.104928,42.31871663313359],[13.357838,38.104951,42.31872557569295],[13.357861,38.104972,42.318719745613635],[13.357824,38.104997,42.318745482712984],[13.357946,38.105111,42.31871476769447],[13.35774,38.105248,42.31885930337012],[13.357814,38.105318,42.31884062383324],[13.358359,38.104956,42.31845778413117],[13.358284,38.104885,42.31847678869963]]]]}},{"type":"Feature","properties":{"id":"seggio-51","nome":"Ospedale Ingrassia","tipo":"Sede di sezioni elettorali","abbinamento":"contenuto"},"geometry":{"type":"MultiPolygon","coordinates":[[[[13.310353,38.092844,42.339860373176634],[13.31028,38.092866,42.33990396652371],[13.310245,38.0928,42.33990388084203],[13.310078,38.092852,42.34000478498638],[13.310132,38.092961,42.34000713285059],[13.310245,38.092926,42.33993892930448],[13.31033,38.093094,42.339942483231425],[13.310369,38.093083,42.33991886675358],[13.310376,38.093096,42.33991899807006],[13.310453,38.093073,42.339872621931136],[13.310479,38.093126,42.33987428434193],[13.310371,38.093161,42.339939722791314],[13.310357,38.093136,42.33994003478438],[13.310318,38.09315,42.33996389620006],[13.310325,38.093166,42.33996488433331],[13.3103,38.093174,42.33998013380915],[13.310286,38.093201,42.33999496605247],[13.310243,38.093215,42.34002097696066],[13.310233,38.093195,42.340020617470145],[13.31009,38.09324,42.34010746516287],[13.310098,38.093257,42.34010786190629],[13.310002,38.093287,42.340165643021464],[13.309908,38.093318,42.340223049744964],[13.309895,38.093322,42.34023130964488],[13.309958,38.09345,42.34023399557918],[13.309968,38.093447,42.340228421613574],[13.310067,38.093418,42.34016901627183],[13.310094,38.093475,42.34017121978104],[13.310126,38.093465,42.34015160240233],[13.310188,38.093446,42.340114234015346],[13.310169,38.093407,42.34011335019022],[13.310316,38.093361,42.34002410620451],[13.310348,38.093424,42.34002549108118],[13.310471,38.093386,42.3399513354525],[13.310553,38.093551,42.33995489310473],[13.310443,38.093586,42.340021815150976],[13.310498,38.093696,42.34002408012748],[13.310607,38.093663,42.33995853550732],[13.31061,38.093673,42.33995962701738],[13.310662,38.093655,42.33992771524936],[13.310659,38.093646,42.33992684073746],[13.31067,38.093643,42.33992040529847],[13.31064,38.09358,42.33991835266352],[13.310709,38.093555,42.3398756030947],[13.310353,38.092844,42.339860373176634]]]]}},{"type":"Feature","properties":{"id":"seggio-52","nome":"OSPEDALE POLICLINICO","tipo":"Sede di sezioni elettorali","abbinamento":"vicino"},"geometry":{"type":"MultiPolygon","coordinates":[[[[13.362554,38.1043,42.31610910594463],[13.362559,38.104327,42.31611410714686],[13.362621,38.104322,42.31608035694808],[13.362648,38.10432,42.31606596056372],[13.362635,38.104205,42.3160405009985],[13.362359,38.104225,42.31618858221918],[13.362371,38.104334,42.31621286738664],[13.362418,38.10433,42.31618738081306],[13.362416,38.104309,42.316182480193675],[13.362465,38.104305,42.316156226210296],[13.362554,38.1043,42.31610910594463]]]]}},{"type":"Feature","properties":{"id":"seggio-53","nome":"OSPEDALE VILLA SOFIA","tipo":"Sede di sezioni elettorali","abbinamento":"contenuto"},"geometry":{"type":"MultiPolygon","coordinates":[[[[13.337612,38.154783,42.34311590529978],[13.337599,38.154812,42.34313047025353],[13.337524,38.15479,42.3431631103158],[13.337501,38.154839,42.34318865183741],[13.337549,38.154852,42.34316795691848],[13.337528,38.154894,42.34319022856653],[13.337503,38.154887,42.34320127684623],[13.337473,38.154948,42.343233617953956],[13.337457,38.154943,42.34324072021991],[13.337441,38.154976,42.34325839206576],[13.337457,38.154981,42.343251179903746],[13.33744,38.155017,42.343270091339946],[13.337555,38.155052,42.34322037175298],[13.337596,38.154968,42.343175794929266],[13.337616,38.154974,42.34316718298942],[13.337697,38.154809,42.34307916183025],[13.337612,38.154783,42.34311590529978]]]]}},{"type":"Feature","properties":{"id":"seggio-54","nome":"Scuola dell’infanzia comunale LAGIOSTRA","tipo":"Sede di sezioni elettorali","abbinamento":"vicino"},"geometry":{"type":"MultiPolygon","coordinates":[[[[13.33249,38.174886,42.35137496609241],[13.332635,38.174922,42.35131022706628],[13.33264,38.174908,42.35130345635116],[13.332647,38.17491,42.35130050126463],[13.332683,38.174822,42.35125738941133],[13.332532,38.174783,42.35132455825806],[13.33249,38.174886,42.35137496609241]]]]}},{"type":"Feature","properties":{"id":"seggio-55","nome":"Scuola dell’infanzia DIAZ VECCHIO","tipo":"Sede di sezioni elettorali","abbinamento":"contenuto"},"geometry":{"type":"MultiPolygon","coordinates":[[[[13.391878,38.099248,42.29956265166402],[13.391873,38.099241,42.2995635997504],[13.391577,38.099307,42.29973459150642],[13.391588,38.099331,42.29973595589399],[13.391851,38.099278,42.29958500433713],[13.391964,38.099429,42.29956937581301],[13.392006,38.099407,42.299541401676834],[13.391993,38.099391,42.29954362474382],[13.391973,38.099366,42.299546915106475],[13.391918,38.099298,42.29955598432571],[13.391899,38.099274,42.299559279344976],[13.391878,38.099248,42.29956265166402]]]]}},{"type":"Feature","properties":{"id":"seggio-60","nome":"Scuola materna comunale WHITAKER","tipo":"Sede di sezioni elettorali","abbinamento":"contenuto"},"geometry":{"type":"MultiPolygon","coordinates":[[[[13.341934,38.115827,42.329984297044575],[13.341967,38.115831,42.32996813766658],[13.342072,38.115818,42.32991039939225],[13.34207,38.115797,42.32990536559373],[13.342098,38.115797,42.3298911806196],[13.342094,38.115792,42.32989170309156],[13.341844,38.115797,42.33002196718007],[13.341858,38.115836,42.33002591691911],[13.341934,38.115827,42.329984297044575]]]]}},{"type":"Feature","properties":{"id":"seggio-61","nome":"SCUOLA MEDIA ANNESSA ALL’ISTITUTO D’ARTE","tipo":"Sede di sezioni elettorali","abbinamento":"vicino"},"geometry":{"type":"MultiPolygon","coordinates":[[[[13.332937,38.112009,42.333560628816485],[13.332925,38.111997,42.3335636947304],[13.332903,38.112007,42.33357771392912],[13.332865,38.11195,42.33358137123287],[13.332885,38.11194,42.33356835413724],[13.332836,38.111881,42.33357714675367],[13.332806,38.111843,42.33358161803335],[13.332721,38.111883,42.333637058734894],[13.332726,38.111891,42.333636465482414],[13.332582,38.111959,42.33373010158539],[13.332575,38.111951,42.333731576800346],[13.332506,38.111981,42.33377564046532],[13.332493,38.111965,42.33377752266824],[13.332501,38.111947,42.33376851771027],[13.332458,38.111935,42.333787282928824],[13.332325,38.111999,42.333873701281846],[13.332487,38.11222,42.333852119743824],[13.332937,38.112009,42.333560628816485]]]]}},{"type":"Feature","properties":{"id":"seggio-62","nome":"Scuola Media BORGESE PLESSOCERERE","tipo":"Sede di sezioni elettorali","abbinamento":"vicino"},"geometry":{"type":"MultiPolygon","coordinates":[[[[13.33601,38.191175,42.35410447511822],[13.335983,38.191141,42.354109017178416],[13.336003,38.191131,42.3540956787765],[13.335949,38.191065,42.35410534590483],[13.335915,38.191024,42.3541112691164],[13.335871,38.191047,42.354140466079116],[13.335825,38.191071,42.354171006940305],[13.33594,38.191211,42.35415061470121],[13.33601,38.191175,42.35410447511822]]]]}},{"type":"Feature","properties":{"id":"seggio-63","nome":"Scuola primaria “MANCINI NUOVO”","tipo":"Sede di sezioni elettorali","abbinamento":"vicino"},"geometry":{"type":"MultiPolygon","coordinates":[[[[13.335057,38.092399,42.32696953415871],[13.335013,38.092449,42.327006205916405],[13.334991,38.092475,42.32702466659248],[13.33492,38.092556,42.327084152027965],[13.334911,38.09255,42.3270872766152],[13.334904,38.092559,42.32709340099245],[13.334885,38.09258,42.327108822762966],[13.334835,38.092637,42.327151087112725],[13.334824,38.09265,42.32716017961502],[13.334876,38.092679,42.32714122813195],[13.334936,38.092712,42.32711996231228],[13.334985,38.092711,42.32709419447929],[13.335088,38.092767,42.3270567106083],[13.335098,38.092772,42.327052937820554],[13.335153,38.092708,42.32700629532337],[13.335149,38.092705,42.32700762245804],[13.335178,38.092674,42.32698405440897],[13.335059,38.09261,42.327027378603816],[13.33511,38.092554,42.32698564790189],[13.335206,38.092607,42.32695070374757],[13.335291,38.092508,42.326878962107],[13.335191,38.092452,42.32691522222012],[13.335237,38.092402,42.32687738817185],[13.335337,38.092457,42.32684080675244],[13.335385,38.092404,42.32680139038712],[13.335379,38.0924,42.32680354826152],[13.335419,38.092356,42.32677033729851],[13.335257,38.092267,42.32682884577662],[13.335193,38.09223,42.32685189694166],[13.335181,38.092244,42.32686181087047],[13.335136,38.092294,42.32689898274839],[13.335115,38.092317,42.326916517689824],[13.335106,38.092328,42.326924114488065],[13.335115,38.092333,42.32692076638341],[13.335057,38.092399,42.32696953415871]],[[13.334995,38.092683,42.32708126772195],[13.334904,38.092634,42.327114204876125],[13.334951,38.092582,42.32707542646676],[13.33504,38.092632,42.32704384997487],[13.334995,38.092683,42.32708126772195]],[[13.335034,38.092486,42.3270057849586],[13.335081,38.092435,42.32696684449911],[13.335171,38.092483,42.32693437486887],[13.335123,38.092534,42.32697320077568],[13.335034,38.092486,42.3270057849586]],[[13.335158,38.092345,42.32690199185163],[13.335204,38.092293,42.32686372194439],[13.335292,38.092343,42.326832458376884],[13.335247,38.092395,42.32686973363161],[13.335158,38.092345,42.32690199185163]]]]}},{"type":"Feature","properties":{"id":"seggio-68","nome":"Scuola primaria BARONE DELLA SCALA","tipo":"Sede di sezioni elettorali","abbinamento":"vicino"},"geometry":{"type":"MultiPolygon","coordinates":[[[[13.347289,38.086139,42.318895132280886],[13.347318,38.086186,42.31889351271093],[13.347341,38.086177,42.318879161030054],[13.347371,38.086233,42.31887929793447],[13.347412,38.086221,42.318854914046824],[13.347445,38.086293,42.31885797623545],[13.3475,38.086276,42.31882504187524],[13.347469,38.086207,42.318821504712105],[13.347512,38.086192,42.3187948660925],[13.347534,38.086252,42.31880057044327],[13.347645,38.086218,42.31873363442719],[13.347634,38.086178,42.31872826255858],[13.347689,38.086169,42.31869682762772],[13.347715,38.086121,42.31867011450231],[13.347664,38.086117,42.31869531515986],[13.347655,38.086095,42.31869371701032],[13.347747,38.086074,42.318640630692244],[13.347773,38.086019,42.31861149240285],[13.347685,38.086029,42.31866018008441],[13.347289,38.086139,42.318895132280886]]]]}},{"type":"Feature","properties":{"id":"seggio-71","nome":"Scuola primaria BORSELLINO","tipo":"Sede di sezioni elettorali","abbinamento":"vicino"},"geometry":{"type":"MultiPolygon","coordinates":[[[[13.296803,38.127313,42.356513779610395],[13.29668,38.12732,42.35657939873636],[13.29669,38.127435,42.35660646110773],[13.296613,38.127439,42.356647175736725],[13.296631,38.12764,42.35669437982142],[13.296741,38.127634,42.3566357716918],[13.296745,38.12768,42.35664655920118],[13.296714,38.127682,42.35666297003627],[13.29672,38.127754,42.35667998529971],[13.296841,38.127748,42.35661591682583],[13.296837,38.127709,42.356606737710536],[13.296855,38.127708,42.35659753810614],[13.296838,38.127508,42.35655070003122],[13.296805,38.12751,42.356568104587495],[13.296794,38.127381,42.35653766896576],[13.296809,38.12738,42.35652939043939],[13.296803,38.127313,42.356513779610395]]]]}},{"type":"Feature","properties":{"id":"seggio-75","nome":"Scuola primaria D’ANGELO","tipo":"Sede di sezioni elettorali","abbinamento":"vicino"},"geometry":{"type":"MultiPolygon","coordinates":[[[[13.304203,38.17234,0.0],[13.304241,38.172306,0.0],[13.304458,38.172455,0.0],[13.304425,38.172484,0.0],[13.304492,38.17253,0.0],[13.304512,38.172544,0.0],[13.304526,38.172531,0.0],[13.304614,38.172451,0.0],[13.304262,38.17221,0.0],[13.304194,38.172272,0.0],[13.30417,38.172256,0.0],[13.304133,38.17229,0.0],[13.304203,38.17234,0.0]]]]}},{"type":"Feature","properties":{"id":"seggio-77","nome":"Scuola primaria DEL VESPRO","tipo":"Sede di sezioni elettorali","abbinamento":"vicino"},"geometry":{"type":"MultiPolygon","coordinates":[[[[13.370491,38.098284,42.3103251028806],[13.37067,38.098339,42.31024822406471],[13.370695,38.09828,42.31021871510893],[13.370491,38.098284,42.3103251028806]]]]}},{"type":"Feature","properties":{"id":"seggio-78","nome":"Scuola primaria DONAUDY","tipo":"Sede di sezioni elettorali","abbinamento":"contenuto"},"geometry":{"type":"MultiPolygon","coordinates":[[[[13.33507,38.101218,42.32943506538868],[13.335269,38.100879,42.32923720497638],[13.335608,38.100303,42.3289011484012],[13.335524,38.100272,42.32893588487059],[13.335168,38.100877,42.329289112240076],[13.334986,38.101187,42.32946978043765],[13.33507,38.101218,42.32943506538868]]]]}},{"type":"Feature","properties":{"id":"seggio-79","nome":"Scuola primaria e dell’infanzia BONANNO","tipo":"Sede di sezioni elettorali","abbinamento":"vicino"},"geometry":{"type":"MultiPolygon","coordinates":[[[[13.328515,38.110649,42.33546379581094],[13.328244,38.110654,42.33560500200838],[13.328244,38.110662,42.335607370361686],[13.328112,38.110664,42.33567637484521],[13.328112,38.110655,42.3356739282608],[13.327835,38.11066,42.335818021558225],[13.327842,38.110921,42.335887436755],[13.327939,38.110919,42.335836777463555],[13.327935,38.110739,42.335788669995964],[13.328112,38.110735,42.33569634053856],[13.328113,38.110775,42.33570688869804],[13.328082,38.110776,42.3357226010412],[13.328088,38.110968,42.335773820988834],[13.328251,38.110965,42.33568884525448],[13.32825,38.110943,42.335683048702776],[13.328284,38.110943,42.33566540013999],[13.328279,38.11077,42.33561946824193],[13.328244,38.110771,42.335637951269746],[13.328243,38.110734,42.335628125816584],[13.328415,38.110731,42.335538293235004],[13.32842,38.110912,42.33558665215969],[13.328522,38.11091,42.33553324174136],[13.328515,38.110649,42.33546379581094]]]]}},{"type":"Feature","properties":{"id":"seggio-80","nome":"Scuola primaria e dell’infanzia LAMBRUSCHINI","tipo":"Sede di sezioni elettorali","abbinamento":"vicino"},"geometry":{"type":"MultiPolygon","coordinates":[[[[13.349973,38.145548,42.334154470823705],[13.349963,38.145563,42.33416387345642],[13.349603,38.145409,42.33430668897927],[13.349551,38.145484,42.334354422055185],[13.349764,38.145575,42.334270073100924],[13.349855,38.145613,42.33423359785229],[13.349831,38.145647,42.334255256690085],[13.349939,38.145692,42.33421276602894],[13.349948,38.145679,42.33420401904732],[13.349962,38.145659,42.33419131394476],[13.350021,38.145684,42.33416796568781],[13.350082,38.145595,42.33411165326834],[13.35009,38.145598,42.334108476527035],[13.35021,38.145423,42.33399767708033],[13.350256,38.145443,42.33397913631052],[13.350313,38.14536,42.33392653428018],[13.350168,38.145298,42.33398412633687],[13.349992,38.145556,42.334147181361914],[13.349973,38.145548,42.334154470823705]]]]}},{"type":"Feature","properties":{"id":"seggio-83","nome":"SCUOLA PRIMARIA G. FALCONE","tipo":"Sede di sezioni elettorali","abbinamento":"vicino"},"geometry":{"type":"MultiPolygon","coordinates":[[[[13.321054,38.178638,42.358324465341866],[13.321005,38.17865,42.35835295263678],[13.32099,38.178644,42.358358988538384],[13.32095,38.1787,42.35839543864131],[13.320963,38.178706,42.35839037410915],[13.320977,38.178745,42.35839400999248],[13.321054,38.178638,42.358324465341866]]]]}},{"type":"Feature","properties":{"id":"seggio-84","nome":"Scuola primaria G. FAVA","tipo":"Sede di sezioni elettorali","abbinamento":"contenuto"},"geometry":{"type":"MultiPolygon","coordinates":[[[[13.325708,38.153147,0.0],[13.325848,38.153131,0.0],[13.326008,38.153042,0.0],[13.326103,38.152894,0.0],[13.326096,38.152784,0.0],[13.326357,38.152389,0.0],[13.325788,38.152157,0.0],[13.325212,38.153005,0.0],[13.325708,38.153147,0.0]]]]}},{"type":"Feature","properties":{"id":"seggio-91","nome":"Scuola primaria NICOLO’ TURRISI","tipo":"Sede di sezioni elettorali","abbinamento":"vicino"},"geometry":{"type":"MultiPolygon","coordinates":[[[[13.352881,38.119854,42.32546096853912],[13.352903,38.119799,42.32543418183923],[13.352981,38.119599,42.32533797994256],[13.352717,38.119535,42.32545639295131],[13.352683,38.11962,42.32549754809588],[13.352793,38.119647,42.325448436662555],[13.352671,38.119957,42.32559827808291],[13.352564,38.119931,42.32564646936953],[13.35253,38.120016,42.32568736560643],[13.352793,38.12008,42.32556972838938],[13.352881,38.119854,42.32546096853912]]]]}},{"type":"Feature","properties":{"id":"seggio-94","nome":"Scuola primaria PADRE PUGLISI","tipo":"Sede di sezioni elettorali","abbinamento":"vicino"},"geometry":{"type":"MultiPolygon","coordinates":[[[[13.408198,38.096071,42.290256028063595],[13.40818,38.096037,42.2902555949986],[13.408205,38.096029,42.290240593254566],[13.408465,38.095941,42.29008164256811],[13.408413,38.095845,42.29008134454489],[13.408153,38.095933,42.29024040699005],[13.408129,38.095942,42.2902554217726],[13.408109,38.095906,42.290255536325276],[13.407983,38.095949,42.290332628414035],[13.408071,38.096113,42.29033305961639],[13.408198,38.096071,42.290256028063595]]]]}},{"type":"Feature","properties":{"id":"seggio-96","nome":"Scuola primaria PASCOLI","tipo":"Sede di sezioni elettorali","abbinamento":"vicino"},"geometry":{"type":"MultiPolygon","coordinates":[[[[13.316627,38.196905,42.365703840740025],[13.31654,38.19686,42.365736132487655],[13.31657,38.196824,42.36571071483195],[13.316609,38.196844,42.36569635383785],[13.316634,38.196813,42.36567462608218],[13.316661,38.196827,42.36566459015012],[13.316698,38.196783,42.3656334253028],[13.31667,38.196769,42.36564391385764],[13.316695,38.196738,42.365622494369745],[13.316657,38.196719,42.365636558271945],[13.316685,38.196684,42.365612257272005],[13.316772,38.196729,42.36558007914573],[13.31682,38.196672,42.36553926952183],[13.316602,38.196559,42.365620313212276],[13.316555,38.196615,42.36566018033773],[13.316579,38.196628,42.36565155163407],[13.31653,38.196686,42.365693194791675],[13.316521,38.196682,42.36569624580443],[13.316469,38.196745,42.3657409818843],[13.316478,38.19675,42.36573765706271],[13.316431,38.196807,42.36577807739377],[13.31641,38.196797,42.36578570585698],[13.316366,38.19685,42.36582351941615],[13.316463,38.1969,42.365787422284484],[13.316494,38.196916,42.36577585339546],[13.316581,38.196961,42.36574349459261],[13.316627,38.196905,42.365703840740025]]]]}},{"type":"Feature","properties":{"id":"seggio-99","nome":"Scuola primaria RODARI","tipo":"Sede di sezioni elettorali","abbinamento":"vicino"},"geometry":{"type":"MultiPolygon","coordinates":[[[[13.294163,38.188057,42.374836241826415],[13.293426,38.187631,42.37509819865227],[13.293375,38.187685,42.37513937987387],[13.294115,38.188113,42.37487684097141],[13.294163,38.188057,42.374836241826415]]]]}},{"type":"Feature","properties":{"id":"seggio-100","nome":"Scuola primaria ROSMINI","tipo":"Sede di sezioni elettorali","abbinamento":"vicino"},"geometry":{"type":"MultiPolygon","coordinates":[[[[13.327181,38.140656,42.344551217742264],[13.327192,38.140664,42.34454762097448],[13.327425,38.140462,42.344370720908046],[13.327414,38.140454,42.34437427762896],[13.327441,38.140431,42.344354218803346],[13.327351,38.140367,42.344382396899164],[13.327319,38.140395,42.3444066895172],[13.32724,38.140463,42.34446646925062],[13.327211,38.140442,42.3444758374244],[13.327149,38.140495,42.34452269598842],[13.327177,38.140516,42.34451371897012],[13.3271,38.140583,42.34457275830209],[13.327066,38.140612,42.34459799993783],[13.327157,38.140677,42.344569633714855],[13.327181,38.140656,42.344551217742264]]]]}},{"type":"Feature","properties":{"id":"seggio-102","nome":"Scuola primaria SAN LORENZO","tipo":"Sede di sezioni elettorali","abbinamento":"vicino"},"geometry":{"type":"MultiPolygon","coordinates":[[[[13.326836,38.161022,42.350421350449324],[13.326832,38.161023,42.350423995405436],[13.326877,38.161146,42.35043496452272],[13.327013,38.161114,42.35035593062639],[13.326996,38.161068,42.35035203304142],[13.327047,38.161056,42.350322262384],[13.327057,38.161083,42.35032449569553],[13.327043,38.161086,42.350332805886865],[13.32705,38.161105,42.35033433418721],[13.32729,38.161049,42.350194750353694],[13.327455,38.16101,42.350098764523864],[13.327408,38.160887,42.35008842498064],[13.326836,38.161022,42.350421350449324]],[[13.327288,38.160999,42.35018174163997],[13.327347,38.160985,42.350147517398],[13.327357,38.161011,42.35014970693737],[13.327298,38.161025,42.35018390789628],[13.327288,38.160999,42.35018174163997]]]]}},{"type":"Feature","properties":{"id":"seggio-106","nome":"Scuola primaria TOMASINO BARTOLOMEO","tipo":"Sede di sezioni elettorali","abbinamento":"contenuto"},"geometry":{"type":"MultiPolygon","coordinates":[[[[13.375422,38.088516,42.30503895878792],[13.375425,38.088505,42.3050340609625],[13.375379,38.088486,42.30505276750773],[13.375351,38.088588,42.305096046067774],[13.375401,38.088597,42.30507240537554],[13.375422,38.088516,42.30503895878792]]]]}},{"type":"Feature","properties":{"id":"seggio-109","nome":"Scuola primaria VALVERDE","tipo":"Sede di sezioni elettorali","abbinamento":"vicino"},"geometry":{"type":"MultiPolygon","coordinates":[[[[13.361946,38.120185,42.32087588030845],[13.362072,38.120228,42.32082264032215],[13.3621,38.120186,42.320796359330416],[13.362013,38.120158,42.32083359453827],[13.362115,38.119958,42.32072499394417],[13.362213,38.119763,42.32061967160553],[13.362194,38.119756,42.32062726095319],[13.36234,38.119459,42.320468943566084],[13.362359,38.119455,42.320457831956446],[13.362506,38.11954,42.32040607649833],[13.362429,38.119648,42.320475839078426],[13.362414,38.119639,42.320480985566974],[13.362384,38.119682,42.32050872966647],[13.362425,38.119707,42.32049449533224],[13.362553,38.119531,42.32037932053208],[13.362347,38.119418,42.32045392226428],[13.362324,38.119423,42.320467359386384],[13.361946,38.120185,42.32087588030845]]]]}},{"type":"Feature","properties":{"id":"seggio-114","nome":"Scuola RIZZO","tipo":"Sede di sezioni elettorali","abbinamento":"contenuto"},"geometry":{"type":"MultiPolygon","coordinates":[[[[13.371039,38.150365,42.324635786004364],[13.371041,38.15032,42.32462215330452],[13.370894,38.150316,42.324697005562484],[13.370868,38.15085,42.3248596386984],[13.370967,38.150853,42.32480956520885],[13.370991,38.150364,42.324660438112915],[13.371039,38.150365,42.324635786004364]]]]}},{"type":"Feature","properties":{"id":"seggio-121","nome":"Scuola secondaria di I grado DANTE ALIGHIERI","tipo":"Sede di sezioni elettorali","abbinamento":"vicino"},"geometry":{"type":"MultiPolygon","coordinates":[[[[13.362034,38.147289,42.32841916102916],[13.362161,38.147282,42.328351930715144],[13.362158,38.147251,42.32834455464035],[13.362501,38.147232,42.32816279493272],[13.362492,38.147132,42.32813925109804],[13.362214,38.147147,42.32828664500266],[13.362206,38.147054,42.32826488092542],[13.362202,38.147008,42.3282540012151],[13.362195,38.146928,42.32823514658958],[13.362474,38.146913,42.328086850233376],[13.362472,38.146879,42.328078483231366],[13.362467,38.146812,42.3280628034845],[13.362107,38.146832,42.328253594227135],[13.362109,38.146845,42.32825662754476],[13.361996,38.146851,42.32831633463502],[13.362034,38.147289,42.32841916102916]]]]}},{"type":"Feature","properties":{"id":"seggio-126","nome":"Scuola secondaria di I grado MARCONI","tipo":"Sede di sezioni elettorali","abbinamento":"vicino"},"geometry":{"type":"MultiPolygon","coordinates":[[[[13.343771,38.143859,42.33688253723085],[13.343841,38.143895,42.33685645181686],[13.343912,38.143931,42.33683017641306],[13.343922,38.143918,42.33682136144489],[13.343959,38.143937,42.336807515472174],[13.344032,38.143851,42.33674564398825],[13.343996,38.143832,42.33675922267139],[13.344008,38.143817,42.33674845378846],[13.343635,38.143625,42.33688773214817],[13.343631,38.143623,42.33688922878355],[13.343536,38.143738,42.33697022404522],[13.343771,38.143859,42.33688253723085]]]]}},{"type":"Feature","properties":{"id":"seggio-127","nome":"Scuola secondaria di I grado MAZZINI","tipo":"Sede di sezioni elettorali","abbinamento":"vicino"},"geometry":{"type":"MultiPolygon","coordinates":[[[[13.34167,38.109814,42.32843558490276],[13.3417,38.10976,42.328405033797026],[13.341458,38.109673,42.328505501151085],[13.341476,38.10964,42.32848740182817],[13.341344,38.109592,42.32854182459414],[13.341306,38.109658,42.328580104745924],[13.34129,38.109651,42.32858631853014],[13.341228,38.109758,42.328648396767676],[13.341169,38.109737,42.32867269124836],[13.341141,38.109792,42.328702522441745],[13.3415,38.109932,42.32855631969869],[13.341527,38.109889,42.32853064313531],[13.341277,38.109793,42.328632812947035],[13.34134,38.10969,42.32857139222324],[13.341591,38.109783,42.32846808433533],[13.34167,38.109814,42.32843558490276]]]]}},{"type":"Feature","properties":{"id":"seggio-128","nome":"Scuola secondaria di I grado PIAZZI","tipo":"Sede di sezioni elettorali","abbinamento":"vicino"},"geometry":{"type":"MultiPolygon","coordinates":[[[[13.348053,38.139602,42.333481987938285],[13.34802,38.139652,42.33351263217628],[13.347923,38.139619,42.33355340640992],[13.347911,38.139635,42.33356425538659],[13.347886,38.139626,42.33357478212565],[13.347855,38.139672,42.333603334613144],[13.347829,38.139662,42.33361413143575],[13.347672,38.139904,42.333762989379466],[13.347641,38.139954,42.33379322383553],[13.347755,38.139999,42.333746802061796],[13.347803,38.139921,42.33369992300868],[13.347865,38.139947,42.333675127476454],[13.3479,38.139893,42.33364217169583],[13.347943,38.13991,42.33362483792007],[13.347963,38.139879,42.33360572811216],[13.347897,38.139852,42.33363263309002],[13.347967,38.139744,42.33356591966003],[13.348044,38.139775,42.33353480882943],[13.348042,38.139779,42.33353707846254],[13.348106,38.139805,42.33351144194603],[13.348146,38.13975,42.333475390449166],[13.348201,38.139662,42.333422208204865],[13.348053,38.139602,42.333481987938285]]]]}},{"type":"Feature","properties":{"id":"seggio-129","nome":"Scuola secondaria di I grado PIRANDELLO","tipo":"Sede di sezioni elettorali","abbinamento":"contenuto"},"geometry":{"type":"MultiPolygon","coordinates":[[[[13.352784,38.089143,42.31690056901425],[13.352769,38.089114,42.316899933852255],[13.352594,38.089169,42.31700579635799],[13.352619,38.089218,42.31700676865876],[13.352626,38.089232,42.31700703687966],[13.352667,38.089218,42.316982010379434],[13.352794,38.089178,42.31690512225032],[13.352808,38.089205,42.31690566893667],[13.35296,38.089157,42.31681391503662],[13.352987,38.089149,42.316797208972275],[13.352972,38.089118,42.31679656356573],[13.353045,38.089095,42.31675233319402],[13.353131,38.089068,42.31670029554516],[13.353147,38.089099,42.31670087669045],[13.353223,38.089074,42.31665476039052],[13.353324,38.089042,42.31659337505698],[13.353292,38.088979,42.3165921298787],[13.353124,38.089033,42.31669410597533],[13.35311,38.089005,42.31669351179153],[13.352935,38.08906,42.316799328662455],[13.35295,38.089091,42.316799961961806],[13.352784,38.089143,42.31690056901425]]]]}},{"type":"Feature","properties":{"id":"seggio-131","nome":"Scuola Secondaria di I grado VERDI","tipo":"Sede di sezioni elettorali","abbinamento":"vicino"},"geometry":{"type":"MultiPolygon","coordinates":[[[[13.339756,38.128017,42.3345223357901],[13.339821,38.127809,42.33443038072437],[13.339802,38.127805,42.3344392599538],[13.339818,38.127751,42.334415609017015],[13.339821,38.127741,42.334411231800914],[13.339735,38.127723,42.334450596012175],[13.339317,38.127633,42.33464152831584],[13.339295,38.127697,42.33467090316117],[13.339267,38.127777,42.334707332775],[13.339326,38.12779,42.33468062710017],[13.339404,38.127807,42.334645027294755],[13.339425,38.127811,42.334635510109365],[13.339614,38.127853,42.33454938791692],[13.339591,38.127915,42.334578909911215],[13.339577,38.127978,42.334603637456894],[13.339643,38.127992,42.33457376435399],[13.339665,38.127997,42.334563684649765],[13.339756,38.128017,42.3345223357901]]]]}}]}