{"type":"FeatureCollection","validita":{"da":"2026-09-26","a":"2026-12-12"},"features":[{"type":"Feature","geometry":{"type":"Point","coordinates":[13.367517,38.108859]},"properties":{"id":"f830012002","nome":"Palermo Centrale","linee":["M1","M2","M4","M6"],"accessibile":"","tipo":"ferrovia","lon":13.367517,"lat":38.108859}},{"type":"Feature","geometry":{"type":"Point","coordinates":[13.407714,38.087404]},"properties":{"id":"f830012032","nome":"Palermo Roccella","linee":["M2","M4","M7","M8"],"accessibile":"","tipo":"ferrovia","lon":13.407714,"lat":38.087404}},{"type":"Feature","geometry":{"type":"Point","coordinates":[13.463353,38.086569]},"properties":{"id":"f830012035","nome":"Ficarazzi","linee":["M2"],"accessibile":"","tipo":"ferrovia","lon":13.463353,"lat":38.086569}},{"type":"Feature","geometry":{"type":"Point","coordinates":[13.392511,38.0928]},"properties":{"id":"f830012055","nome":"Palermo Brancaccio","linee":["M2"],"accessibile":"","tipo":"ferrovia","lon":13.392511,"lat":38.0928}},{"type":"Feature","geometry":{"type":"Point","coordinates":[13.328882,38.147678]},"properties":{"id":"f830012065","nome":"Palermo De Gasperi","linee":["M1","M5","M9"],"accessibile":"","tipo":"ferrovia","lon":13.328882,"lat":38.147678}},{"type":"Feature","geometry":{"type":"Point","coordinates":[13.275609,38.195558]},"properties":{"id":"f830012066","nome":"Palermo Sferracavallo","linee":["M1","M5","M9"],"accessibile":"","tipo":"ferrovia","lon":13.275609,"lat":38.195558}},{"type":"Feature","geometry":{"type":"Point","coordinates":[13.309567,38.167201]},"properties":{"id":"f830012069","nome":"Palermo La Malfa","linee":["M1","M5","M9"],"accessibile":"","tipo":"ferrovia","lon":13.309567,"lat":38.167201}},{"type":"Feature","geometry":{"type":"Point","coordinates":[13.341745,38.143575]},"properties":{"id":"f830012075","nome":"Palermo Libertà","linee":["M3"],"accessibile":"","tipo":"ferrovia","lon":13.341745,"lat":38.143575}},{"type":"Feature","geometry":{"type":"Point","coordinates":[13.123887,38.188862]},"properties":{"id":"f830012121","nome":"Orsa","linee":["M1"],"accessibile":"","tipo":"ferrovia","lon":13.123887,"lat":38.188862}},{"type":"Feature","geometry":{"type":"Point","coordinates":[13.141645,38.171815]},"properties":{"id":"f830012125","nome":"Piraineto","linee":["M1","M9"],"accessibile":"","tipo":"ferrovia","lon":13.141645,"lat":38.171815}},{"type":"Feature","geometry":{"type":"Point","coordinates":[13.18663,38.147417]},"properties":{"id":"f830012127","nome":"Carini","linee":["M1","M5","M9"],"accessibile":"","tipo":"ferrovia","lon":13.18663,"lat":38.147417}},{"type":"Feature","geometry":{"type":"Point","coordinates":[13.238349,38.176891]},"properties":{"id":"f830012128","nome":"Capaci","linee":["M1","M5","M9"],"accessibile":"","tipo":"ferrovia","lon":13.238349,"lat":38.176891}},{"type":"Feature","geometry":{"type":"Point","coordinates":[13.250198,38.194489]},"properties":{"id":"f830012129","nome":"Isola delle Femmine","linee":["M1","M5","M9"],"accessibile":"","tipo":"ferrovia","lon":13.250198,"lat":38.194489}},{"type":"Feature","geometry":{"type":"Point","coordinates":[13.354092,38.108958]},"properties":{"id":"f830012130","nome":"Palermo Palazzo Reale-Orleans","linee":["M1","M5","M6"],"accessibile":"","tipo":"ferrovia","lon":13.354092,"lat":38.108958}},{"type":"Feature","geometry":{"type":"Point","coordinates":[13.288193,38.189974]},"properties":{"id":"f830012131","nome":"Palermo Tommaso Natale","linee":["M1"],"accessibile":"","tipo":"ferrovia","lon":13.288193,"lat":38.189974}},{"type":"Feature","geometry":{"type":"Point","coordinates":[13.31645,38.162607]},"properties":{"id":"f830012132","nome":"Palermo S.Lorenzo","linee":["M1","M5","M9"],"accessibile":"","tipo":"ferrovia","lon":13.31645,"lat":38.162607}},{"type":"Feature","geometry":{"type":"Point","coordinates":[13.10582,38.187374]},"properties":{"id":"f830012133","nome":"Palermo Aeroporto","linee":["M1","M5","M7","M9"],"accessibile":"","tipo":"ferrovia","lon":13.10582,"lat":38.187374}},{"type":"Feature","geometry":{"type":"Point","coordinates":[13.341581,38.131936]},"properties":{"id":"f830012134","nome":"Palermo Notarbartolo","linee":["M1","M3","M5","M6","M7","M8","M9"],"accessibile":"","tipo":"ferrovia","lon":13.341581,"lat":38.131936}},{"type":"Feature","geometry":{"type":"Point","coordinates":[13.361622,38.102697]},"properties":{"id":"f830012135","nome":"Palermo Vespri","linee":["M1","M5","M6"],"accessibile":"","tipo":"ferrovia","lon":13.361622,"lat":38.102697}},{"type":"Feature","geometry":{"type":"Point","coordinates":[13.349234,38.145207]},"properties":{"id":"f830012136","nome":"Palermo Imperatore Federico","linee":["M3"],"accessibile":"","tipo":"ferrovia","lon":13.349234,"lat":38.145207}},{"type":"Feature","geometry":{"type":"Point","coordinates":[13.353622,38.141048]},"properties":{"id":"f830012137","nome":"Palermo Fiera","linee":["M3"],"accessibile":"","tipo":"ferrovia","lon":13.353622,"lat":38.141048}},{"type":"Feature","geometry":{"type":"Point","coordinates":[13.358071,38.135315]},"properties":{"id":"f830012138","nome":"Palermo Giachery","linee":["M3"],"accessibile":"","tipo":"ferrovia","lon":13.358071,"lat":38.135315}},{"type":"Feature","geometry":{"type":"Point","coordinates":[13.297867,38.174051]},"properties":{"id":"f830012139","nome":"Palermo Cardillo-Zen","linee":["M1"],"accessibile":"","tipo":"ferrovia","lon":13.297867,"lat":38.174051}},{"type":"Feature","geometry":{"type":"Point","coordinates":[13.321922,38.15546]},"properties":{"id":"f830012140","nome":"Palermo Francia","linee":["M1","M5","M7","M9"],"accessibile":"","tipo":"ferrovia","lon":13.321922,"lat":38.15546}},{"type":"Feature","geometry":{"type":"Point","coordinates":[13.345531,38.124363]},"properties":{"id":"f830012143","nome":"Palermo Lolli","linee":["M1","M5","M6","M7","M8"],"accessibile":"","tipo":"ferrovia","lon":13.345531,"lat":38.124363}},{"type":"Feature","geometry":{"type":"Point","coordinates":[13.370845,38.09825]},"properties":{"id":"f830012144","nome":"Palermo Guadagna","linee":["M1","M5","M6"],"accessibile":"","tipo":"ferrovia","lon":13.370845,"lat":38.09825}},{"type":"Feature","geometry":{"type":"Point","coordinates":[13.218192,38.163498]},"properties":{"id":"f830012799","nome":"Carini Torre Ciachea","linee":["M1"],"accessibile":"","tipo":"ferrovia","lon":13.218192,"lat":38.163498}},{"type":"Feature","geometry":{"type":"Point","coordinates":[13.35504,38.124033]},"properties":{"id":"fosm-10248861760","nome":"Palermo Politeama","linee":[],"accessibile":"Sì","tipo":"ferrovia","stato":"in apertura","lon":13.35504,"lat":38.124033}},{"type":"Feature","geometry":{"type":"Point","coordinates":[13.362031,38.129118]},"properties":{"id":"fosm-10248861761","nome":"Palermo Porto","linee":[],"accessibile":"","tipo":"ferrovia","stato":"in apertura","lon":13.362031,"lat":38.129118}}]}