{"type":"FeatureCollection","features":[{"type":"Feature","geometry":{"type":"LineString","coordinates":[[13.358071,38.135315],[13.358047,38.135314],[13.358546,38.134657],[13.358885,38.134192],[13.358962,38.134089],[13.359039,38.133983],[13.359157,38.133816],[13.359278,38.13363],[13.359369,38.133477],[13.359547,38.133155],[13.359838,38.132621],[13.359968,38.132388],[13.360352,38.131703],[13.360726,38.131034],[13.360873,38.130782],[13.361059,38.130479],[13.361235,38.13021],[13.361422,38.129949],[13.361557,38.129761],[13.36189,38.129312],[13.362031,38.129118],[13.362031,38.129118],[13.362179,38.128917],[13.362272,38.128784],[13.362352,38.12866],[13.362408,38.128564],[13.362457,38.128459],[13.362496,38.128344],[13.362528,38.128207],[13.362542,38.128063],[13.362539,38.127926],[13.362525,38.127779],[13.362498,38.127633],[13.362471,38.127531],[13.362444,38.127448],[13.362414,38.127378],[13.36238,38.127301],[13.362342,38.127229],[13.362303,38.12717],[13.362255,38.127107],[13.362205,38.127052],[13.36215,38.127001],[13.362082,38.126944],[13.36202,38.126897],[13.361928,38.126838],[13.361844,38.126792],[13.361737,38.126741],[13.361645,38.126703],[13.356776,38.124759],[13.355962,38.124422],[13.355791,38.12435],[13.355628,38.124278],[13.35507,38.123993],[13.35504,38.124033],[13.35507,38.123993],[13.354617,38.123756],[13.354565,38.12373],[13.35435,38.123627],[13.354141,38.123533],[13.353932,38.123442],[13.35349,38.123258],[13.352654,38.122926],[13.352304,38.122795],[13.352088,38.122727],[13.351877,38.122671],[13.351656,38.122634],[13.351483,38.12262],[13.351226,38.122626],[13.351028,38.122657],[13.350807,38.122711],[13.350618,38.122778],[13.350433,38.122869],[13.346287,38.125118],[13.34587,38.125353],[13.345474,38.125613],[13.345262,38.125773],[13.345036,38.125957],[13.344809,38.126165],[13.344603,38.126383],[13.344454,38.126568],[13.344356,38.126716],[13.344146,38.1271],[13.343594,38.128211],[13.343307,38.128786],[13.343084,38.129212],[13.342992,38.129393],[13.342744,38.129859],[13.342951,38.129353],[13.342646,38.129945],[13.342558,38.130116],[13.342457,38.130322],[13.342366,38.130513],[13.342306,38.130648],[13.342246,38.130784],[13.342184,38.13093],[13.342077,38.131192],[13.341591,38.132385],[13.341581,38.131936]]},"properties":{"nome":"Anello ferroviario (tratto in apertura)","stato":"in apertura"}}]}