{"type":"FeatureCollection","aggiornato":"2026-10-06T03:51:26+00:00","fonte":"GSE - Piattaforma Unica Nazionale (PUN), tramite PalermoHub/evcharginglogsicilia - CC BY 4.0","features":[{"type":"Feature","geometry":{"type":"Point","coordinates":[13.299816,38.134862]},"properties":{"id":"IT*ENH*EEnh_CentroLaTorre_1*1","stato":"Disponibile","operatore":"Enerhub Srl","indirizzo":"Via Torre Ingastone 25b","cap":"90145","potenza_kw":22.0,"corrente":"AC","connettore":"Tipo 2","n_connettori":1,"h24":true,"tempo_reale":false}},{"type":"Feature","geometry":{"type":"Point","coordinates":[13.299816,38.134862]},"properties":{"id":"IT*ENH*EEnh_CentroLaTorre_1*2","stato":"Disponibile","operatore":"Enerhub Srl","indirizzo":"Via Torre Ingastone 25b","cap":"90145","potenza_kw":22.0,"corrente":"AC","connettore":"Tipo 2","n_connettori":1,"h24":true,"tempo_reale":false}},{"type":"Feature","geometry":{"type":"Point","coordinates":[13.3099,38.13317]},"properties":{"id":"IT*ENX*E18XP22T3BB1AF00014*1","stato":"Non attiva","operatore":"ENX","indirizzo":"Via Michelangelo 1822 - R. Star S.p.A.","cap":"90145","potenza_kw":20.4,"corrente":"AC","connettore":"Tipo 2","n_connettori":1,"h24":false,"tempo_reale":true}},{"type":"Feature","geometry":{"type":"Point","coordinates":[13.3099,38.13317]},"properties":{"id":"IT*ENX*E18XP22T3BB1AF00014*2","stato":"Non attiva","operatore":"ENX","indirizzo":"Via Michelangelo 1822 - R. Star S.p.A.","cap":"90145","potenza_kw":20.4,"corrente":"AC","connettore":"Tipo 2","n_connettori":1,"h24":false,"tempo_reale":true}},{"type":"Feature","geometry":{"type":"Point","coordinates":[13.309958,38.133172]},"properties":{"id":"IT*ENX*E18XP22T3BB1AF00016*1","stato":"Non attiva","operatore":"ENEL X WAY ITALIA SRL","indirizzo":"Via Michelangelo 1822 - R. Star S.p.A.","cap":"90145","potenza_kw":20.4,"corrente":"AC","connettore":"Tipo 2","n_connettori":1,"h24":true,"tempo_reale":true}},{"type":"Feature","geometry":{"type":"Point","coordinates":[13.309958,38.133172]},"properties":{"id":"IT*ENX*E18XP22T3BB1AF00016*2","stato":"Non attiva","operatore":"ENEL X WAY ITALIA SRL","indirizzo":"Via Michelangelo 1822 - R. Star S.p.A.","cap":"90145","potenza_kw":20.4,"corrente":"AC","connettore":"Tipo 2","n_connettori":1,"h24":true,"tempo_reale":true}},{"type":"Feature","geometry":{"type":"Point","coordinates":[13.329528,38.151389]},"properties":{"id":"IT*ENX*E18XP22T3BB4U000411*1","stato":"Non attiva","operatore":"ENEL X WAY ITALIA SRL","indirizzo":"VIA LUSSEMBURGO - COSTA CAR SERVICE SRL","cap":"90146","potenza_kw":20.4,"corrente":"AC","connettore":"Tipo 2","n_connettori":1,"h24":true,"tempo_reale":true}},{"type":"Feature","geometry":{"type":"Point","coordinates":[13.329528,38.151389]},"properties":{"id":"IT*ENX*E18XP22T3BB4U000411*2","stato":"Non attiva","operatore":"ENEL X WAY ITALIA SRL","indirizzo":"VIA LUSSEMBURGO - COSTA CAR SERVICE SRL","cap":"90146","potenza_kw":20.4,"corrente":"AC","connettore":"Tipo 2","n_connettori":1,"h24":true,"tempo_reale":true}},{"type":"Feature","geometry":{"type":"Point","coordinates":[13.36695,38.108208]},"properties":{"id":"IT*ENX*E19XP22T3KK1AL00310*1","stato":"Disponibile","operatore":"ENX","indirizzo":"Via Tommaso Fazello - Sito a pagamento","cap":"90123","potenza_kw":22.0,"corrente":"AC","connettore":"Tipo 2","n_connettori":1,"h24":true,"tempo_reale":true}},{"type":"Feature","geometry":{"type":"Point","coordinates":[13.36695,38.108208]},"properties":{"id":"IT*ENX*E19XP22T3KK1AL00310*2","stato":"Disponibile","operatore":"ENX","indirizzo":"Via Tommaso Fazello - Sito a pagamento","cap":"90123","potenza_kw":22.0,"corrente":"AC","connettore":"Tipo 2","n_connettori":1,"h24":true,"tempo_reale":true}},{"type":"Feature","geometry":{"type":"Point","coordinates":[13.332537,38.19358]},"properties":{"id":"IT*ENX*E19XP22T3KK4AD00376*1","stato":"Disponibile","operatore":"ENEL X WAY ITALIA SRL","indirizzo":"Caboto","cap":"90149","potenza_kw":22.0,"corrente":"AC","connettore":"Tipo 2","n_connettori":1,"h24":true,"tempo_reale":true}},{"type":"Feature","geometry":{"type":"Point","coordinates":[13.332537,38.19358]},"properties":{"id":"IT*ENX*E19XP22T3KK4AD00376*2","stato":"In ricarica","operatore":"ENEL X WAY ITALIA SRL","indirizzo":"Caboto","cap":"90149","potenza_kw":22.0,"corrente":"AC","connettore":"Tipo 2","n_connettori":1,"h24":true,"tempo_reale":true}},{"type":"Feature","geometry":{"type":"Point","coordinates":[13.409098,38.091045]},"properties":{"id":"IT*ENX*E19XP22T5HK1AL00043*1","stato":"Disponibile","operatore":"ENEL X WAY ITALIA SRL","indirizzo":"Via Filippo Pecoraino - LeroyMerlin Palermo","cap":"90124","potenza_kw":2.3,"corrente":"AC","connettore":"Tipo 3A","n_connettori":1,"h24":true,"tempo_reale":true}},{"type":"Feature","geometry":{"type":"Point","coordinates":[13.409098,38.091045]},"properties":{"id":"IT*ENX*E19XP22T5HK1AL00043*2","stato":"In ricarica","operatore":"ENEL X WAY ITALIA SRL","indirizzo":"Via Filippo Pecoraino - LeroyMerlin Palermo","cap":"90124","potenza_kw":22.0,"corrente":"AC","connettore":"Tipo 2","n_connettori":1,"h24":true,"tempo_reale":true}},{"type":"Feature","geometry":{"type":"Point","coordinates":[13.329417,38.143659]},"properties":{"id":"IT*ENX*E19XP22T5HK4AH00047*1","stato":"Non attiva","operatore":"ENEL X WAY ITALIA SRL","indirizzo":"Via Mandalà Olivieri Emanuele, 40","cap":"90146","potenza_kw":2.3,"corrente":"AC","connettore":"Tipo 3A","n_connettori":1,"h24":false,"tempo_reale":true}},{"type":"Feature","geometry":{"type":"Point","coordinates":[13.329417,38.143659]},"properties":{"id":"IT*ENX*E19XP22T5HK4AH00047*2","stato":"Non attiva","operatore":"ENEL X WAY ITALIA SRL","indirizzo":"Via Mandalà Olivieri Emanuele, 40","cap":"90146","potenza_kw":22.0,"corrente":"AC","connettore":"Tipo 2","n_connettori":1,"h24":false,"tempo_reale":true}},{"type":"Feature","geometry":{"type":"Point","coordinates":[13.325444,38.103149]},"properties":{"id":"IT*ENX*E19XP22T5HK4AH00194*1","stato":"Non attiva","operatore":"ENEL X WAY ITALIA SRL","indirizzo":"Via Crocifisso a Pietratagliata, 78","cap":"90135","potenza_kw":2.3,"corrente":"AC","connettore":"Tipo 3A","n_connettori":1,"h24":false,"tempo_reale":true}},{"type":"Feature","geometry":{"type":"Point","coordinates":[13.325444,38.103149]},"properties":{"id":"IT*ENX*E19XP22T5HK4AH00194*2","stato":"Non attiva","operatore":"ENEL X WAY ITALIA SRL","indirizzo":"Via Crocifisso a Pietratagliata, 78","cap":"90135","potenza_kw":22.0,"corrente":"AC","connettore":"Tipo 2","n_connettori":1,"h24":false,"tempo_reale":true}},{"type":"Feature","geometry":{"type":"Point","coordinates":[13.35419,38.13747]},"properties":{"id":"IT*ENX*E20XM32T7KK3AR00026*1","stato":"Non attiva","operatore":"ENEL X WAY ITALIA SRL","indirizzo":"Sampolo","cap":"90143","potenza_kw":50.0,"corrente":"DC","connettore":"CCS Combo 2","n_connettori":1,"h24":true,"tempo_reale":true}},{"type":"Feature","geometry":{"type":"Point","coordinates":[13.35419,38.13747]},"properties":{"id":"IT*ENX*E20XM32T7KK3AR00026*2","stato":"Non attiva","operatore":"ENEL X WAY ITALIA SRL","indirizzo":"Sampolo","cap":"90143","potenza_kw":50.0,"corrente":"DC","connettore":"CHAdeMO","n_connettori":1,"h24":true,"tempo_reale":true}},{"type":"Feature","geometry":{"type":"Point","coordinates":[13.35419,38.13747]},"properties":{"id":"IT*ENX*E20XM32T7KK3AR00026*3","stato":"Non attiva","operatore":"ENEL X WAY ITALIA SRL","indirizzo":"Sampolo","cap":"90143","potenza_kw":22.0,"corrente":"AC","connettore":"Tipo 2","n_connettori":1,"h24":true,"tempo_reale":true}},{"type":"Feature","geometry":{"type":"Point","coordinates":[13.32893,38.12821]},"properties":{"id":"IT*ENX*E20XM32T7KK3AR00045*1","stato":"Non attiva","operatore":"ENX","indirizzo":"Regione Siciliana Nord-ovest","cap":"90145","potenza_kw":50.0,"corrente":"DC","connettore":"CCS Combo 2","n_connettori":1,"h24":true,"tempo_reale":true}},{"type":"Feature","geometry":{"type":"Point","coordinates":[13.32893,38.12821]},"properties":{"id":"IT*ENX*E20XM32T7KK3AR00045*2","stato":"Non attiva","operatore":"ENX","indirizzo":"Regione Siciliana Nord-ovest","cap":"90145","potenza_kw":50.0,"corrente":"DC","connettore":"CHAdeMO","n_connettori":1,"h24":true,"tempo_reale":true}},{"type":"Feature","geometry":{"type":"Point","coordinates":[13.32893,38.12821]},"properties":{"id":"IT*ENX*E20XM32T7KK3AR00045*3","stato":"Non attiva","operatore":"ENX","indirizzo":"Regione Siciliana Nord-ovest","cap":"90145","potenza_kw":22.0,"corrente":"AC","connettore":"Tipo 2","n_connettori":1,"h24":true,"tempo_reale":true}},{"type":"Feature","geometry":{"type":"Point","coordinates":[13.34542,38.13001]},"properties":{"id":"IT*ENX*E20XM32T7KK3AR00047*1","stato":"In ricarica","operatore":"ENX","indirizzo":"Terrasanta","cap":"90141","potenza_kw":50.0,"corrente":"DC","connettore":"CCS Combo 2","n_connettori":1,"h24":true,"tempo_reale":true}},{"type":"Feature","geometry":{"type":"Point","coordinates":[13.34542,38.13001]},"properties":{"id":"IT*ENX*E20XM32T7KK3AR00047*2","stato":"Disponibile","operatore":"ENX","indirizzo":"Terrasanta","cap":"90141","potenza_kw":50.0,"corrente":"DC","connettore":"CHAdeMO","n_connettori":1,"h24":true,"tempo_reale":true}},{"type":"Feature","geometry":{"type":"Point","coordinates":[13.34542,38.13001]},"properties":{"id":"IT*ENX*E20XM32T7KK3AR00047*3","stato":"Disponibile","operatore":"ENX","indirizzo":"Terrasanta","cap":"90141","potenza_kw":22.0,"corrente":"AC","connettore":"Tipo 2","n_connettori":1,"h24":true,"tempo_reale":true}},{"type":"Feature","geometry":{"type":"Point","coordinates":[13.3413,38.13577]},"properties":{"id":"IT*ENX*E20XM32T7KK3AR00048*1","stato":"Non attiva","operatore":"ENEL X WAY ITALIA SRL","indirizzo":"Giuseppe Sciuti","cap":"90144","potenza_kw":50.0,"corrente":"DC","connettore":"CCS Combo 2","n_connettori":1,"h24":true,"tempo_reale":true}},{"type":"Feature","geometry":{"type":"Point","coordinates":[13.3413,38.13577]},"properties":{"id":"IT*ENX*E20XM32T7KK3AR00048*2","stato":"Non attiva","operatore":"ENEL X WAY ITALIA SRL","indirizzo":"Giuseppe Sciuti","cap":"90144","potenza_kw":50.0,"corrente":"DC","connettore":"CHAdeMO","n_connettori":1,"h24":true,"tempo_reale":true}},{"type":"Feature","geometry":{"type":"Point","coordinates":[13.3413,38.13577]},"properties":{"id":"IT*ENX*E20XM32T7KK3AR00048*3","stato":"Disponibile","operatore":"ENEL X WAY ITALIA SRL","indirizzo":"Giuseppe Sciuti","cap":"90144","potenza_kw":22.0,"corrente":"AC","connettore":"Tipo 2","n_connettori":1,"h24":true,"tempo_reale":true}},{"type":"Feature","geometry":{"type":"Point","coordinates":[13.32892,38.19791]},"properties":{"id":"IT*ENX*E20XM32T7KK3AR00049*1","stato":"Non attiva","operatore":"ENEL X WAY ITALIA SRL","indirizzo":"Principe Di Scalea","cap":"90151","potenza_kw":50.0,"corrente":"DC","connettore":"CCS Combo 2","n_connettori":1,"h24":true,"tempo_reale":true}},{"type":"Feature","geometry":{"type":"Point","coordinates":[13.32892,38.19791]},"properties":{"id":"IT*ENX*E20XM32T7KK3AR00049*2","stato":"Non attiva","operatore":"ENEL X WAY ITALIA SRL","indirizzo":"Principe Di Scalea","cap":"90151","potenza_kw":50.0,"corrente":"DC","connettore":"CHAdeMO","n_connettori":1,"h24":true,"tempo_reale":true}},{"type":"Feature","geometry":{"type":"Point","coordinates":[13.32892,38.19791]},"properties":{"id":"IT*ENX*E20XM32T7KK3AR00049*3","stato":"Non attiva","operatore":"ENEL X WAY ITALIA SRL","indirizzo":"Principe Di Scalea","cap":"90151","potenza_kw":22.0,"corrente":"AC","connettore":"Tipo 2","n_connettori":1,"h24":true,"tempo_reale":true}},{"type":"Feature","geometry":{"type":"Point","coordinates":[13.31605,38.16031]},"properties":{"id":"IT*ENX*E20XM32T7KK3AR00051*1","stato":"Non attiva","operatore":"ENEL X WAY ITALIA SRL","indirizzo":"Ugo La Malfa","cap":"90146","potenza_kw":50.0,"corrente":"DC","connettore":"CCS Combo 2","n_connettori":1,"h24":true,"tempo_reale":true}},{"type":"Feature","geometry":{"type":"Point","coordinates":[13.31605,38.16031]},"properties":{"id":"IT*ENX*E20XM32T7KK3AR00051*2","stato":"Non attiva","operatore":"ENEL X WAY ITALIA SRL","indirizzo":"Ugo La Malfa","cap":"90146","potenza_kw":50.0,"corrente":"DC","connettore":"CHAdeMO","n_connettori":1,"h24":true,"tempo_reale":true}},{"type":"Feature","geometry":{"type":"Point","coordinates":[13.31605,38.16031]},"properties":{"id":"IT*ENX*E20XM32T7KK3AR00051*3","stato":"In ricarica","operatore":"ENEL X WAY ITALIA SRL","indirizzo":"Ugo La Malfa","cap":"90146","potenza_kw":22.0,"corrente":"AC","connettore":"Tipo 2","n_connettori":1,"h24":true,"tempo_reale":true}},{"type":"Feature","geometry":{"type":"Point","coordinates":[13.322614,38.207273]},"properties":{"id":"IT*ENX*E20XM32T7KK4AR00043*1","stato":"Non attiva","operatore":"ENEL X WAY ITALIA SRL","indirizzo":"Mongibello","cap":"90151","potenza_kw":50.0,"corrente":"DC","connettore":"CCS Combo 2","n_connettori":1,"h24":false,"tempo_reale":true}},{"type":"Feature","geometry":{"type":"Point","coordinates":[13.322614,38.207273]},"properties":{"id":"IT*ENX*E20XM32T7KK4AR00043*2","stato":"Non attiva","operatore":"ENEL X WAY ITALIA SRL","indirizzo":"Mongibello","cap":"90151","potenza_kw":50.0,"corrente":"DC","connettore":"CHAdeMO","n_connettori":1,"h24":false,"tempo_reale":true}},{"type":"Feature","geometry":{"type":"Point","coordinates":[13.322614,38.207273]},"properties":{"id":"IT*ENX*E20XM32T7KK4AR00043*3","stato":"Non attiva","operatore":"ENEL X WAY ITALIA SRL","indirizzo":"Mongibello","cap":"90151","potenza_kw":43.0,"corrente":"AC","connettore":"Tipo 2","n_connettori":1,"h24":false,"tempo_reale":true}},{"type":"Feature","geometry":{"type":"Point","coordinates":[13.375656,38.115123]},"properties":{"id":"IT*ENX*E20XM32T7KK4AR00251*1","stato":"Non attiva","operatore":"ENEL X WAY ITALIA SRL","indirizzo":"UMBERTO I","cap":"90123","potenza_kw":50.0,"corrente":"DC","connettore":"CCS Combo 2","n_connettori":1,"h24":true,"tempo_reale":true}},{"type":"Feature","geometry":{"type":"Point","coordinates":[13.375656,38.115123]},"properties":{"id":"IT*ENX*E20XM32T7KK4AR00251*2","stato":"Non attiva","operatore":"ENEL X WAY ITALIA SRL","indirizzo":"UMBERTO I","cap":"90123","potenza_kw":50.0,"corrente":"DC","connettore":"CHAdeMO","n_connettori":1,"h24":true,"tempo_reale":true}},{"type":"Feature","geometry":{"type":"Point","coordinates":[13.375656,38.115123]},"properties":{"id":"IT*ENX*E20XM32T7KK4AR00251*3","stato":"Non attiva","operatore":"ENEL X WAY ITALIA SRL","indirizzo":"UMBERTO I","cap":"90123","potenza_kw":22.0,"corrente":"AC","connettore":"Tipo 2","n_connettori":1,"h24":true,"tempo_reale":true}},{"type":"Feature","geometry":{"type":"Point","coordinates":[13.356317,38.108475]},"properties":{"id":"IT*ENX*E20XM32T7KK4AR00254*1","stato":"Non attiva","operatore":"ENEL X WAY ITALIA SRL","indirizzo":"Tukory","cap":"90134","potenza_kw":50.0,"corrente":"DC","connettore":"CCS Combo 2","n_connettori":1,"h24":true,"tempo_reale":true}},{"type":"Feature","geometry":{"type":"Point","coordinates":[13.356317,38.108475]},"properties":{"id":"IT*ENX*E20XM32T7KK4AR00254*2","stato":"Non attiva","operatore":"ENEL X WAY ITALIA SRL","indirizzo":"Tukory","cap":"90134","potenza_kw":50.0,"corrente":"DC","connettore":"CHAdeMO","n_connettori":1,"h24":true,"tempo_reale":true}},{"type":"Feature","geometry":{"type":"Point","coordinates":[13.356317,38.108475]},"properties":{"id":"IT*ENX*E20XM32T7KK4AR00254*3","stato":"Non attiva","operatore":"ENEL X WAY ITALIA SRL","indirizzo":"Tukory","cap":"90134","potenza_kw":43.0,"corrente":"AC","connettore":"Tipo 2","n_connettori":1,"h24":true,"tempo_reale":true}},{"type":"Feature","geometry":{"type":"Point","coordinates":[13.32556,38.15565]},"properties":{"id":"IT*ENX*E20XM32T7KK4AR00255*1","stato":"Disponibile","operatore":"ENEL X WAY ITALIA SRL","indirizzo":"Francia","cap":"90146","potenza_kw":50.0,"corrente":"DC","connettore":"CCS Combo 2","n_connettori":1,"h24":true,"tempo_reale":true}},{"type":"Feature","geometry":{"type":"Point","coordinates":[13.32556,38.15565]},"properties":{"id":"IT*ENX*E20XM32T7KK4AR00255*2","stato":"Disponibile","operatore":"ENEL X WAY ITALIA SRL","indirizzo":"Francia","cap":"90146","potenza_kw":50.0,"corrente":"DC","connettore":"CHAdeMO","n_connettori":1,"h24":true,"tempo_reale":true}},{"type":"Feature","geometry":{"type":"Point","coordinates":[13.32556,38.15565]},"properties":{"id":"IT*ENX*E20XM32T7KK4AR00255*3","stato":"Disponibile","operatore":"ENEL X WAY ITALIA SRL","indirizzo":"Francia","cap":"90146","potenza_kw":20.0,"corrente":"AC","connettore":"Tipo 2","n_connettori":1,"h24":true,"tempo_reale":true}},{"type":"Feature","geometry":{"type":"Point","coordinates":[13.324754,38.099677]},"properties":{"id":"IT*ENX*E20XP22T3KK1AL00708*1","stato":"Disponibile","operatore":"ENEL X WAY ITALIA SRL","indirizzo":"Federico Paulsen","cap":"90129","potenza_kw":22.0,"corrente":"AC","connettore":"Tipo 2","n_connettori":1,"h24":true,"tempo_reale":true}},{"type":"Feature","geometry":{"type":"Point","coordinates":[13.324754,38.099677]},"properties":{"id":"IT*ENX*E20XP22T3KK1AL00708*2","stato":"Disponibile","operatore":"ENEL X WAY ITALIA SRL","indirizzo":"Federico Paulsen","cap":"90129","potenza_kw":22.0,"corrente":"AC","connettore":"Tipo 2","n_connettori":1,"h24":true,"tempo_reale":true}},{"type":"Feature","geometry":{"type":"Point","coordinates":[13.395843,38.096006]},"properties":{"id":"IT*ENX*E20XP22T3KK4AL00377*1","stato":"Disponibile","operatore":"ENX","indirizzo":"Via Filippo Pecoraino, 23 - T.F. Car Service","cap":"90124","potenza_kw":22.0,"corrente":"AC","connettore":"Tipo 2","n_connettori":1,"h24":true,"tempo_reale":true}},{"type":"Feature","geometry":{"type":"Point","coordinates":[13.395843,38.096006]},"properties":{"id":"IT*ENX*E20XP22T3KK4AL00377*2","stato":"Disponibile","operatore":"ENX","indirizzo":"Via Filippo Pecoraino, 23 - T.F. Car Service","cap":"90124","potenza_kw":22.0,"corrente":"AC","connettore":"Tipo 2","n_connettori":1,"h24":true,"tempo_reale":true}},{"type":"Feature","geometry":{"type":"Point","coordinates":[13.360619,38.121562]},"properties":{"id":"IT*ENX*E20XP22T3KK4AL01095*1","stato":"Disponibile","operatore":"ENEL X WAY ITALIA SRL","indirizzo":"Spinuzza","cap":"90133","potenza_kw":15.0,"corrente":"AC","connettore":"Tipo 2","n_connettori":1,"h24":true,"tempo_reale":true}},{"type":"Feature","geometry":{"type":"Point","coordinates":[13.360619,38.121562]},"properties":{"id":"IT*ENX*E20XP22T3KK4AL01095*2","stato":"In ricarica","operatore":"ENEL X WAY ITALIA SRL","indirizzo":"Spinuzza","cap":"90133","potenza_kw":15.0,"corrente":"AC","connettore":"Tipo 2","n_connettori":1,"h24":true,"tempo_reale":true}},{"type":"Feature","geometry":{"type":"Point","coordinates":[13.338586,38.146319]},"properties":{"id":"IT*ENX*E20XP22T3KK4AZ00084*1","stato":"In ricarica","operatore":"ENEL X WAY ITALIA SRL","indirizzo":"Franco Franchi E Ciccio Ingrassia","cap":"90144","potenza_kw":15.0,"corrente":"AC","connettore":"Tipo 2","n_connettori":1,"h24":true,"tempo_reale":true}},{"type":"Feature","geometry":{"type":"Point","coordinates":[13.338586,38.146319]},"properties":{"id":"IT*ENX*E20XP22T3KK4AZ00084*2","stato":"Disponibile","operatore":"ENEL X WAY ITALIA SRL","indirizzo":"Franco Franchi E Ciccio Ingrassia","cap":"90144","potenza_kw":15.0,"corrente":"AC","connettore":"Tipo 2","n_connettori":1,"h24":true,"tempo_reale":true}},{"type":"Feature","geometry":{"type":"Point","coordinates":[13.377047,38.091498]},"properties":{"id":"IT*ENX*E21XM32T7KK3AR00087*1","stato":"Non attiva","operatore":"ENEL X WAY ITALIA SRL","indirizzo":"Oreto","cap":"90124","potenza_kw":50.0,"corrente":"DC","connettore":"CCS Combo 2","n_connettori":1,"h24":true,"tempo_reale":true}},{"type":"Feature","geometry":{"type":"Point","coordinates":[13.377047,38.091498]},"properties":{"id":"IT*ENX*E21XM32T7KK3AR00087*2","stato":"Non attiva","operatore":"ENEL X WAY ITALIA SRL","indirizzo":"Oreto","cap":"90124","potenza_kw":50.0,"corrente":"DC","connettore":"CHAdeMO","n_connettori":1,"h24":true,"tempo_reale":true}},{"type":"Feature","geometry":{"type":"Point","coordinates":[13.377047,38.091498]},"properties":{"id":"IT*ENX*E21XM32T7KK3AR00087*3","stato":"Non attiva","operatore":"ENEL X WAY ITALIA SRL","indirizzo":"Oreto","cap":"90124","potenza_kw":25.0,"corrente":"AC","connettore":"Tipo 2","n_connettori":1,"h24":true,"tempo_reale":true}},{"type":"Feature","geometry":{"type":"Point","coordinates":[13.34289,38.13101]},"properties":{"id":"IT*ENX*E21XM32T7KK3AR00088*1","stato":"In ricarica","operatore":"ENEL X WAY ITALIA SRL","indirizzo":"Generale Eugenio di Maria","cap":"90141","potenza_kw":50.0,"corrente":"DC","connettore":"CCS Combo 2","n_connettori":1,"h24":true,"tempo_reale":true}},{"type":"Feature","geometry":{"type":"Point","coordinates":[13.34289,38.13101]},"properties":{"id":"IT*ENX*E21XM32T7KK3AR00088*2","stato":"Disponibile","operatore":"ENEL X WAY ITALIA SRL","indirizzo":"Generale Eugenio di Maria","cap":"90141","potenza_kw":50.0,"corrente":"DC","connettore":"CHAdeMO","n_connettori":1,"h24":true,"tempo_reale":true}},{"type":"Feature","geometry":{"type":"Point","coordinates":[13.34289,38.13101]},"properties":{"id":"IT*ENX*E21XM32T7KK3AR00088*3","stato":"Disponibile","operatore":"ENEL X WAY ITALIA SRL","indirizzo":"Generale Eugenio di Maria","cap":"90141","potenza_kw":20.0,"corrente":"AC","connettore":"Tipo 2","n_connettori":1,"h24":true,"tempo_reale":true}},{"type":"Feature","geometry":{"type":"Point","coordinates":[13.339402,38.152043]},"properties":{"id":"IT*ENX*E21XM32T7KK3AR00089*1","stato":"In ricarica","operatore":"ENEL X WAY ITALIA SRL","indirizzo":"Alcide De Gasperi","cap":"90146","potenza_kw":50.0,"corrente":"DC","connettore":"CCS Combo 2","n_connettori":1,"h24":true,"tempo_reale":true}},{"type":"Feature","geometry":{"type":"Point","coordinates":[13.339402,38.152043]},"properties":{"id":"IT*ENX*E21XM32T7KK3AR00089*2","stato":"Disponibile","operatore":"ENEL X WAY ITALIA SRL","indirizzo":"Alcide De Gasperi","cap":"90146","potenza_kw":50.0,"corrente":"DC","connettore":"CHAdeMO","n_connettori":1,"h24":true,"tempo_reale":true}},{"type":"Feature","geometry":{"type":"Point","coordinates":[13.339402,38.152043]},"properties":{"id":"IT*ENX*E21XM32T7KK3AR00089*3","stato":"In ricarica","operatore":"ENEL X WAY ITALIA SRL","indirizzo":"Alcide De Gasperi","cap":"90146","potenza_kw":43.0,"corrente":"AC","connettore":"Tipo 2","n_connettori":1,"h24":true,"tempo_reale":true}},{"type":"Feature","geometry":{"type":"Point","coordinates":[13.339402,38.152043]},"properties":{"id":"IT*ENX*E21XP22T3KKJAK00474*1","stato":"Disponibile","operatore":"ENEL X WAY ITALIA SRL","indirizzo":"Alcide De Gasperi","cap":"90146","potenza_kw":15.0,"corrente":"AC","connettore":"Tipo 2","n_connettori":1,"h24":true,"tempo_reale":true}},{"type":"Feature","geometry":{"type":"Point","coordinates":[13.339402,38.152043]},"properties":{"id":"IT*ENX*E21XP22T3KKJAK00474*2","stato":"In ricarica","operatore":"ENEL X WAY ITALIA SRL","indirizzo":"Alcide De Gasperi","cap":"90146","potenza_kw":15.0,"corrente":"AC","connettore":"Tipo 2","n_connettori":1,"h24":true,"tempo_reale":true}},{"type":"Feature","geometry":{"type":"Point","coordinates":[13.325595,38.155644]},"properties":{"id":"IT*ENX*E21XP22T3KKJAK00586*1","stato":"In ricarica","operatore":"ENEL X WAY ITALIA SRL","indirizzo":"Francia","cap":"90146","potenza_kw":22.0,"corrente":"AC","connettore":"Tipo 2","n_connettori":1,"h24":true,"tempo_reale":true}},{"type":"Feature","geometry":{"type":"Point","coordinates":[13.325595,38.155644]},"properties":{"id":"IT*ENX*E21XP22T3KKJAK00586*2","stato":"Disponibile","operatore":"ENEL X WAY ITALIA SRL","indirizzo":"Francia","cap":"90146","potenza_kw":22.0,"corrente":"AC","connettore":"Tipo 2","n_connettori":1,"h24":true,"tempo_reale":true}},{"type":"Feature","geometry":{"type":"Point","coordinates":[13.367455,38.111288]},"properties":{"id":"IT*ENX*E21XP22T3KKJAK00600*1","stato":"Disponibile","operatore":"ENEL X WAY ITALIA SRL","indirizzo":"Lincoln","cap":"90133","potenza_kw":22.0,"corrente":"AC","connettore":"Tipo 2","n_connettori":1,"h24":true,"tempo_reale":true}},{"type":"Feature","geometry":{"type":"Point","coordinates":[13.367455,38.111288]},"properties":{"id":"IT*ENX*E21XP22T3KKJAK00600*2","stato":"Disponibile","operatore":"ENEL X WAY ITALIA SRL","indirizzo":"Lincoln","cap":"90133","potenza_kw":22.0,"corrente":"AC","connettore":"Tipo 2","n_connettori":1,"h24":true,"tempo_reale":true}},{"type":"Feature","geometry":{"type":"Point","coordinates":[13.342878,38.131092]},"properties":{"id":"IT*ENX*E21XP22T3KKJAK00648*1","stato":"Disponibile","operatore":"ENEL X WAY ITALIA SRL","indirizzo":"Generale Eugenio di Maria","cap":"90141","potenza_kw":22.0,"corrente":"AC","connettore":"Tipo 2","n_connettori":1,"h24":true,"tempo_reale":true}},{"type":"Feature","geometry":{"type":"Point","coordinates":[13.342878,38.131092]},"properties":{"id":"IT*ENX*E21XP22T3KKJAK00648*2","stato":"Disponibile","operatore":"ENEL X WAY ITALIA SRL","indirizzo":"Generale Eugenio di Maria","cap":"90141","potenza_kw":22.0,"corrente":"AC","connettore":"Tipo 2","n_connettori":1,"h24":true,"tempo_reale":true}},{"type":"Feature","geometry":{"type":"Point","coordinates":[13.322614,38.207273]},"properties":{"id":"IT*ENX*E21XP22T3KKJAK00654*1","stato":"Non attiva","operatore":"ENEL X WAY ITALIA SRL","indirizzo":"Mongibello","cap":"90151","potenza_kw":22.0,"corrente":"AC","connettore":"Tipo 2","n_connettori":1,"h24":false,"tempo_reale":true}},{"type":"Feature","geometry":{"type":"Point","coordinates":[13.322614,38.207273]},"properties":{"id":"IT*ENX*E21XP22T3KKJAK00654*2","stato":"Non attiva","operatore":"ENEL X WAY ITALIA SRL","indirizzo":"Mongibello","cap":"90151","potenza_kw":22.0,"corrente":"AC","connettore":"Tipo 2","n_connettori":1,"h24":false,"tempo_reale":true}},{"type":"Feature","geometry":{"type":"Point","coordinates":[13.342103,38.115576]},"properties":{"id":"IT*ENX*E21XP22T3KKJAK00673*1","stato":"In ricarica","operatore":"ENX","indirizzo":"Zisa","cap":"90135","potenza_kw":22.0,"corrente":"AC","connettore":"Tipo 2","n_connettori":1,"h24":true,"tempo_reale":true}},{"type":"Feature","geometry":{"type":"Point","coordinates":[13.342103,38.115576]},"properties":{"id":"IT*ENX*E21XP22T3KKJAK00673*2","stato":"In ricarica","operatore":"ENX","indirizzo":"Zisa","cap":"90135","potenza_kw":22.0,"corrente":"AC","connettore":"Tipo 2","n_connettori":1,"h24":true,"tempo_reale":true}},{"type":"Feature","geometry":{"type":"Point","coordinates":[13.331916,38.129476]},"properties":{"id":"IT*ENX*E21XP22T3KKJAL115RJ*1","stato":"Disponibile","operatore":"ENEL X WAY ITALIA SRL","indirizzo":"Federico Munter","cap":"90145","potenza_kw":22.0,"corrente":"AC","connettore":"Tipo 2","n_connettori":1,"h24":true,"tempo_reale":true}},{"type":"Feature","geometry":{"type":"Point","coordinates":[13.331916,38.129476]},"properties":{"id":"IT*ENX*E21XP22T3KKJAL115RJ*2","stato":"Disponibile","operatore":"ENEL X WAY ITALIA SRL","indirizzo":"Federico Munter","cap":"90145","potenza_kw":22.0,"corrente":"AC","connettore":"Tipo 2","n_connettori":1,"h24":true,"tempo_reale":true}},{"type":"Feature","geometry":{"type":"Point","coordinates":[13.274348,38.198021]},"properties":{"id":"IT*ENX*E22BZ2224A*1","stato":"Non attiva","operatore":"ENEL X WAY ITALIA SRL","indirizzo":"SFERRACAVALLO","cap":"90147","potenza_kw":75.0,"corrente":"DC","connettore":"CCS Combo 2","n_connettori":1,"h24":true,"tempo_reale":true}},{"type":"Feature","geometry":{"type":"Point","coordinates":[13.274348,38.198021]},"properties":{"id":"IT*ENX*E22BZ2224A*2","stato":"Non attiva","operatore":"ENEL X WAY ITALIA SRL","indirizzo":"SFERRACAVALLO","cap":"90147","potenza_kw":62.0,"corrente":"DC","connettore":"CHAdeMO","n_connettori":1,"h24":true,"tempo_reale":true}},{"type":"Feature","geometry":{"type":"Point","coordinates":[13.274348,38.198021]},"properties":{"id":"IT*ENX*E22BZ2224A*3","stato":"Non attiva","operatore":"ENEL X WAY ITALIA SRL","indirizzo":"SFERRACAVALLO","cap":"90147","potenza_kw":22.0,"corrente":"AC","connettore":"Tipo 2","n_connettori":1,"h24":true,"tempo_reale":true}},{"type":"Feature","geometry":{"type":"Point","coordinates":[13.318819,38.19854]},"properties":{"id":"IT*ENX*E22BZ2753A*1","stato":"Non attiva","operatore":"ENEL X WAY ITALIA SRL","indirizzo":"Viale Galatea, 40","cap":"90151","potenza_kw":75.0,"corrente":"DC","connettore":"CCS Combo 2","n_connettori":1,"h24":true,"tempo_reale":true}},{"type":"Feature","geometry":{"type":"Point","coordinates":[13.318819,38.19854]},"properties":{"id":"IT*ENX*E22BZ2753A*2","stato":"Non attiva","operatore":"ENEL X WAY ITALIA SRL","indirizzo":"Viale Galatea, 40","cap":"90151","potenza_kw":62.0,"corrente":"DC","connettore":"CHAdeMO","n_connettori":1,"h24":true,"tempo_reale":true}},{"type":"Feature","geometry":{"type":"Point","coordinates":[13.318819,38.19854]},"properties":{"id":"IT*ENX*E22BZ2753A*3","stato":"Non attiva","operatore":"ENEL X WAY ITALIA SRL","indirizzo":"Viale Galatea, 40","cap":"90151","potenza_kw":22.0,"corrente":"AC","connettore":"Tipo 2","n_connettori":1,"h24":true,"tempo_reale":true}},{"type":"Feature","geometry":{"type":"Point","coordinates":[13.32503,38.127736]},"properties":{"id":"IT*ENX*E22BZ2757A*1","stato":"Non attiva","operatore":"ENEL X WAY ITALIA SRL","indirizzo":"Via Camillo Camilliani, 2","cap":"90145","potenza_kw":75.0,"corrente":"DC","connettore":"CCS Combo 2","n_connettori":1,"h24":true,"tempo_reale":true}},{"type":"Feature","geometry":{"type":"Point","coordinates":[13.32503,38.127736]},"properties":{"id":"IT*ENX*E22BZ2757A*2","stato":"Non attiva","operatore":"ENEL X WAY ITALIA SRL","indirizzo":"Via Camillo Camilliani, 2","cap":"90145","potenza_kw":62.0,"corrente":"DC","connettore":"CHAdeMO","n_connettori":1,"h24":true,"tempo_reale":true}},{"type":"Feature","geometry":{"type":"Point","coordinates":[13.32503,38.127736]},"properties":{"id":"IT*ENX*E22BZ2757A*3","stato":"Non attiva","operatore":"ENEL X WAY ITALIA SRL","indirizzo":"Via Camillo Camilliani, 2","cap":"90145","potenza_kw":22.0,"corrente":"AC","connettore":"Tipo 2","n_connettori":1,"h24":true,"tempo_reale":true}},{"type":"Feature","geometry":{"type":"Point","coordinates":[13.324754,38.099677]},"properties":{"id":"IT*ENX*E22BZ2763A*1","stato":"Non attiva","operatore":"ENEL X WAY ITALIA SRL","indirizzo":"Federico Paulsen","cap":"90129","potenza_kw":75.0,"corrente":"DC","connettore":"CCS Combo 2","n_connettori":1,"h24":true,"tempo_reale":true}},{"type":"Feature","geometry":{"type":"Point","coordinates":[13.324754,38.099677]},"properties":{"id":"IT*ENX*E22BZ2763A*2","stato":"Non attiva","operatore":"ENEL X WAY ITALIA SRL","indirizzo":"Federico Paulsen","cap":"90129","potenza_kw":62.0,"corrente":"DC","connettore":"CHAdeMO","n_connettori":1,"h24":true,"tempo_reale":true}},{"type":"Feature","geometry":{"type":"Point","coordinates":[13.324754,38.099677]},"properties":{"id":"IT*ENX*E22BZ2763A*3","stato":"Non attiva","operatore":"ENEL X WAY ITALIA SRL","indirizzo":"Federico Paulsen","cap":"90129","potenza_kw":22.0,"corrente":"AC","connettore":"Tipo 2","n_connettori":1,"h24":true,"tempo_reale":true}},{"type":"Feature","geometry":{"type":"Point","coordinates":[13.346046,38.099029]},"properties":{"id":"IT*ENX*E22BZ2765A*1","stato":"Non attiva","operatore":"ENEL X WAY ITALIA SRL","indirizzo":"Ernesto Basile","cap":"90128","potenza_kw":75.0,"corrente":"DC","connettore":"CCS Combo 2","n_connettori":1,"h24":true,"tempo_reale":true}},{"type":"Feature","geometry":{"type":"Point","coordinates":[13.346046,38.099029]},"properties":{"id":"IT*ENX*E22BZ2765A*2","stato":"Non attiva","operatore":"ENEL X WAY ITALIA SRL","indirizzo":"Ernesto Basile","cap":"90128","potenza_kw":62.0,"corrente":"DC","connettore":"CHAdeMO","n_connettori":1,"h24":true,"tempo_reale":true}},{"type":"Feature","geometry":{"type":"Point","coordinates":[13.346046,38.099029]},"properties":{"id":"IT*ENX*E22BZ2765A*3","stato":"Non attiva","operatore":"ENEL X WAY ITALIA SRL","indirizzo":"Ernesto Basile","cap":"90128","potenza_kw":22.0,"corrente":"AC","connettore":"Tipo 2","n_connettori":1,"h24":true,"tempo_reale":true}},{"type":"Feature","geometry":{"type":"Point","coordinates":[13.332537,38.19358]},"properties":{"id":"IT*ENX*E22XP22T3KKJAL00176*1","stato":"Non attiva","operatore":"ENEL X WAY ITALIA SRL","indirizzo":"Caboto","cap":"90149","potenza_kw":15.0,"corrente":"AC","connettore":"Tipo 2","n_connettori":1,"h24":true,"tempo_reale":true}},{"type":"Feature","geometry":{"type":"Point","coordinates":[13.332537,38.19358]},"properties":{"id":"IT*ENX*E22XP22T3KKJAL00176*2","stato":"Non attiva","operatore":"ENEL X WAY ITALIA SRL","indirizzo":"Caboto","cap":"90149","potenza_kw":15.0,"corrente":"AC","connettore":"Tipo 2","n_connettori":1,"h24":true,"tempo_reale":true}},{"type":"Feature","geometry":{"type":"Point","coordinates":[13.365414,38.090344]},"properties":{"id":"IT*ENX*E22XP22T3KKJAL00177*1","stato":"Non attiva","operatore":"ENEL X WAY ITALIA SRL","indirizzo":"Via dell'Orsa Minore 137","cap":"90125","potenza_kw":15.0,"corrente":"AC","connettore":"Tipo 2","n_connettori":1,"h24":true,"tempo_reale":true}},{"type":"Feature","geometry":{"type":"Point","coordinates":[13.365414,38.090344]},"properties":{"id":"IT*ENX*E22XP22T3KKJAL00177*2","stato":"Non attiva","operatore":"ENEL X WAY ITALIA SRL","indirizzo":"Via dell'Orsa Minore 137","cap":"90125","potenza_kw":15.0,"corrente":"AC","connettore":"Tipo 2","n_connettori":1,"h24":true,"tempo_reale":true}},{"type":"Feature","geometry":{"type":"Point","coordinates":[13.335667,38.137258]},"properties":{"id":"IT*ENX*E22XP22T3KKJAL00179*1","stato":"Non attiva","operatore":"ENEL X WAY ITALIA SRL","indirizzo":"Via Franz Liszt 14","cap":"90145","potenza_kw":15.0,"corrente":"AC","connettore":"Tipo 2","n_connettori":1,"h24":true,"tempo_reale":true}},{"type":"Feature","geometry":{"type":"Point","coordinates":[13.335667,38.137258]},"properties":{"id":"IT*ENX*E22XP22T3KKJAL00179*2","stato":"Non attiva","operatore":"ENEL X WAY ITALIA SRL","indirizzo":"Via Franz Liszt 14","cap":"90145","potenza_kw":15.0,"corrente":"AC","connettore":"Tipo 2","n_connettori":1,"h24":true,"tempo_reale":true}},{"type":"Feature","geometry":{"type":"Point","coordinates":[13.347078,38.118321]},"properties":{"id":"IT*ENX*E22XP22T3KKJAL00185*1","stato":"Disponibile","operatore":"ENEL X WAY ITALIA SRL","indirizzo":"Camillo Finocchiaro Aprile","cap":"90138","potenza_kw":15.0,"corrente":"AC","connettore":"Tipo 2","n_connettori":1,"h24":true,"tempo_reale":true}},{"type":"Feature","geometry":{"type":"Point","coordinates":[13.347078,38.118321]},"properties":{"id":"IT*ENX*E22XP22T3KKJAL00185*2","stato":"In ricarica","operatore":"ENEL X WAY ITALIA SRL","indirizzo":"Camillo Finocchiaro Aprile","cap":"90138","potenza_kw":15.0,"corrente":"AC","connettore":"Tipo 2","n_connettori":1,"h24":true,"tempo_reale":true}},{"type":"Feature","geometry":{"type":"Point","coordinates":[13.323619,38.202403]},"properties":{"id":"IT*ENX*E22XP22T3KKJAL00189*1","stato":"In ricarica","operatore":"ENEL X WAY ITALIA SRL","indirizzo":"Via Palinuro, 19","cap":"90151","potenza_kw":15.0,"corrente":"AC","connettore":"Tipo 2","n_connettori":1,"h24":true,"tempo_reale":true}},{"type":"Feature","geometry":{"type":"Point","coordinates":[13.323619,38.202403]},"properties":{"id":"IT*ENX*E22XP22T3KKJAL00189*2","stato":"Disponibile","operatore":"ENEL X WAY ITALIA SRL","indirizzo":"Via Palinuro, 19","cap":"90151","potenza_kw":15.0,"corrente":"AC","connettore":"Tipo 2","n_connettori":1,"h24":true,"tempo_reale":true}},{"type":"Feature","geometry":{"type":"Point","coordinates":[13.345492,38.139967]},"properties":{"id":"IT*ENX*E22XP22T3KKJAL00191*1","stato":"In ricarica","operatore":"ENEL X WAY ITALIA SRL","indirizzo":"Francesco Paolo Di Blasi","cap":"90144","potenza_kw":15.0,"corrente":"AC","connettore":"Tipo 2","n_connettori":1,"h24":true,"tempo_reale":true}},{"type":"Feature","geometry":{"type":"Point","coordinates":[13.345492,38.139967]},"properties":{"id":"IT*ENX*E22XP22T3KKJAL00191*2","stato":"In ricarica","operatore":"ENEL X WAY ITALIA SRL","indirizzo":"Francesco Paolo Di Blasi","cap":"90144","potenza_kw":15.0,"corrente":"AC","connettore":"Tipo 2","n_connettori":1,"h24":true,"tempo_reale":true}},{"type":"Feature","geometry":{"type":"Point","coordinates":[13.327353,38.118933]},"properties":{"id":"IT*ENX*E22XP22T3KKJAL00192*1","stato":"Disponibile","operatore":"ENEL X WAY ITALIA SRL","indirizzo":"Lentini","cap":"90135","potenza_kw":15.0,"corrente":"AC","connettore":"Tipo 2","n_connettori":1,"h24":true,"tempo_reale":true}},{"type":"Feature","geometry":{"type":"Point","coordinates":[13.327353,38.118933]},"properties":{"id":"IT*ENX*E22XP22T3KKJAL00192*2","stato":"Non attiva","operatore":"ENEL X WAY ITALIA SRL","indirizzo":"Lentini","cap":"90135","potenza_kw":15.0,"corrente":"AC","connettore":"Tipo 2","n_connettori":1,"h24":true,"tempo_reale":true}},{"type":"Feature","geometry":{"type":"Point","coordinates":[13.338567,38.146399]},"properties":{"id":"IT*ENX*E22XP22T3KKJAL00197*1","stato":"Disponibile","operatore":"ENEL X WAY ITALIA SRL","indirizzo":"Campania","cap":"90144","potenza_kw":15.0,"corrente":"AC","connettore":"Tipo 2","n_connettori":1,"h24":true,"tempo_reale":true}},{"type":"Feature","geometry":{"type":"Point","coordinates":[13.338567,38.146399]},"properties":{"id":"IT*ENX*E22XP22T3KKJAL00197*2","stato":"Disponibile","operatore":"ENEL X WAY ITALIA SRL","indirizzo":"Campania","cap":"90144","potenza_kw":15.0,"corrente":"AC","connettore":"Tipo 2","n_connettori":1,"h24":true,"tempo_reale":true}},{"type":"Feature","geometry":{"type":"Point","coordinates":[13.350361,38.125739]},"properties":{"id":"IT*ENX*E22XP22T3KKJAL00199*1","stato":"In ricarica","operatore":"ENEL X WAY ITALIA SRL","indirizzo":"Giuseppe De Spuches","cap":"90141","potenza_kw":15.0,"corrente":"AC","connettore":"Tipo 2","n_connettori":1,"h24":true,"tempo_reale":true}},{"type":"Feature","geometry":{"type":"Point","coordinates":[13.350361,38.125739]},"properties":{"id":"IT*ENX*E22XP22T3KKJAL00199*2","stato":"Disponibile","operatore":"ENEL X WAY ITALIA SRL","indirizzo":"Giuseppe De Spuches","cap":"90141","potenza_kw":15.0,"corrente":"AC","connettore":"Tipo 2","n_connettori":1,"h24":true,"tempo_reale":true}},{"type":"Feature","geometry":{"type":"Point","coordinates":[13.353228,38.130526]},"properties":{"id":"IT*ENX*E22XP22T3KKJAL00205*1","stato":"Disponibile","operatore":"ENEL X WAY ITALIA SRL","indirizzo":"Piazza Francesco Crispi, Palermo PA, Italy","cap":"90133","potenza_kw":15.0,"corrente":"AC","connettore":"Tipo 2","n_connettori":1,"h24":true,"tempo_reale":true}},{"type":"Feature","geometry":{"type":"Point","coordinates":[13.353228,38.130526]},"properties":{"id":"IT*ENX*E22XP22T3KKJAL00205*2","stato":"In ricarica","operatore":"ENEL X WAY ITALIA SRL","indirizzo":"Piazza Francesco Crispi, Palermo PA, Italy","cap":"90133","potenza_kw":15.0,"corrente":"AC","connettore":"Tipo 2","n_connettori":1,"h24":true,"tempo_reale":true}},{"type":"Feature","geometry":{"type":"Point","coordinates":[13.3502,38.111031]},"properties":{"id":"IT*ENX*E22XP22T3KKJAL00216*1","stato":"Disponibile","operatore":"ENEL X WAY ITALIA SRL","indirizzo":"Calatafimi","cap":"90129","potenza_kw":15.0,"corrente":"AC","connettore":"Tipo 2","n_connettori":1,"h24":true,"tempo_reale":true}},{"type":"Feature","geometry":{"type":"Point","coordinates":[13.3502,38.111031]},"properties":{"id":"IT*ENX*E22XP22T3KKJAL00216*2","stato":"Disponibile","operatore":"ENEL X WAY ITALIA SRL","indirizzo":"Calatafimi","cap":"90129","potenza_kw":15.0,"corrente":"AC","connettore":"Tipo 2","n_connettori":1,"h24":true,"tempo_reale":true}},{"type":"Feature","geometry":{"type":"Point","coordinates":[13.364732,38.116123]},"properties":{"id":"IT*ENX*E22XP22T3KKJAL00220*1","stato":"Disponibile","operatore":"ENEL X WAY ITALIA SRL","indirizzo":"Malta","cap":"90138","potenza_kw":15.0,"corrente":"AC","connettore":"Tipo 2","n_connettori":1,"h24":true,"tempo_reale":true}},{"type":"Feature","geometry":{"type":"Point","coordinates":[13.364732,38.116123]},"properties":{"id":"IT*ENX*E22XP22T3KKJAL00220*2","stato":"Disponibile","operatore":"ENEL X WAY ITALIA SRL","indirizzo":"Malta","cap":"90138","potenza_kw":15.0,"corrente":"AC","connettore":"Tipo 2","n_connettori":1,"h24":true,"tempo_reale":true}},{"type":"Feature","geometry":{"type":"Point","coordinates":[13.368324,38.117525]},"properties":{"id":"IT*ENX*E22XP22T3KKJAL00283*1","stato":"Non attiva","operatore":"ENEL X WAY ITALIA SRL","indirizzo":"Piazza Marina 11","cap":"90133","potenza_kw":22.0,"corrente":"AC","connettore":"Tipo 2","n_connettori":1,"h24":true,"tempo_reale":true}},{"type":"Feature","geometry":{"type":"Point","coordinates":[13.368324,38.117525]},"properties":{"id":"IT*ENX*E22XP22T3KKJAL00283*2","stato":"Disponibile","operatore":"ENEL X WAY ITALIA SRL","indirizzo":"Piazza Marina 11","cap":"90133","potenza_kw":22.0,"corrente":"AC","connettore":"Tipo 2","n_connettori":1,"h24":true,"tempo_reale":true}},{"type":"Feature","geometry":{"type":"Point","coordinates":[13.346727,38.122766]},"properties":{"id":"IT*ENX*E22XP22T3QQ1AN00298*1","stato":"In ricarica","operatore":"ENX","indirizzo":"Via Re Federico","cap":"90138","potenza_kw":15.0,"corrente":"AC","connettore":"Tipo 2","n_connettori":1,"h24":true,"tempo_reale":true}},{"type":"Feature","geometry":{"type":"Point","coordinates":[13.346727,38.122766]},"properties":{"id":"IT*ENX*E22XP22T3QQ1AN00298*2","stato":"In ricarica","operatore":"ENX","indirizzo":"Via Re Federico","cap":"90138","potenza_kw":15.0,"corrente":"AC","connettore":"Tipo 2","n_connettori":1,"h24":true,"tempo_reale":true}},{"type":"Feature","geometry":{"type":"Point","coordinates":[13.358086,38.139156]},"properties":{"id":"IT*ENX*E22XP22T3QQ1AN00328*1","stato":"Disponibile","operatore":"ENEL X WAY ITALIA SRL","indirizzo":"Monte Pellegrino","cap":"90142","potenza_kw":22.0,"corrente":"AC","connettore":"Tipo 2","n_connettori":1,"h24":true,"tempo_reale":true}},{"type":"Feature","geometry":{"type":"Point","coordinates":[13.358086,38.139156]},"properties":{"id":"IT*ENX*E22XP22T3QQ1AN00328*2","stato":"In ricarica","operatore":"ENEL X WAY ITALIA SRL","indirizzo":"Monte Pellegrino","cap":"90142","potenza_kw":22.0,"corrente":"AC","connettore":"Tipo 2","n_connettori":1,"h24":true,"tempo_reale":true}},{"type":"Feature","geometry":{"type":"Point","coordinates":[13.353097,38.119718]},"properties":{"id":"IT*ENX*E22XP22T3QQ1AN00337*1","stato":"Disponibile","operatore":"ENEL X WAY ITALIA SRL","indirizzo":"Salesio Balsamo","cap":"90138","potenza_kw":22.0,"corrente":"AC","connettore":"Tipo 2","n_connettori":1,"h24":true,"tempo_reale":true}},{"type":"Feature","geometry":{"type":"Point","coordinates":[13.353097,38.119718]},"properties":{"id":"IT*ENX*E22XP22T3QQ1AN00337*2","stato":"Disponibile","operatore":"ENEL X WAY ITALIA SRL","indirizzo":"Salesio Balsamo","cap":"90138","potenza_kw":22.0,"corrente":"AC","connettore":"Tipo 2","n_connettori":1,"h24":true,"tempo_reale":true}},{"type":"Feature","geometry":{"type":"Point","coordinates":[13.356028,38.125923]},"properties":{"id":"IT*ENX*E22XP22T3QQ1AN01015*1","stato":"Non attiva","operatore":"ENEL X WAY ITALIA SRL","indirizzo":"Gaetano Daita","cap":"90139","potenza_kw":22.0,"corrente":"AC","connettore":"Tipo 2","n_connettori":1,"h24":true,"tempo_reale":true}},{"type":"Feature","geometry":{"type":"Point","coordinates":[13.356028,38.125923]},"properties":{"id":"IT*ENX*E22XP22T3QQ1AN01015*2","stato":"Non attiva","operatore":"ENEL X WAY ITALIA SRL","indirizzo":"Gaetano Daita","cap":"90139","potenza_kw":22.0,"corrente":"AC","connettore":"Tipo 2","n_connettori":1,"h24":true,"tempo_reale":true}},{"type":"Feature","geometry":{"type":"Point","coordinates":[13.359822,38.107075]},"properties":{"id":"IT*ENX*E23XP22T3KK4AK625RJ*1","stato":"Disponibile","operatore":"ENEL X WAY ITALIA SRL","indirizzo":"Delle Cliniche","cap":"90127","potenza_kw":22.0,"corrente":"AC","connettore":"Tipo 2","n_connettori":1,"h24":true,"tempo_reale":true}},{"type":"Feature","geometry":{"type":"Point","coordinates":[13.359822,38.107075]},"properties":{"id":"IT*ENX*E23XP22T3KK4AK625RJ*2","stato":"Disponibile","operatore":"ENEL X WAY ITALIA SRL","indirizzo":"Delle Cliniche","cap":"90127","potenza_kw":22.0,"corrente":"AC","connettore":"Tipo 2","n_connettori":1,"h24":true,"tempo_reale":true}},{"type":"Feature","geometry":{"type":"Point","coordinates":[13.350338,38.134445]},"properties":{"id":"IT*ENX*E23XP22T3KKJCK00033*1","stato":"In ricarica","operatore":"ENEL X WAY ITALIA SRL","indirizzo":"Alberico Gentili","cap":"90143","potenza_kw":22.0,"corrente":"AC","connettore":"Tipo 2","n_connettori":1,"h24":true,"tempo_reale":true}},{"type":"Feature","geometry":{"type":"Point","coordinates":[13.350338,38.134445]},"properties":{"id":"IT*ENX*E23XP22T3KKJCK00033*2","stato":"Disponibile","operatore":"ENEL X WAY ITALIA SRL","indirizzo":"Alberico Gentili","cap":"90143","potenza_kw":22.0,"corrente":"AC","connettore":"Tipo 2","n_connettori":1,"h24":true,"tempo_reale":true}},{"type":"Feature","geometry":{"type":"Point","coordinates":[13.348841,38.143878]},"properties":{"id":"IT*ENX*E23XP22T3KKJCK00296*1","stato":"Disponibile","operatore":"ENEL X WAY ITALIA SRL","indirizzo":"Via Andrea Cirrincione, 18","cap":"90143","potenza_kw":15.0,"corrente":"AC","connettore":"Tipo 2","n_connettori":1,"h24":true,"tempo_reale":true}},{"type":"Feature","geometry":{"type":"Point","coordinates":[13.348841,38.143878]},"properties":{"id":"IT*ENX*E23XP22T3KKJCK00296*2","stato":"Disponibile","operatore":"ENEL X WAY ITALIA SRL","indirizzo":"Via Andrea Cirrincione, 18","cap":"90143","potenza_kw":15.0,"corrente":"AC","connettore":"Tipo 2","n_connettori":1,"h24":true,"tempo_reale":true}},{"type":"Feature","geometry":{"type":"Point","coordinates":[13.35396,38.129122]},"properties":{"id":"IT*ENX*E23XP22T3KKJCK00376*1","stato":"Disponibile","operatore":"ENEL X WAY ITALIA SRL","indirizzo":"Pepe Florestano","cap":"90139","potenza_kw":22.0,"corrente":"AC","connettore":"Tipo 2","n_connettori":1,"h24":true,"tempo_reale":true}},{"type":"Feature","geometry":{"type":"Point","coordinates":[13.35396,38.129122]},"properties":{"id":"IT*ENX*E23XP22T3KKJCK00376*2","stato":"Disponibile","operatore":"ENEL X WAY ITALIA SRL","indirizzo":"Pepe Florestano","cap":"90139","potenza_kw":22.0,"corrente":"AC","connettore":"Tipo 2","n_connettori":1,"h24":true,"tempo_reale":true}},{"type":"Feature","geometry":{"type":"Point","coordinates":[13.341579,38.142988]},"properties":{"id":"IT*ENX*E23XP22T3KKJCK00379*1","stato":"Disponibile","operatore":"ENEL X WAY ITALIA SRL","indirizzo":"Sicilia","cap":"90144","potenza_kw":15.0,"corrente":"AC","connettore":"Tipo 2","n_connettori":1,"h24":true,"tempo_reale":true}},{"type":"Feature","geometry":{"type":"Point","coordinates":[13.341579,38.142988]},"properties":{"id":"IT*ENX*E23XP22T3KKJCK00379*2","stato":"Disponibile","operatore":"ENEL X WAY ITALIA SRL","indirizzo":"Sicilia","cap":"90144","potenza_kw":15.0,"corrente":"AC","connettore":"Tipo 2","n_connettori":1,"h24":true,"tempo_reale":true}},{"type":"Feature","geometry":{"type":"Point","coordinates":[13.318335,38.0973]},"properties":{"id":"IT*ENX*E24XP22T3QQJAN00145*1","stato":"In ricarica","operatore":"ENEL X WAY ITALIA SRL","indirizzo":"Via Paruta, 5","cap":"90131","potenza_kw":15.0,"corrente":"AC","connettore":"Tipo 2","n_connettori":1,"h24":true,"tempo_reale":true}},{"type":"Feature","geometry":{"type":"Point","coordinates":[13.318335,38.0973]},"properties":{"id":"IT*ENX*E24XP22T3QQJAN00145*2","stato":"In ricarica","operatore":"ENEL X WAY ITALIA SRL","indirizzo":"Via Paruta, 5","cap":"90131","potenza_kw":15.0,"corrente":"AC","connettore":"Tipo 2","n_connettori":1,"h24":true,"tempo_reale":true}},{"type":"Feature","geometry":{"type":"Point","coordinates":[13.326856,38.138343]},"properties":{"id":"IT*ESP*E00321","stato":"Disponibile","operatore":"Eurospin Sicilia S.p.a. a Socio Unico","indirizzo":"Viale Michelangelo","cap":"90145","potenza_kw":22.0,"corrente":"AC","connettore":"Tipo 2","n_connettori":1,"h24":true,"tempo_reale":true}},{"type":"Feature","geometry":{"type":"Point","coordinates":[13.326856,38.138343]},"properties":{"id":"IT*ESP*E00322","stato":"Disponibile","operatore":"Eurospin Sicilia S.p.a. a Socio Unico","indirizzo":"Viale Michelangelo","cap":"90145","potenza_kw":22.0,"corrente":"AC","connettore":"Tipo 2","n_connettori":1,"h24":true,"tempo_reale":true}},{"type":"Feature","geometry":{"type":"Point","coordinates":[13.326856,38.138343]},"properties":{"id":"IT*ESP*E00331","stato":"Non attiva","operatore":"Eurospin Sicilia S.p.a. a Socio Unico","indirizzo":"Viale Michelangelo","cap":"90145","potenza_kw":22.0,"corrente":"AC","connettore":"Tipo 2","n_connettori":1,"h24":true,"tempo_reale":true}},{"type":"Feature","geometry":{"type":"Point","coordinates":[13.326856,38.138343]},"properties":{"id":"IT*ESP*E00332","stato":"Disponibile","operatore":"Eurospin Sicilia S.p.a. a Socio Unico","indirizzo":"Viale Michelangelo","cap":"90145","potenza_kw":22.0,"corrente":"AC","connettore":"Tipo 2","n_connettori":1,"h24":true,"tempo_reale":true}},{"type":"Feature","geometry":{"type":"Point","coordinates":[13.329187,38.102446]},"properties":{"id":"IT*EWI*E22BZ3667A*1","stato":"Disponibile","operatore":"EWIVA SRL","indirizzo":"Viale della Regione Siciliana Nord Ovest","cap":"90149","potenza_kw":100.0,"corrente":"DC","connettore":"CCS Combo 2","n_connettori":1,"h24":true,"tempo_reale":true}},{"type":"Feature","geometry":{"type":"Point","coordinates":[13.311865,38.169499]},"properties":{"id":"IT*GES*E03B1L","stato":"Disponibile","operatore":"UnoEnergy DriWe spa","indirizzo":"Via San Lorenzo Colli, 281","cap":"90146","potenza_kw":22.0,"corrente":"AC","connettore":"Tipo 2","n_connettori":1,"h24":true,"tempo_reale":false}},{"type":"Feature","geometry":{"type":"Point","coordinates":[13.311865,38.169499]},"properties":{"id":"IT*GES*EO3AGD","stato":"Non attiva","operatore":"UnoEnergy DriWe spa","indirizzo":"Via San Lorenzo Colli, 281","cap":"90146","potenza_kw":22.0,"corrente":"AC","connettore":"Tipo 2","n_connettori":1,"h24":true,"tempo_reale":false}},{"type":"Feature","geometry":{"type":"Point","coordinates":[13.311865,38.169499]},"properties":{"id":"IT*GES*EPHXPI","stato":"Disponibile","operatore":"UnoEnergy DriWe spa","indirizzo":"Via San Lorenzo Colli, 281","cap":"90146","potenza_kw":22.0,"corrente":"AC","connettore":"Tipo 2","n_connettori":1,"h24":true,"tempo_reale":false}},{"type":"Feature","geometry":{"type":"Point","coordinates":[13.311865,38.169499]},"properties":{"id":"IT*GES*EY7G7T","stato":"Disponibile","operatore":"UnoEnergy DriWe spa","indirizzo":"Via San Lorenzo Colli, 281","cap":"90146","potenza_kw":22.0,"corrente":"AC","connettore":"Tipo 2","n_connettori":1,"h24":true,"tempo_reale":false}},{"type":"Feature","geometry":{"type":"Point","coordinates":[13.34618,38.09985]},"properties":{"id":"IT*IOY*E422101","stato":"Disponibile","operatore":"IONITY GMBH","indirizzo":"Via Ernesto Basile","cap":"90128","potenza_kw":350.0,"corrente":"DC","connettore":"CCS Combo 2","n_connettori":1,"h24":true,"tempo_reale":true}},{"type":"Feature","geometry":{"type":"Point","coordinates":[13.34618,38.09985]},"properties":{"id":"IT*IOY*E422102","stato":"In ricarica","operatore":"IONITY GMBH","indirizzo":"Via Ernesto Basile","cap":"90128","potenza_kw":350.0,"corrente":"DC","connettore":"CCS Combo 2","n_connettori":1,"h24":true,"tempo_reale":true}},{"type":"Feature","geometry":{"type":"Point","coordinates":[13.34618,38.09985]},"properties":{"id":"IT*IOY*E422103","stato":"Non attiva","operatore":"IONITY GMBH","indirizzo":"Via Ernesto Basile","cap":"90128","potenza_kw":350.0,"corrente":"DC","connettore":"CCS Combo 2","n_connettori":1,"h24":true,"tempo_reale":true}},{"type":"Feature","geometry":{"type":"Point","coordinates":[13.34618,38.09985]},"properties":{"id":"IT*IOY*E422104","stato":"Non attiva","operatore":"IONITY GMBH","indirizzo":"Via Ernesto Basile","cap":"90128","potenza_kw":250.0,"corrente":"DC","connettore":"CCS Combo 2","n_connettori":1,"h24":true,"tempo_reale":true}},{"type":"Feature","geometry":{"type":"Point","coordinates":[13.34618,38.09985]},"properties":{"id":"IT*IOY*E422105","stato":"Disponibile","operatore":"IONITY GMBH","indirizzo":"Via Ernesto Basile","cap":"90128","potenza_kw":250.0,"corrente":"DC","connettore":"CCS Combo 2","n_connettori":1,"h24":true,"tempo_reale":true}},{"type":"Feature","geometry":{"type":"Point","coordinates":[13.409254,38.087893]},"properties":{"id":"IT*PLN*EE002899*1","stato":"Disponibile","operatore":"BEC","indirizzo":"Terminal Roccella","cap":"90121","potenza_kw":22.1,"corrente":"AC","connettore":"Tipo 2","n_connettori":1,"h24":false,"tempo_reale":true}},{"type":"Feature","geometry":{"type":"Point","coordinates":[13.409254,38.087893]},"properties":{"id":"IT*PLN*EE002899*2","stato":"Disponibile","operatore":"BEC","indirizzo":"Terminal Roccella","cap":"90121","potenza_kw":22.1,"corrente":"AC","connettore":"Tipo 2","n_connettori":1,"h24":false,"tempo_reale":true}},{"type":"Feature","geometry":{"type":"Point","coordinates":[13.409209,38.087913]},"properties":{"id":"IT*PLN*EE002900*1","stato":"Disponibile","operatore":"BEC","indirizzo":"Terminal Roccella","cap":"90121","potenza_kw":22.1,"corrente":"AC","connettore":"Tipo 2","n_connettori":1,"h24":false,"tempo_reale":true}},{"type":"Feature","geometry":{"type":"Point","coordinates":[13.409209,38.087913]},"properties":{"id":"IT*PLN*EE002900*2","stato":"Disponibile","operatore":"BEC","indirizzo":"Terminal Roccella","cap":"90121","potenza_kw":22.1,"corrente":"AC","connettore":"Tipo 2","n_connettori":1,"h24":false,"tempo_reale":true}},{"type":"Feature","geometry":{"type":"Point","coordinates":[13.409301,38.087872]},"properties":{"id":"IT*PLN*EE002901*1","stato":"Non attiva","operatore":"BEC","indirizzo":"Terminal Roccella","cap":"90121","potenza_kw":22.1,"corrente":"AC","connettore":"Tipo 2","n_connettori":1,"h24":false,"tempo_reale":true}},{"type":"Feature","geometry":{"type":"Point","coordinates":[13.409301,38.087872]},"properties":{"id":"IT*PLN*EE002901*2","stato":"Non attiva","operatore":"BEC","indirizzo":"Terminal Roccella","cap":"90121","potenza_kw":22.1,"corrente":"AC","connettore":"Tipo 2","n_connettori":1,"h24":false,"tempo_reale":true}},{"type":"Feature","geometry":{"type":"Point","coordinates":[13.383763,38.089434]},"properties":{"id":"IT*PLN*EE003034*1","stato":"Disponibile","operatore":"Plenitude On The Road S.r.l.","indirizzo":"Viale Regione Siciliana, 5161","cap":"90124","potenza_kw":22.1,"corrente":"AC","connettore":"Tipo 2","n_connettori":1,"h24":false,"tempo_reale":true}},{"type":"Feature","geometry":{"type":"Point","coordinates":[13.383763,38.089434]},"properties":{"id":"IT*PLN*EE003034*2","stato":"Disponibile","operatore":"Plenitude On The Road S.r.l.","indirizzo":"Viale Regione Siciliana, 5161","cap":"90124","potenza_kw":22.1,"corrente":"AC","connettore":"Tipo 2","n_connettori":1,"h24":false,"tempo_reale":true}},{"type":"Feature","geometry":{"type":"Point","coordinates":[13.327291,38.146449]},"properties":{"id":"IT*PLN*EE003922*1","stato":"Disponibile","operatore":"Plenitude On The Road S.r.l.","indirizzo":"Viale Regione Siciliana Nord Ovest 4740","cap":"90146","potenza_kw":22.1,"corrente":"AC","connettore":"Tipo 2","n_connettori":1,"h24":true,"tempo_reale":true}},{"type":"Feature","geometry":{"type":"Point","coordinates":[13.327291,38.146449]},"properties":{"id":"IT*PLN*EE003922*2","stato":"Disponibile","operatore":"Plenitude On The Road S.r.l.","indirizzo":"Viale Regione Siciliana Nord Ovest 4740","cap":"90146","potenza_kw":22.1,"corrente":"AC","connettore":"Tipo 2","n_connettori":1,"h24":true,"tempo_reale":true}},{"type":"Feature","geometry":{"type":"Point","coordinates":[13.345354,38.098323]},"properties":{"id":"IT*PLN*EE003934*1","stato":"Disponibile","operatore":"BEC","indirizzo":"Viale delle Scienze, 18/a","cap":"90128","potenza_kw":22.1,"corrente":"AC","connettore":"Tipo 2","n_connettori":1,"h24":true,"tempo_reale":true}},{"type":"Feature","geometry":{"type":"Point","coordinates":[13.345354,38.098323]},"properties":{"id":"IT*PLN*EE003934*2","stato":"Non attiva","operatore":"BEC","indirizzo":"Viale delle Scienze, 18/a","cap":"90128","potenza_kw":22.1,"corrente":"AC","connettore":"Tipo 2","n_connettori":1,"h24":true,"tempo_reale":true}},{"type":"Feature","geometry":{"type":"Point","coordinates":[13.345291,38.098377]},"properties":{"id":"IT*PLN*EE003935*1","stato":"Non attiva","operatore":"BEC","indirizzo":"Viale delle Scienze, 18/a","cap":"90128","potenza_kw":22.1,"corrente":"AC","connettore":"Tipo 2","n_connettori":1,"h24":true,"tempo_reale":true}},{"type":"Feature","geometry":{"type":"Point","coordinates":[13.345291,38.098377]},"properties":{"id":"IT*PLN*EE003935*2","stato":"Non attiva","operatore":"BEC","indirizzo":"Viale delle Scienze, 18/a","cap":"90128","potenza_kw":22.1,"corrente":"AC","connettore":"Tipo 2","n_connettori":1,"h24":true,"tempo_reale":true}},{"type":"Feature","geometry":{"type":"Point","coordinates":[13.354067,38.103615]},"properties":{"id":"IT*PLN*EE003936*1","stato":"Disponibile","operatore":"BEC","indirizzo":"Via Ernesto Tricomi, 5","cap":"90127","potenza_kw":22.1,"corrente":"AC","connettore":"Tipo 2","n_connettori":1,"h24":true,"tempo_reale":true}},{"type":"Feature","geometry":{"type":"Point","coordinates":[13.354067,38.103615]},"properties":{"id":"IT*PLN*EE003936*2","stato":"Disponibile","operatore":"BEC","indirizzo":"Via Ernesto Tricomi, 5","cap":"90127","potenza_kw":22.1,"corrente":"AC","connettore":"Tipo 2","n_connettori":1,"h24":true,"tempo_reale":true}},{"type":"Feature","geometry":{"type":"Point","coordinates":[13.354121,38.103561]},"properties":{"id":"IT*PLN*EE003937*1","stato":"Non attiva","operatore":"BEC","indirizzo":"Via Ernesto Tricomi, 5","cap":"90127","potenza_kw":22.1,"corrente":"AC","connettore":"Tipo 2","n_connettori":1,"h24":true,"tempo_reale":true}},{"type":"Feature","geometry":{"type":"Point","coordinates":[13.354121,38.103561]},"properties":{"id":"IT*PLN*EE003937*2","stato":"Disponibile","operatore":"BEC","indirizzo":"Via Ernesto Tricomi, 5","cap":"90127","potenza_kw":22.1,"corrente":"AC","connettore":"Tipo 2","n_connettori":1,"h24":true,"tempo_reale":true}},{"type":"Feature","geometry":{"type":"Point","coordinates":[13.365611,38.110958]},"properties":{"id":"IT*PLN*EE003938*1","stato":"Disponibile","operatore":"BEC","indirizzo":"Via delle Pergole, 45","cap":"90134","potenza_kw":22.1,"corrente":"AC","connettore":"Tipo 2","n_connettori":1,"h24":true,"tempo_reale":true}},{"type":"Feature","geometry":{"type":"Point","coordinates":[13.365611,38.110958]},"properties":{"id":"IT*PLN*EE003938*2","stato":"Non attiva","operatore":"BEC","indirizzo":"Via delle Pergole, 45","cap":"90134","potenza_kw":22.1,"corrente":"AC","connettore":"Tipo 2","n_connettori":1,"h24":true,"tempo_reale":true}},{"type":"Feature","geometry":{"type":"Point","coordinates":[13.365528,38.110927]},"properties":{"id":"IT*PLN*EE003939*1","stato":"Non attiva","operatore":"BEC","indirizzo":"Via delle Pergole, 45","cap":"90134","potenza_kw":22.1,"corrente":"AC","connettore":"Tipo 2","n_connettori":1,"h24":true,"tempo_reale":true}},{"type":"Feature","geometry":{"type":"Point","coordinates":[13.365528,38.110927]},"properties":{"id":"IT*PLN*EE003939*2","stato":"Non attiva","operatore":"BEC","indirizzo":"Via delle Pergole, 45","cap":"90134","potenza_kw":22.1,"corrente":"AC","connettore":"Tipo 2","n_connettori":1,"h24":true,"tempo_reale":true}},{"type":"Feature","geometry":{"type":"Point","coordinates":[13.354335,38.115161]},"properties":{"id":"IT*PLN*EE003940*1","stato":"Non attiva","operatore":"BEC","indirizzo":"Corso A. Amedeo, 17","cap":"90134","potenza_kw":22.1,"corrente":"AC","connettore":"Tipo 2","n_connettori":1,"h24":true,"tempo_reale":true}},{"type":"Feature","geometry":{"type":"Point","coordinates":[13.354335,38.115161]},"properties":{"id":"IT*PLN*EE003940*2","stato":"Disponibile","operatore":"BEC","indirizzo":"Corso A. Amedeo, 17","cap":"90134","potenza_kw":22.1,"corrente":"AC","connettore":"Tipo 2","n_connettori":1,"h24":true,"tempo_reale":true}},{"type":"Feature","geometry":{"type":"Point","coordinates":[13.354273,38.115245]},"properties":{"id":"IT*PLN*EE003941*1","stato":"Disponibile","operatore":"BEC","indirizzo":"Corso A. Amedeo, 17","cap":"90134","potenza_kw":22.1,"corrente":"AC","connettore":"Tipo 2","n_connettori":1,"h24":true,"tempo_reale":true}},{"type":"Feature","geometry":{"type":"Point","coordinates":[13.354273,38.115245]},"properties":{"id":"IT*PLN*EE003941*2","stato":"Disponibile","operatore":"BEC","indirizzo":"Corso A. Amedeo, 17","cap":"90134","potenza_kw":22.1,"corrente":"AC","connettore":"Tipo 2","n_connettori":1,"h24":true,"tempo_reale":true}},{"type":"Feature","geometry":{"type":"Point","coordinates":[13.412563,38.097776]},"properties":{"id":"IT*PLN*EE003942*1","stato":"Non attiva","operatore":"BEC","indirizzo":"Via Messina Marine, 533","cap":"90121","potenza_kw":22.1,"corrente":"AC","connettore":"Tipo 2","n_connettori":1,"h24":true,"tempo_reale":true}},{"type":"Feature","geometry":{"type":"Point","coordinates":[13.412563,38.097776]},"properties":{"id":"IT*PLN*EE003942*2","stato":"Non attiva","operatore":"BEC","indirizzo":"Via Messina Marine, 533","cap":"90121","potenza_kw":22.1,"corrente":"AC","connettore":"Tipo 2","n_connettori":1,"h24":true,"tempo_reale":true}},{"type":"Feature","geometry":{"type":"Point","coordinates":[13.343905,38.138033]},"properties":{"id":"IT*PLN*EE003945*1","stato":"Non attiva","operatore":"BEC","indirizzo":"Piazzale Unità d'Italia","cap":"90144","potenza_kw":22.1,"corrente":"AC","connettore":"Tipo 2","n_connettori":1,"h24":true,"tempo_reale":true}},{"type":"Feature","geometry":{"type":"Point","coordinates":[13.343905,38.138033]},"properties":{"id":"IT*PLN*EE003945*2","stato":"Non attiva","operatore":"BEC","indirizzo":"Piazzale Unità d'Italia","cap":"90144","potenza_kw":22.1,"corrente":"AC","connettore":"Tipo 2","n_connettori":1,"h24":true,"tempo_reale":true}},{"type":"Feature","geometry":{"type":"Point","coordinates":[13.332308,38.115425]},"properties":{"id":"IT*PLN*EE003951*1","stato":"Non attiva","operatore":"BEC","indirizzo":"Via Nina Siciliana, 16","cap":"90135","potenza_kw":22.1,"corrente":"AC","connettore":"Tipo 2","n_connettori":1,"h24":true,"tempo_reale":true}},{"type":"Feature","geometry":{"type":"Point","coordinates":[13.332308,38.115425]},"properties":{"id":"IT*PLN*EE003951*2","stato":"Disponibile","operatore":"BEC","indirizzo":"Via Nina Siciliana, 16","cap":"90135","potenza_kw":22.1,"corrente":"AC","connettore":"Tipo 2","n_connettori":1,"h24":true,"tempo_reale":true}},{"type":"Feature","geometry":{"type":"Point","coordinates":[13.332313,38.115467]},"properties":{"id":"IT*PLN*EE003952*1","stato":"Disponibile","operatore":"BEC","indirizzo":"Via Nina Siciliana, 16","cap":"90135","potenza_kw":22.1,"corrente":"AC","connettore":"Tipo 2","n_connettori":1,"h24":true,"tempo_reale":true}},{"type":"Feature","geometry":{"type":"Point","coordinates":[13.332313,38.115467]},"properties":{"id":"IT*PLN*EE003952*2","stato":"Disponibile","operatore":"BEC","indirizzo":"Via Nina Siciliana, 16","cap":"90135","potenza_kw":22.1,"corrente":"AC","connettore":"Tipo 2","n_connettori":1,"h24":true,"tempo_reale":true}},{"type":"Feature","geometry":{"type":"Point","coordinates":[13.333661,38.106816]},"properties":{"id":"IT*PLN*EE003953*1","stato":"Non attiva","operatore":"BEC","indirizzo":"Via Arcoleo","cap":"90129","potenza_kw":22.1,"corrente":"AC","connettore":"Tipo 2","n_connettori":1,"h24":true,"tempo_reale":true}},{"type":"Feature","geometry":{"type":"Point","coordinates":[13.333661,38.106816]},"properties":{"id":"IT*PLN*EE003953*2","stato":"Disponibile","operatore":"BEC","indirizzo":"Via Arcoleo","cap":"90129","potenza_kw":22.1,"corrente":"AC","connettore":"Tipo 2","n_connettori":1,"h24":true,"tempo_reale":true}},{"type":"Feature","geometry":{"type":"Point","coordinates":[13.333692,38.106848]},"properties":{"id":"IT*PLN*EE003954*1","stato":"Disponibile","operatore":"BEC","indirizzo":"Via Arcoleo","cap":"90129","potenza_kw":22.1,"corrente":"AC","connettore":"Tipo 2","n_connettori":1,"h24":true,"tempo_reale":true}},{"type":"Feature","geometry":{"type":"Point","coordinates":[13.333692,38.106848]},"properties":{"id":"IT*PLN*EE003954*2","stato":"Disponibile","operatore":"BEC","indirizzo":"Via Arcoleo","cap":"90129","potenza_kw":22.1,"corrente":"AC","connettore":"Tipo 2","n_connettori":1,"h24":true,"tempo_reale":true}},{"type":"Feature","geometry":{"type":"Point","coordinates":[13.331565,38.131279]},"properties":{"id":"IT*PLN*EE003956*1","stato":"Disponibile","operatore":"BEC","indirizzo":"Via G. L. Bernini, 149","cap":"90145","potenza_kw":22.1,"corrente":"AC","connettore":"Tipo 2","n_connettori":1,"h24":true,"tempo_reale":true}},{"type":"Feature","geometry":{"type":"Point","coordinates":[13.331565,38.131279]},"properties":{"id":"IT*PLN*EE003956*2","stato":"Disponibile","operatore":"BEC","indirizzo":"Via G. L. Bernini, 149","cap":"90145","potenza_kw":22.1,"corrente":"AC","connettore":"Tipo 2","n_connettori":1,"h24":true,"tempo_reale":true}},{"type":"Feature","geometry":{"type":"Point","coordinates":[13.33142,38.131358]},"properties":{"id":"IT*PLN*EE003957*1","stato":"Non attiva","operatore":"BEC","indirizzo":"Via G. L. Bernini, 149","cap":"90145","potenza_kw":22.1,"corrente":"AC","connettore":"Tipo 2","n_connettori":1,"h24":true,"tempo_reale":true}},{"type":"Feature","geometry":{"type":"Point","coordinates":[13.33142,38.131358]},"properties":{"id":"IT*PLN*EE003957*2","stato":"Disponibile","operatore":"BEC","indirizzo":"Via G. L. Bernini, 149","cap":"90145","potenza_kw":22.1,"corrente":"AC","connettore":"Tipo 2","n_connettori":1,"h24":true,"tempo_reale":true}},{"type":"Feature","geometry":{"type":"Point","coordinates":[13.33147,38.131295]},"properties":{"id":"IT*PLN*EE003958*1","stato":"Disponibile","operatore":"BEC","indirizzo":"Via G. L. Bernini, 149","cap":"90145","potenza_kw":22.1,"corrente":"AC","connettore":"Tipo 2","n_connettori":1,"h24":true,"tempo_reale":true}},{"type":"Feature","geometry":{"type":"Point","coordinates":[13.33147,38.131295]},"properties":{"id":"IT*PLN*EE003958*2","stato":"Non attiva","operatore":"BEC","indirizzo":"Via G. L. Bernini, 149","cap":"90145","potenza_kw":22.1,"corrente":"AC","connettore":"Tipo 2","n_connettori":1,"h24":true,"tempo_reale":true}},{"type":"Feature","geometry":{"type":"Point","coordinates":[13.343804,38.137988]},"properties":{"id":"IT*PLN*EE003959*1","stato":"Non attiva","operatore":"BEC","indirizzo":"Piazzale Unità d'Italia","cap":"90144","potenza_kw":22.1,"corrente":"AC","connettore":"Tipo 2","n_connettori":1,"h24":true,"tempo_reale":true}},{"type":"Feature","geometry":{"type":"Point","coordinates":[13.343804,38.137988]},"properties":{"id":"IT*PLN*EE003959*2","stato":"Disponibile","operatore":"BEC","indirizzo":"Piazzale Unità d'Italia","cap":"90144","potenza_kw":22.1,"corrente":"AC","connettore":"Tipo 2","n_connettori":1,"h24":true,"tempo_reale":true}},{"type":"Feature","geometry":{"type":"Point","coordinates":[13.331202,38.197035]},"properties":{"id":"IT*PLN*EE003978*1","stato":"Disponibile","operatore":"BEC","indirizzo":"Piazza Valdesi","cap":"90149","potenza_kw":22.1,"corrente":"AC","connettore":"Tipo 2","n_connettori":1,"h24":true,"tempo_reale":true}},{"type":"Feature","geometry":{"type":"Point","coordinates":[13.331202,38.197035]},"properties":{"id":"IT*PLN*EE003978*2","stato":"Non attiva","operatore":"BEC","indirizzo":"Piazza Valdesi","cap":"90149","potenza_kw":22.1,"corrente":"AC","connettore":"Tipo 2","n_connettori":1,"h24":true,"tempo_reale":true}},{"type":"Feature","geometry":{"type":"Point","coordinates":[13.330879,38.151242]},"properties":{"id":"IT*PLN*EE003979*1","stato":"Non attiva","operatore":"BEC","indirizzo":"Via Belgio, 4","cap":"90146","potenza_kw":22.1,"corrente":"AC","connettore":"Tipo 2","n_connettori":1,"h24":true,"tempo_reale":true}},{"type":"Feature","geometry":{"type":"Point","coordinates":[13.330879,38.151242]},"properties":{"id":"IT*PLN*EE003979*2","stato":"Non attiva","operatore":"BEC","indirizzo":"Via Belgio, 4","cap":"90146","potenza_kw":22.1,"corrente":"AC","connettore":"Tipo 2","n_connettori":1,"h24":true,"tempo_reale":true}},{"type":"Feature","geometry":{"type":"Point","coordinates":[13.330863,38.151262]},"properties":{"id":"IT*PLN*EE003980*1","stato":"Disponibile","operatore":"BEC","indirizzo":"Via Belgio, 4","cap":"90146","potenza_kw":22.1,"corrente":"AC","connettore":"Tipo 2","n_connettori":1,"h24":true,"tempo_reale":true}},{"type":"Feature","geometry":{"type":"Point","coordinates":[13.330863,38.151262]},"properties":{"id":"IT*PLN*EE003980*2","stato":"Non attiva","operatore":"BEC","indirizzo":"Via Belgio, 4","cap":"90146","potenza_kw":22.1,"corrente":"AC","connettore":"Tipo 2","n_connettori":1,"h24":true,"tempo_reale":true}},{"type":"Feature","geometry":{"type":"Point","coordinates":[13.316785,38.152124]},"properties":{"id":"IT*PLN*EE003981*1","stato":"Non attiva","operatore":"BEC","indirizzo":"Via D'Alessandro Giuseppe, 11","cap":"90146","potenza_kw":22.1,"corrente":"AC","connettore":"Tipo 2","n_connettori":1,"h24":true,"tempo_reale":true}},{"type":"Feature","geometry":{"type":"Point","coordinates":[13.316785,38.152124]},"properties":{"id":"IT*PLN*EE003981*2","stato":"Non attiva","operatore":"BEC","indirizzo":"Via D'Alessandro Giuseppe, 11","cap":"90146","potenza_kw":22.1,"corrente":"AC","connettore":"Tipo 2","n_connettori":1,"h24":true,"tempo_reale":true}},{"type":"Feature","geometry":{"type":"Point","coordinates":[13.31736,38.152587]},"properties":{"id":"IT*PLN*EE003982*1","stato":"Disponibile","operatore":"BEC","indirizzo":"Via D'Alessandro Giuseppe, 11","cap":"90146","potenza_kw":22.1,"corrente":"AC","connettore":"Tipo 2","n_connettori":1,"h24":true,"tempo_reale":true}},{"type":"Feature","geometry":{"type":"Point","coordinates":[13.31736,38.152587]},"properties":{"id":"IT*PLN*EE003982*2","stato":"Non attiva","operatore":"BEC","indirizzo":"Via D'Alessandro Giuseppe, 11","cap":"90146","potenza_kw":22.1,"corrente":"AC","connettore":"Tipo 2","n_connettori":1,"h24":true,"tempo_reale":true}},{"type":"Feature","geometry":{"type":"Point","coordinates":[13.364711,38.143734]},"properties":{"id":"IT*PLN*EE003987*1","stato":"Non attiva","operatore":"Plenitude On The Road S.r.l.","indirizzo":"Via Enrico Fileti, 4","cap":"90142","potenza_kw":22.1,"corrente":"AC","connettore":"Tipo 2","n_connettori":1,"h24":false,"tempo_reale":true}},{"type":"Feature","geometry":{"type":"Point","coordinates":[13.364711,38.143734]},"properties":{"id":"IT*PLN*EE003987*2","stato":"In ricarica","operatore":"Plenitude On The Road S.r.l.","indirizzo":"Via Enrico Fileti, 4","cap":"90142","potenza_kw":22.1,"corrente":"AC","connettore":"Tipo 2","n_connettori":1,"h24":false,"tempo_reale":true}},{"type":"Feature","geometry":{"type":"Point","coordinates":[13.367149,38.143788]},"properties":{"id":"IT*PLN*EE003988*1","stato":"Non attiva","operatore":"Plenitude On The Road S.r.l.","indirizzo":"Via Enrico Fileti, 4","cap":"90142","potenza_kw":22.1,"corrente":"AC","connettore":"Tipo 2","n_connettori":1,"h24":false,"tempo_reale":true}},{"type":"Feature","geometry":{"type":"Point","coordinates":[13.367149,38.143788]},"properties":{"id":"IT*PLN*EE003988*2","stato":"Non attiva","operatore":"Plenitude On The Road S.r.l.","indirizzo":"Via Enrico Fileti, 4","cap":"90142","potenza_kw":22.1,"corrente":"AC","connettore":"Tipo 2","n_connettori":1,"h24":false,"tempo_reale":true}},{"type":"Feature","geometry":{"type":"Point","coordinates":[13.322231,38.200623]},"properties":{"id":"IT*PLN*EE003989*1","stato":"Disponibile","operatore":"BEC","indirizzo":"Viale Galatea","cap":"90151","potenza_kw":22.1,"corrente":"AC","connettore":"Tipo 2","n_connettori":1,"h24":true,"tempo_reale":true}},{"type":"Feature","geometry":{"type":"Point","coordinates":[13.322231,38.200623]},"properties":{"id":"IT*PLN*EE003989*2","stato":"Non attiva","operatore":"BEC","indirizzo":"Viale Galatea","cap":"90151","potenza_kw":22.1,"corrente":"AC","connettore":"Tipo 2","n_connettori":1,"h24":true,"tempo_reale":true}},{"type":"Feature","geometry":{"type":"Point","coordinates":[13.322219,38.200652]},"properties":{"id":"IT*PLN*EE003990*1","stato":"Disponibile","operatore":"BEC","indirizzo":"Viale Galatea","cap":"90151","potenza_kw":22.1,"corrente":"AC","connettore":"Tipo 2","n_connettori":1,"h24":true,"tempo_reale":true}},{"type":"Feature","geometry":{"type":"Point","coordinates":[13.322219,38.200652]},"properties":{"id":"IT*PLN*EE003990*2","stato":"Disponibile","operatore":"BEC","indirizzo":"Viale Galatea","cap":"90151","potenza_kw":22.1,"corrente":"AC","connettore":"Tipo 2","n_connettori":1,"h24":true,"tempo_reale":true}},{"type":"Feature","geometry":{"type":"Point","coordinates":[13.345393,38.098272]},"properties":{"id":"IT*PLN*EE007198*1","stato":"Non attiva","operatore":"BEC","indirizzo":"Viale delle Scienze, 18/a","cap":"90128","potenza_kw":22.1,"corrente":"AC","connettore":"Tipo 2","n_connettori":1,"h24":true,"tempo_reale":true}},{"type":"Feature","geometry":{"type":"Point","coordinates":[13.345393,38.098272]},"properties":{"id":"IT*PLN*EE007198*2","stato":"Non attiva","operatore":"BEC","indirizzo":"Viale delle Scienze, 18/a","cap":"90128","potenza_kw":22.1,"corrente":"AC","connettore":"Tipo 2","n_connettori":1,"h24":true,"tempo_reale":true}},{"type":"Feature","geometry":{"type":"Point","coordinates":[13.327415,38.146463]},"properties":{"id":"IT*PLN*EH001143*1","stato":"Disponibile","operatore":"BEC","indirizzo":"Viale Regione Siciliana Nord Ovest 4740","cap":"90146","potenza_kw":110.0,"corrente":"DC","connettore":"CCS Combo 2","n_connettori":1,"h24":true,"tempo_reale":true}},{"type":"Feature","geometry":{"type":"Point","coordinates":[13.327415,38.146463]},"properties":{"id":"IT*PLN*EH001143*2","stato":"Non attiva","operatore":"BEC","indirizzo":"Viale Regione Siciliana Nord Ovest 4740","cap":"90146","potenza_kw":110.0,"corrente":"DC","connettore":"CCS Combo 2","n_connettori":1,"h24":true,"tempo_reale":true}},{"type":"Feature","geometry":{"type":"Point","coordinates":[13.327415,38.146463]},"properties":{"id":"IT*PLN*EH001143*3","stato":"Non attiva","operatore":"BEC","indirizzo":"Viale Regione Siciliana Nord Ovest 4740","cap":"90146","potenza_kw":22.1,"corrente":"AC","connettore":"Tipo 2","n_connettori":1,"h24":true,"tempo_reale":true}},{"type":"Feature","geometry":{"type":"Point","coordinates":[13.410342,38.089131]},"properties":{"id":"IT*TSL*E000X5Z","stato":"Disponibile","operatore":"Tesla Italia Srl.","indirizzo":"via Pecoraino","cap":"90121","potenza_kw":250.0,"corrente":"DC","connettore":"CCS Combo 2","n_connettori":1,"h24":true,"tempo_reale":true}},{"type":"Feature","geometry":{"type":"Point","coordinates":[13.410342,38.089131]},"properties":{"id":"IT*TSL*E000X61","stato":"Disponibile","operatore":"Tesla Italia Srl.","indirizzo":"via Pecoraino","cap":"90121","potenza_kw":250.0,"corrente":"DC","connettore":"CCS Combo 2","n_connettori":1,"h24":true,"tempo_reale":true}},{"type":"Feature","geometry":{"type":"Point","coordinates":[13.410342,38.089131]},"properties":{"id":"IT*TSL*E000X63","stato":"Disponibile","operatore":"Tesla Italia Srl.","indirizzo":"via Pecoraino","cap":"90121","potenza_kw":250.0,"corrente":"DC","connettore":"CCS Combo 2","n_connettori":1,"h24":true,"tempo_reale":true}},{"type":"Feature","geometry":{"type":"Point","coordinates":[13.410342,38.089131]},"properties":{"id":"IT*TSL*E000X65","stato":"Disponibile","operatore":"Tesla Italia Srl.","indirizzo":"via Pecoraino","cap":"90121","potenza_kw":250.0,"corrente":"DC","connettore":"CCS Combo 2","n_connettori":1,"h24":true,"tempo_reale":true}},{"type":"Feature","geometry":{"type":"Point","coordinates":[13.410342,38.089131]},"properties":{"id":"IT*TSL*E000X67","stato":"Disponibile","operatore":"Tesla Italia Srl.","indirizzo":"via Pecoraino","cap":"90121","potenza_kw":250.0,"corrente":"DC","connettore":"CCS Combo 2","n_connettori":1,"h24":true,"tempo_reale":true}},{"type":"Feature","geometry":{"type":"Point","coordinates":[13.410342,38.089131]},"properties":{"id":"IT*TSL*E000X69","stato":"Disponibile","operatore":"Tesla Italia Srl.","indirizzo":"via Pecoraino","cap":"90121","potenza_kw":250.0,"corrente":"DC","connettore":"CCS Combo 2","n_connettori":1,"h24":true,"tempo_reale":true}},{"type":"Feature","geometry":{"type":"Point","coordinates":[13.410342,38.089131]},"properties":{"id":"IT*TSL*E000X6B","stato":"Disponibile","operatore":"Tesla Italia Srl.","indirizzo":"via Pecoraino","cap":"90121","potenza_kw":250.0,"corrente":"DC","connettore":"CCS Combo 2","n_connettori":1,"h24":true,"tempo_reale":true}},{"type":"Feature","geometry":{"type":"Point","coordinates":[13.410342,38.089131]},"properties":{"id":"IT*TSL*E000X6D","stato":"Disponibile","operatore":"Tesla Italia Srl.","indirizzo":"via Pecoraino","cap":"90121","potenza_kw":250.0,"corrente":"DC","connettore":"CCS Combo 2","n_connettori":1,"h24":true,"tempo_reale":true}},{"type":"Feature","geometry":{"type":"Point","coordinates":[13.31902,38.15613]},"properties":{"id":"IT*VCI*EVCIT0000458*1","stato":"Disponibile","operatore":"DUFERCO MOBILITY SRL","indirizzo":"Via Enzo Biagi","cap":"90146","potenza_kw":22.0,"corrente":"AC","connettore":"Tipo 2","n_connettori":1,"h24":true,"tempo_reale":true}},{"type":"Feature","geometry":{"type":"Point","coordinates":[13.31902,38.15613]},"properties":{"id":"IT*VCI*EVCIT0000458*2","stato":"Disponibile","operatore":"DUFERCO MOBILITY SRL","indirizzo":"Via Enzo Biagi","cap":"90146","potenza_kw":22.0,"corrente":"AC","connettore":"Tipo 2","n_connettori":1,"h24":true,"tempo_reale":true}},{"type":"Feature","geometry":{"type":"Point","coordinates":[13.32,38.156833]},"properties":{"id":"ITEDNE0040*01*1","stato":"Disponibile","operatore":"Edison Next S.P.A.","indirizzo":"Via E. Biagi  8","cap":"90146","potenza_kw":22.0,"corrente":"AC","connettore":"Tipo 2","n_connettori":1,"h24":true,"tempo_reale":true}},{"type":"Feature","geometry":{"type":"Point","coordinates":[13.32,38.156833]},"properties":{"id":"ITEDNE0040*01*2","stato":"Disponibile","operatore":"Edison Next S.P.A.","indirizzo":"Via E. Biagi  8","cap":"90146","potenza_kw":22.0,"corrente":"AC","connettore":"Tipo 2","n_connettori":1,"h24":true,"tempo_reale":true}},{"type":"Feature","geometry":{"type":"Point","coordinates":[13.320253,38.157106]},"properties":{"id":"ITEDNE0204*01*1","stato":"Disponibile","operatore":"Edison Next S.P.A.","indirizzo":"Via Enzo Biagi 6","cap":"90146","potenza_kw":50.0,"corrente":"DC","connettore":"CHAdeMO","n_connettori":1,"h24":true,"tempo_reale":true}},{"type":"Feature","geometry":{"type":"Point","coordinates":[13.320253,38.157106]},"properties":{"id":"ITEDNE0204*01*2","stato":"Disponibile","operatore":"Edison Next S.P.A.","indirizzo":"Via Enzo Biagi 6","cap":"90146","potenza_kw":50.0,"corrente":"DC","connettore":"CCS Combo 2","n_connettori":1,"h24":true,"tempo_reale":true}},{"type":"Feature","geometry":{"type":"Point","coordinates":[13.369503,38.154212]},"properties":{"id":"ITGESE813200685","stato":"Non attiva","operatore":"Go Electric Stations SRLS","indirizzo":"Via Papa Sergio I, 82","cap":"90142","potenza_kw":11.0,"corrente":"AC","connettore":"Tipo 2","n_connettori":1,"h24":false,"tempo_reale":true}},{"type":"Feature","geometry":{"type":"Point","coordinates":[13.369503,38.154212]},"properties":{"id":"ITGESE813200687","stato":"Disponibile","operatore":"Go Electric Stations SRLS","indirizzo":"Via Papa Sergio I, 82","cap":"90142","potenza_kw":11.0,"corrente":"AC","connettore":"Tipo 2","n_connettori":1,"h24":false,"tempo_reale":true}},{"type":"Feature","geometry":{"type":"Point","coordinates":[13.369503,38.154212]},"properties":{"id":"ITGESE813201111","stato":"Disponibile","operatore":"Go Electric Stations SRLS","indirizzo":"Via Papa Sergio I, 82","cap":"90142","potenza_kw":11.0,"corrente":"AC","connettore":"Tipo 2","n_connettori":1,"h24":false,"tempo_reale":true}},{"type":"Feature","geometry":{"type":"Point","coordinates":[13.369503,38.154212]},"properties":{"id":"ITGESE813201112","stato":"Disponibile","operatore":"Go Electric Stations SRLS","indirizzo":"Via Papa Sergio I, 82","cap":"90142","potenza_kw":11.0,"corrente":"AC","connettore":"Tipo 2","n_connettori":1,"h24":false,"tempo_reale":true}},{"type":"Feature","geometry":{"type":"Point","coordinates":[13.328525,38.112754]},"properties":{"id":"ITGESE818192355","stato":"Non attiva","operatore":"Go Electric Stations SRLS","indirizzo":"Via Tasca Lanza , 104","cap":"90135","potenza_kw":7.0,"corrente":"AC","connettore":"Tipo 2","n_connettori":1,"h24":true,"tempo_reale":true}},{"type":"Feature","geometry":{"type":"Point","coordinates":[13.328525,38.112754]},"properties":{"id":"ITGESE818192356","stato":"Non attiva","operatore":"Go Electric Stations SRLS","indirizzo":"Via Tasca Lanza , 104","cap":"90135","potenza_kw":9.0,"corrente":"DC","connettore":"CHAdeMO","n_connettori":1,"h24":true,"tempo_reale":true}},{"type":"Feature","geometry":{"type":"Point","coordinates":[13.328525,38.112754]},"properties":{"id":"ITGESE818192357","stato":"Non attiva","operatore":"Go Electric Stations SRLS","indirizzo":"Via Tasca Lanza , 104","cap":"90135","potenza_kw":9.0,"corrente":"DC","connettore":"CCS Combo 2","n_connettori":1,"h24":true,"tempo_reale":true}},{"type":"Feature","geometry":{"type":"Point","coordinates":[13.365836,38.084454]},"properties":{"id":"ITGESE839172436","stato":"Disponibile","operatore":"Go Electric Stations SRLS","indirizzo":"Viale Placido Rizzotto 30-32","cap":"90125","potenza_kw":11.0,"corrente":"AC","connettore":"Tipo 2","n_connettori":1,"h24":false,"tempo_reale":true}},{"type":"Feature","geometry":{"type":"Point","coordinates":[13.365836,38.084454]},"properties":{"id":"ITGESE839172438","stato":"Disponibile","operatore":"Go Electric Stations SRLS","indirizzo":"Viale Placido Rizzotto 30-32","cap":"90125","potenza_kw":11.0,"corrente":"AC","connettore":"Tipo 2","n_connettori":1,"h24":false,"tempo_reale":true}},{"type":"Feature","geometry":{"type":"Point","coordinates":[13.328975,38.114707]},"properties":{"id":"ITGESE875652865","stato":"Disponibile","operatore":"Go Electric Stations SRLS","indirizzo":"Via Tasca Lanza 118/120","cap":"90135","potenza_kw":11.0,"corrente":"AC","connettore":"Tipo 2","n_connettori":1,"h24":false,"tempo_reale":true}},{"type":"Feature","geometry":{"type":"Point","coordinates":[13.328975,38.114707]},"properties":{"id":"ITGESE875652866","stato":"Disponibile","operatore":"Go Electric Stations SRLS","indirizzo":"Via Tasca Lanza 118/120","cap":"90135","potenza_kw":11.0,"corrente":"AC","connettore":"Tipo 2","n_connettori":1,"h24":false,"tempo_reale":true}}]}
