{"type":"FeatureCollection","features":[{"type":"Feature","properties":{"nome":"Palermo","fonte":"OpenStreetMap (ODbL, via Nominatim) unito al confine ISTAT di potere_acquisto_comuni.geoparquet, +50 m di tolleranza per costa e moli"},"geometry":{"type":"Polygon","coordinates":[[[13.244111316370601,38.100255183459375],[13.243853090655225,38.10010628889966],[13.243595143576885,38.10001461445204],[13.242234567937096,38.099947088676004],[13.242029350857539,38.09999456277413],[13.24186833428837,38.10010078232551],[13.241759509300968,38.10026004955617],[13.241720598157727,38.100497145007424],[13.241796774638726,38.10072501662439],[13.242003509645194,38.100956443139914],[13.242356855043338,38.10196062188568],[13.24242804083149,38.10233126187622],[13.24277084977958,38.103164264592046],[13.244518573437988,38.10532600588538],[13.244686583004114,38.10549103645455],[13.245984145692267,38.107057746841946],[13.24586448932323,38.10725069640686],[13.245818322413477,38.1073896949841],[13.245814413996891,38.107536107798815],[13.2458530994467,38.1076773714672],[13.24606106526185,38.10798663752216],[13.246506268819973,38.10840548814881],[13.246673520426215,38.10860257835052],[13.246775277287188,38.10883890755503],[13.246878391252904,38.10913543647419],[13.246960617204953,38.109717884238776],[13.24714027953989,38.110055527095696],[13.247129117322897,38.110249203962965],[13.246982589460387,38.110847828351446],[13.247082016184072,38.1113070384352],[13.247142475001137,38.11212313017522],[13.247111213909363,38.11239467050002],[13.24709577148016,38.113611919711914],[13.247064583650289,38.114056693333175],[13.24692170876991,38.11496155488551],[13.246945880164217,38.11514997202542],[13.247071100224831,38.115350763280915],[13.248057902979463,38.11614958974871],[13.248859802396789,38.11659034305474],[13.248968844331063,38.11690518518098],[13.249182554473174,38.11715064160522],[13.24994337716328,38.118260525126466],[13.251062157771232,38.120002953180105],[13.251047830261507,38.12068078599878],[13.251133130261508,38.122077185998776],[13.251400932924506,38.122993653528695],[13.249305667607183,38.126733504468774],[13.248309303678067,38.1294042115016],[13.247842964023818,38.13025392771912],[13.247755107744215,38.131067505970975],[13.247693809139234,38.13133897689721],[13.24774950259284,38.131972645018216],[13.247859301620254,38.13501798319796],[13.247896841717823,38.13519083664584],[13.248405880956707,38.136149935650955],[13.248516183800945,38.136250709967506],[13.248696274652719,38.136325411206734],[13.24898773285389,38.13659440493146],[13.249117606096762,38.13666580876655],[13.249262705334923,38.136696004427925],[13.250092511250843,38.136587341854224],[13.250598599958723,38.13667180739277],[13.251015378278852,38.136939936742614],[13.251889453615359,38.1380178341301],[13.252481154009509,38.13863353077089],[13.253452980746296,38.13912992238828],[13.253982400296874,38.1396127939934],[13.255665308818724,38.141379585231576],[13.255802550627276,38.14220700839242],[13.256065079052064,38.142813437901935],[13.256388590395169,38.14313663035444],[13.257211033314544,38.14367960791249],[13.25749143028641,38.14394216762281],[13.258547564160468,38.14440550340707],[13.258962024659672,38.144840622232046],[13.26233957932127,38.14895215272517],[13.26257469668635,38.149477826958346],[13.262805684881226,38.14985179011894],[13.263049674379737,38.15005540509347],[13.263376276464944,38.150214134349575],[13.264063867020397,38.15117275880319],[13.264234826137455,38.15150027865328],[13.264020269844936,38.15154641537588],[13.263885707513223,38.15161151789564],[13.263776403704002,38.15171348865852],[13.263702128148783,38.15184321337125],[13.261905604428138,38.15832707086658],[13.261893656496056,38.15853862143959],[13.262041648086852,38.15947295205454],[13.261656644156025,38.15982783433024],[13.259206428787463,38.161267434557196],[13.25861561134758,38.16183081644598],[13.258131740627844,38.162347160847716],[13.257607105650456,38.163278831503995],[13.25754914149829,38.16368959714118],[13.256136790657303,38.16605777923332],[13.255197186409013,38.16770498253847],[13.25515252096347,38.16790755284734],[13.255213008523183,38.16837000773812],[13.255346488593387,38.16871147561902],[13.255523158553602,38.169016961538794],[13.255669915743496,38.16918722376614],[13.255806180144635,38.16951438753612],[13.255899276505396,38.169637895031855],[13.256025663624976,38.169727042829884],[13.267492564433327,38.17398723710977],[13.268114049199026,38.174339814686974],[13.268799431334996,38.1750015495773],[13.271034775475126,38.17703794806156],[13.270167163507143,38.17901861831173],[13.268643863507144,38.18338851831173],[13.26861699231697,38.18358458542959],[13.26869265156113,38.18381913777797],[13.268789732968386,38.183931979696055],[13.268915732203231,38.18401124060023],[13.269675487024386,38.18424991411349],[13.269817002564938,38.18424724187167],[13.26998173966933,38.18419657541201],[13.272459363366952,38.18436588826771],[13.275438511714391,38.186084513235635],[13.275187323071046,38.18629586364121],[13.274869374669192,38.186314241645675],[13.274698032940025,38.18637175844383],[13.273445661443123,38.187227193711465],[13.273232416603793,38.18751662732848],[13.273182891640172,38.18771461397487],[13.273211701732668,38.18807090781015],[13.273480274700013,38.18856272331226],[13.273451899296713,38.1886158654665],[13.273015443936863,38.18881591474682],[13.27266820025561,38.18932314725015],[13.27212103075943,38.18950136393685],[13.271996701322514,38.18957853017628],[13.27169498997032,38.190009644207855],[13.271647203026104,38.19015265487734],[13.271644223213139,38.19030340886348],[13.271686321523287,38.19044819621066],[13.271769669427838,38.19057384958479],[13.272166125188573,38.190931266842604],[13.272991561827988,38.19141532166797],[13.273146212808204,38.19166085024858],[13.273394501492074,38.1919159169259],[13.273081352714875,38.19233596207682],[13.27301272756603,38.19265282313186],[13.272794694357913,38.192784796919796],[13.272691488487444,38.192894028574884],[13.27235491857665,38.193587274135325],[13.272240632798407,38.19394841926891],[13.271934117993224,38.195324528839784],[13.2718472261417,38.19543867207988],[13.271784217297796,38.195614051243645],[13.271792417748397,38.19584756425706],[13.27050486454901,38.19734504812662],[13.269426877712782,38.198393757424576],[13.269113019068639,38.19841343554648],[13.268853602483594,38.198111692839255],[13.268723118499562,38.19804486508532],[13.268578860839519,38.198018754813326],[13.26757204196457,38.19817590554162],[13.267028969517384,38.198164111544024],[13.264983702394302,38.198042294750394],[13.263152533875935,38.19780674983275],[13.262208448394379,38.197818373135306],[13.261442248148864,38.19800445183332],[13.259856773269915,38.19857448709942],[13.259367378965715,38.1986745000209],[13.258784288122483,38.1986918420864],[13.258606849790736,38.198788489163974],[13.258507081945993,38.19890316171283],[13.25800751441791,38.199696586385556],[13.257882092413471,38.19998600294973],[13.257865533196316,38.200375267079025],[13.257953433196317,38.20124516707902],[13.258009105809272,38.20142903221273],[13.258129997542518,38.201578333974474],[13.258363794441342,38.201708510529876],[13.258887309443644,38.20180163108299],[13.25911828510752,38.20176689697171],[13.259322745612193,38.201640128765916],[13.259460541421475,38.201402248275265],[13.259722069604383,38.20121931084318],[13.259847441878044,38.20098672918819],[13.260041191599266,38.20087493375417],[13.26028935954583,38.20062773722417],[13.26047622450349,38.20057029261215],[13.260624468320808,38.20046032783284],[13.261327374876258,38.200470699924445],[13.261677702854458,38.20041342761202],[13.262472629625467,38.200427042983826],[13.262920835409842,38.200378279702626],[13.263527033837022,38.20036767882741],[13.263807445695274,38.2003184255766],[13.264056258852957,38.200429146660426],[13.264371121234158,38.2004805565339],[13.264615111474253,38.20048265352615],[13.264822320298679,38.200441504807614],[13.264987065992742,38.200488498961505],[13.265236612969272,38.20047075638556],[13.265438468601994,38.20063044743123],[13.265539414689485,38.200819845835795],[13.265676885609828,38.20093130294101],[13.265856406881003,38.20116615586609],[13.265899539066696,38.20133767033325],[13.26597696339978,38.20146191207503],[13.266060180205589,38.20192188025792],[13.26613942336564,38.20204487993224],[13.266265676138087,38.20214793048027],[13.266318772519654,38.2024376823802],[13.266170334545105,38.20282288077038],[13.266157988093893,38.20301497982473],[13.266257389542698,38.20325419301934],[13.266290356113366,38.20347412342111],[13.266389046100857,38.203649045540246],[13.266548605946717,38.20377102142714],[13.266692993454923,38.20381549695758],[13.266930809354102,38.20381926545241],[13.267072757649716,38.20377518345144],[13.267297686784888,38.203941510613696],[13.268102065264763,38.20420881459233],[13.268428646543361,38.20422100420729],[13.268790565985405,38.20416417583892],[13.269287318560004,38.203984244756064],[13.269486626760001,38.20379676405839],[13.269849168123143,38.20358923695443],[13.270045014437262,38.203423892396934],[13.270376954475335,38.20299131832116],[13.270414743232351,38.20285236054754],[13.270403725385906,38.20266337462538],[13.270557517393295,38.202283361947444],[13.270568418025283,38.20206376806472],[13.270470723787762,38.20169472972951],[13.270373521515749,38.20155588162735],[13.2702279047947,38.2014457755107],[13.27005698152228,38.20106569758835],[13.270230528334126,38.20103088420863],[13.27035486282296,38.20095926100175],[13.270482191123813,38.200829389033245],[13.270565892542221,38.20064402393374],[13.270606495547238,38.200617111603634],[13.270820211072357,38.20052012165978],[13.271092978048019,38.20048160504403],[13.27122143949592,38.20040651674598],[13.271347870985906,38.20025436977709],[13.271480399771018,38.19997098193341],[13.271674343937242,38.19982230305144],[13.271759075932613,38.19968525375038],[13.272164870932672,38.1992440956226],[13.272491196244875,38.19913572317772],[13.272703079732066,38.199209570229534],[13.272897345872574,38.19919206430204],[13.273350174407367,38.19896572087019],[13.273609381637364,38.19892219381879],[13.273934004657576,38.19872850565563],[13.274119901233592,38.198802349545225],[13.27448198588642,38.19900073285225],[13.275089573376512,38.199535337622216],[13.27511113382276,38.199591520617695],[13.275063332603539,38.19981601459748],[13.275103543688347,38.2000012640088],[13.275229343527705,38.20019101205018],[13.275387330615517,38.200295936875655],[13.274382710309107,38.20025178629596],[13.274220193571104,38.20015259029724],[13.273997586628571,38.20011420952837],[13.273658355042404,38.20017880566733],[13.273478194668133,38.200330794959044],[13.27341132077222,38.20045638407637],[13.273382529607254,38.20059572471353],[13.273409763702768,38.20093582896003],[13.273606428320333,38.20127923180206],[13.273730307617349,38.20136928586957],[13.273875634197193,38.20141761805858],[13.275757968643434,38.20154240525434],[13.27598465476373,38.20197755205689],[13.27595698062971,38.20226344965541],[13.276003307112667,38.202457495848435],[13.276121813866702,38.20261798328501],[13.276448305516015,38.202857245638306],[13.27649264243238,38.20303047701878],[13.276602826438765,38.203183969881145],[13.276865745815671,38.203344946238715],[13.277204906420128,38.20336111492495],[13.277329129512093,38.20349338412649],[13.277558293897027,38.20361693322294],[13.28159555306278,38.206939133378285],[13.28148477846377,38.20720048434253],[13.281344615074273,38.207796905542516],[13.281344398318765,38.20827211618313],[13.281389024238841,38.208414129161575],[13.281495955716816,38.20855842820332],[13.281347056777575,38.2088865836764],[13.28131537284034,38.20908473975069],[13.28134462675308,38.209232832485796],[13.281453559323644,38.20947258718543],[13.281379750081408,38.20957202576954],[13.281202653228975,38.20959499242369],[13.281069807027775,38.209653737952834],[13.280828690045674,38.20989030366587],[13.280733045677618,38.21006509489756],[13.280718628522772,38.2102986337855],[13.280414925997633,38.21061341750391],[13.280318710100277,38.210840097743386],[13.280327892840736,38.211037623888444],[13.280412932448298,38.21121614325952],[13.280518889453257,38.21132052279659],[13.280798109251734,38.211489078305675],[13.280965504996407,38.21166524309222],[13.281159087554679,38.21173868015618],[13.281681336618337,38.211804242919904],[13.281891682113402,38.21178396754107],[13.282061136906927,38.211711466454844],[13.282289813836059,38.21152528627011],[13.282434374887798,38.21130253583632],[13.282737214988769,38.21097414118235],[13.283024498007798,38.210981907498834],[13.283157992416207,38.21092522685517],[13.28331792990239,38.210804826384326],[13.283476873990066,38.21057345271739],[13.283537878750527,38.21039527878805],[13.283528646629447,38.21020717695968],[13.283445772806504,38.2100291932036],[13.283658910930313,38.209972533917046],[13.28384358655793,38.209809605001865],[13.28402754729413,38.20972283039021],[13.284216057581698,38.20978074779926],[13.284412696500992,38.20977307231142],[13.284711113970568,38.20989872715634],[13.2848343062009,38.21002355627749],[13.285004293101366,38.210109318397215],[13.285146227620212,38.210128166037684],[13.285302977457448,38.210100486472875],[13.285511771525382,38.210329665270486],[13.285817480856197,38.210525637365556],[13.286042978546515,38.21072891036037],[13.28615965579843,38.210782884824646],[13.286435105774187,38.21103107682943],[13.286807265114927,38.21115045465099],[13.286966011511566,38.211271678909405],[13.287143342119267,38.21132137454442],[13.293288997740683,38.215885644452065],[13.293386296725915,38.21619489885829],[13.293687791677694,38.2167384656723],[13.293994967211361,38.21701104607338],[13.29419386388578,38.21710905932519],[13.29433033712136,38.21721751853266],[13.294520558618721,38.21727624954509],[13.294686378261932,38.21726439229016],[13.294898927466075,38.21758462808397],[13.295290629480894,38.21783180466283],[13.295425530208906,38.217872610253636],[13.295842325846733,38.217902742932495],[13.296752676382926,38.218268380843114],[13.298909768446332,38.21932622208567],[13.299364595823457,38.21964050075501],[13.299540948335393,38.21971153034753],[13.299714416832096,38.21972082288304],[13.300261796211576,38.21998925856678],[13.300410765381594,38.22010988686489],[13.300624769626642,38.22016726128392],[13.302386328906273,38.221031132645194],[13.302876549244475,38.22113586895485],[13.3030344928636,38.22126041351427],[13.303346354946912,38.22138086140433],[13.303624042754128,38.22153734521304],[13.303962358748691,38.22157443300182],[13.304141159889621,38.22150571104187],[13.304279521180465,38.22137665225806],[13.304359081537639,38.22139030670482],[13.313153329548685,38.22390223699247],[13.313707525774142,38.224377141257264],[13.313880659840434,38.22447370268457],[13.314113386271575,38.22469918964388],[13.314566641953668,38.22498876480996],[13.314768033432651,38.22500875366949],[13.314966371318903,38.224944170784774],[13.315438935368023,38.22500155608422],[13.315877570156584,38.22498707943503],[13.316329680616292,38.22516527739065],[13.316482048512034,38.22518426115132],[13.317735544898671,38.224893982239806],[13.318006656613575,38.22479595524066],[13.318341095174704,38.224750973691066],[13.318557074105891,38.224613001385976],[13.31894718724908,38.22408942148696],[13.319026610530244,38.223904516175956],[13.319278679221366,38.22364627896046],[13.319430515664765,38.22357904790867],[13.31956695639698,38.22344396508993],[13.31970925034588,38.22319247094782],[13.31974078065158,38.22293627815862],[13.32058334135273,38.22186024392436],[13.321075548787181,38.22168390825065],[13.32126459879523,38.22152962932262],[13.321358120076804,38.221304250390446],[13.321347624579822,38.22110651330772],[13.32145186323876,38.22095075776525],[13.321519619388715,38.220664523285926],[13.322099107437417,38.21992445912449],[13.322416641614062,38.21975177777067],[13.322652503093918,38.21952101146431],[13.322744940100373,38.21935530707296],[13.322829558233229,38.21899160044539],[13.328190992122904,38.212144513461475],[13.328310347058544,38.212287495160325],[13.328433610644655,38.21251312573807],[13.328808050197328,38.212742562651506],[13.328964304101024,38.21287965901406],[13.329399676400126,38.21299849042561],[13.329678961350844,38.212983657478986],[13.329867909795592,38.21303416271478],[13.33031910403151,38.212957667512555],[13.330737473938186,38.21269739371043],[13.330900718323667,38.21252206275439],[13.33111972127753,38.21220526534646],[13.331162298422432,38.21207118856078],[13.33116433270341,38.211854410456304],[13.331044483527936,38.21147888920033],[13.331052869186118,38.211329221219266],[13.331016715241422,38.21118427668312],[13.330905510085316,38.21101973100484],[13.330729380611976,38.210893305491425],[13.330661014300672,38.2106975507456],[13.330386020657405,38.210331166771894],[13.330213015092035,38.209955458041655],[13.330049946569204,38.20978483671411],[13.329978546854305,38.20956868004526],[13.329856247201983,38.20938299352501],[13.329662061016581,38.20922077547889],[13.329618868183285,38.20914020330323],[13.329572869664581,38.20901938730437],[13.329559747245128,38.2087910810892],[13.329330289164945,38.20825946722965],[13.32907840677447,38.20797331102069],[13.328915979689588,38.20764383549266],[13.32892381061366,38.20736852920899],[13.328869937193646,38.20723839122986],[13.328716576577342,38.207050934443195],[13.3287533247478,38.206796451254704],[13.328662970158174,38.2065637081575],[13.328515759662357,38.20642758526648],[13.328291544200546,38.206336849105],[13.328143301524847,38.20630818830086],[13.327993262280287,38.20632508675301],[13.327855108445112,38.206386003502914],[13.327741438175037,38.20648538359294],[13.327482013414468,38.20695085582753],[13.327347356551106,38.20691104496998],[13.326771788292305,38.20657490683539],[13.326694066817728,38.206443169906606],[13.32658611875015,38.20634538831447],[13.326279197325288,38.20619898013046],[13.326202341879814,38.206008122015994],[13.32614156051978,38.20555771944497],[13.326364209442483,38.20447132085951],[13.326523416401486,38.20392562704993],[13.326856184388276,38.20334749895826],[13.327339633584108,38.20268955625618],[13.327641895860134,38.20217617074839],[13.327903877958942,38.201839463536565],[13.328060660951422,38.20153332491805],[13.328267058711612,38.20123705686682],[13.3287393518607,38.20071752767051],[13.328995331673688,38.20057331508797],[13.329951458200636,38.1997419073608],[13.330364089496417,38.19931855896501],[13.331399353732197,38.19856462450552],[13.332675062139817,38.1977650574457],[13.333921949765847,38.197215348635],[13.334244867306081,38.19715337376314],[13.334897386501172,38.197129822839585],[13.335239183618596,38.197163104965156],[13.335102256161544,38.19726348895867],[13.335015249958918,38.197376993017585],[13.3349639346821,38.19751048456433],[13.33495782267112,38.1977005634528],[13.335000455934095,38.19783707592686],[13.335079990466475,38.197955935124426],[13.335244871249818,38.198106903404984],[13.335373741057094,38.19817675565401],[13.33561515943841,38.1982020531822],[13.335755710145692,38.19816043272324],[13.335948384103597,38.19804953133342],[13.336166629311627,38.198090522297875],[13.336382742422003,38.19803444571451],[13.336498234808516,38.19812542401544],[13.336633641106586,38.19817844266261],[13.336826890353146,38.1981847624555],[13.33696547134625,38.19814070396192],[13.337172886159562,38.197970608227735],[13.337319780421234,38.197908314539774],[13.337440520238255,38.197810938826876],[13.337771567554153,38.19773451108325],[13.338065741592178,38.19759332797039],[13.33820082375182,38.19747653476716],[13.338575452886394,38.197364197293716],[13.338995099707398,38.197088745692696],[13.3392794799584,38.19694970480266],[13.339504529784271,38.19678532156156],[13.339825856954223,38.196466487314055],[13.33991515561592,38.196252677335075],[13.340101761073456,38.196145535949654],[13.340759380830024,38.19555777266514],[13.34101907557774,38.19537450823359],[13.34119459927076,38.195090752162045],[13.34126798438812,38.194707463730445],[13.341614254811084,38.19457313394409],[13.341922461109574,38.19460785322739],[13.342067726969557,38.19458835600641],[13.342395333677462,38.19440020566367],[13.342633843132472,38.19445683723583],[13.342872856302316,38.194402879003384],[13.342993459339924,38.19431712303218],[13.343083678638056,38.194199821465595],[13.34315937028079,38.19401772714368],[13.343162407408718,38.19382972811186],[13.343348374653118,38.19359887485396],[13.343504755223492,38.19349981602995],[13.344081522924277,38.19335263766681],[13.344364247186517,38.19322135074761],[13.344608449554764,38.193072278243456],[13.34476531884734,38.192888133216464],[13.345051107215188,38.19279169153125],[13.345204888938886,38.19262930002062],[13.345440337184334,38.192612608562634],[13.345579110971308,38.19255744542413],[13.345940165442714,38.192302910249296],[13.346227498365359,38.192167630666674],[13.346401347440482,38.191975384010334],[13.346551115864196,38.19196198252167],[13.346722664109567,38.191882790066366],[13.346825146783448,38.191784377732226],[13.346905910838071,38.19163567198823],[13.3474683687122,38.19161045089025],[13.348073009120009,38.19165013929851],[13.348369795028265,38.19159161773957],[13.348976421533532,38.19159967513669],[13.349642476387526,38.19231214854253],[13.34972456269591,38.19249472519488],[13.350127151738198,38.19303038979275],[13.350322094115116,38.19315431013281],[13.35058560384814,38.193210875618426],[13.352503451687836,38.193090227696985],[13.352828667078088,38.192927614535094],[13.353004793809642,38.192660113246816],[13.353044391879145,38.192422149699674],[13.35299259377311,38.19219766439423],[13.352849337082246,38.19199959222998],[13.352586383934167,38.191844984093805],[13.352274785880029,38.19179799370212],[13.351960915078926,38.19190220540802],[13.351761374951826,38.191851941440426],[13.350904025927923,38.19190914752621],[13.350866674217745,38.19186927738228],[13.35105114206159,38.19181086440259],[13.35120609190272,38.19169338374465],[13.351286190514292,38.19157102219967],[13.351331092250232,38.191390605276034],[13.351415696096309,38.191395776127095],[13.351572588393394,38.19154839824418],[13.351762364126207,38.19162973472424],[13.35231921234413,38.19163436961314],[13.352570103588425,38.191589553316895],[13.352718812661873,38.19170186582607],[13.352902271204146,38.191752066928515],[13.35337264381063,38.19168393384436],[13.353590445469711,38.19172296197601],[13.353984068697544,38.191707939478576],[13.354199064366545,38.19164739013312],[13.354448356167762,38.19175511724562],[13.35460421049639,38.19176788344393],[13.35493614024851,38.191735174174],[13.355143218542128,38.19164425799209],[13.355405659678917,38.19165866116283],[13.356340261929347,38.19216202670386],[13.356885864575244,38.192273458794844],[13.35708571361897,38.19245318307001],[13.357267788676694,38.19251486991044],[13.357529894026436,38.192485095092444],[13.357842286897618,38.192532353035915],[13.358076395669721,38.19243815554755],[13.358445933650719,38.1923662213746],[13.358724153202832,38.19236057075166],[13.358853517824326,38.192320182163854],[13.359107673686877,38.192156779499825],[13.359353419532116,38.19188268712707],[13.359460406440876,38.191541359541475],[13.359700926685306,38.19110347329334],[13.359810161721223,38.19071572845254],[13.35994229752002,38.19051718219587],[13.359964615143657,38.19025091095418],[13.365173719834882,38.18381110831873],[13.365428319918347,38.183547649117884],[13.366150950946949,38.18254102857315],[13.36627681032005,38.18223458751766],[13.36822944681501,38.1754538428404],[13.368355749198901,38.174641977343065],[13.368217828148529,38.17416119234615],[13.368035139079389,38.17369704678201],[13.371969980299495,38.163431806444855],[13.372187747545095,38.16298061561075],[13.373527446210119,38.1593024416614],[13.373638363492574,38.15911591467649],[13.373674962767248,38.15889743151122],[13.375414414670999,38.15412172571592],[13.37544411605455,38.153942123445496],[13.376545109462015,38.15297668174612],[13.376797691331106,38.15293214187124],[13.376966860606988,38.152832632415375],[13.377061209376539,38.152719098540246],[13.377118293639558,38.15258296251256],[13.377133137559236,38.15243609083671],[13.376989948037677,38.14947573322305],[13.3769184926726,38.1492839383321],[13.376788897956473,38.14914406843779],[13.376299674946528,38.14845650975262],[13.376183161265182,38.14835982159002],[13.375993280254907,38.14829307451095],[13.375841894295123,38.14829559044168],[13.375521764752056,38.148381506119925],[13.375389895659923,38.148439528960644],[13.375280045006964,38.14853274345281],[13.375201333081028,38.148653410516346],[13.375160294894902,38.14879151183707],[13.375160337620601,38.14893558163154],[13.375201457710844,38.1490736585872],[13.375628450697322,38.14980634280627],[13.375754184759481,38.151387862582574],[13.375553208173304,38.151006800154235],[13.375134338281455,38.150471873630195],[13.375050389318256,38.150201356789665],[13.375024183020034,38.14981351102336],[13.37492723265765,38.149530493987605],[13.374821972989329,38.1493775723811],[13.37457715917297,38.14922295412281],[13.374264983950019,38.14913339951787],[13.37411321667076,38.14915067940731],[13.373973748414201,38.14921297312324],[13.37373358548379,38.149489853801946],[13.373543549886664,38.14937107286585],[13.372296677181563,38.14759402243201],[13.372269247309989,38.147430462694956],[13.372194277270859,38.14726130167541],[13.372189624126843,38.14668247524803],[13.372023100559394,38.14627777315695],[13.372040963311209,38.14615514156916],[13.373213456855002,38.14549731001441],[13.373331193901349,38.14540579124923],[13.373754504620461,38.144603520821626],[13.373805505067741,38.14441564713297],[13.373763109659341,38.14417691816226],[13.373650539581316,38.1440180926415],[13.373485846766933,38.143914295505695],[13.373259661273083,38.14385943851832],[13.37306705542229,38.14388307359045],[13.37286247158061,38.14401176613921],[13.372749579818354,38.14418595374074],[13.373927450072962,38.141641225882424],[13.373969331791443,38.14149714791362],[13.37396191093811,38.14132615948091],[13.37416621198591,38.14122483866265],[13.37431291159475,38.14102535461067],[13.37575153265912,38.13746356564572],[13.378271150916762,38.13271434607894],[13.378308799994498,38.13252392582443],[13.378271094420299,38.132333516748865],[13.378196369518633,38.13220810465621],[13.378046862138662,38.13208431099839],[13.37760481007455,38.13194749858835],[13.37736138067259,38.13198344977671],[13.37723424612518,38.13206042451273],[13.377135354024505,38.13217136889319],[13.376951358332112,38.13252496775167],[13.376916862224425,38.13274807180881],[13.375992055086302,38.1344996004795],[13.375792295756735,38.13453635811717],[13.375592982321448,38.13468420154862],[13.374999675817655,38.13579888624893],[13.374942901627309,38.136031575659416],[13.375018616155451,38.13629395208461],[13.374646408580967,38.13700652743868],[13.37339759619189,38.14007646228941],[13.372276843344935,38.139798418006386],[13.373064130721579,38.13786523725095],[13.373073431814632,38.13761774805369],[13.372993624472823,38.13743558351537],[13.372805385633608,38.137274637709275],[13.372509196656615,38.137188908576256],[13.372270747571124,38.13720833820608],[13.372100823450884,38.13730585473216],[13.371893996330087,38.136999622917095],[13.371686134130574,38.13686072515382],[13.371834921481714,38.136650807047886],[13.371861170658947,38.13640407514267],[13.371765576322643,38.13617510489303],[13.371515911504229,38.135970638235094],[13.371335993409438,38.13590779565717],[13.371145630723396,38.13591683768106],[13.370972479116638,38.135996450692],[13.370798038593158,38.13614596138556],[13.37068602978232,38.13602909956931],[13.370311825916152,38.13579009514721],[13.37111821091148,38.13369025848406],[13.372903875823672,38.134082474364384],[13.373138295846546,38.13405513410117],[13.3732635058669,38.13398716733668],[13.373364464519163,38.13388664678751],[13.374049394503713,38.13211751856274],[13.375851856682935,38.12710596111452],[13.376058601690085,38.126914365208556],[13.376156610468074,38.12669944470328],[13.38085591391149,38.12279076953631],[13.38098048792821,38.12257666724686],[13.380987011199956,38.122329046724865],[13.380873882694676,38.122108682441734],[13.38052536066351,38.1218460621123],[13.380281266751595,38.12179823783483],[13.380044333124186,38.121873944212055],[13.379739711392793,38.12211073908498],[13.3796092405543,38.12231602823023],[13.375346392660287,38.125836543132216],[13.37498748072223,38.12582316664137],[13.37485464582227,38.12587767147237],[13.374742777624151,38.125967679213694],[13.374641832757685,38.12612973938486],[13.372252198562926,38.132412559107394],[13.371673706720534,38.13228681005688],[13.371459555455571,38.13228775744835],[13.371209507806723,38.13222754431346],[13.37162940629659,38.130836427434495],[13.37162210951295,38.130590261700654],[13.371532073529025,38.13041485306149],[13.371423487843803,38.130313846223984],[13.371290050875544,38.13024913295054],[13.370308853617704,38.130060628583585],[13.370162011752596,38.13008182455627],[13.370027854217819,38.1301451772079],[13.369918193210067,38.13024510851423],[13.369842684075163,38.13037281980251],[13.369274535503926,38.132297796889375],[13.368050411901484,38.13207653994465],[13.367810525432485,38.13211526862414],[13.367605390016003,38.13224929420361],[13.367503142763695,38.132417395002875],[13.36743958256329,38.13274075548346],[13.367483434914986,38.13292681660264],[13.36763022492985,38.133114308644046],[13.367847091200101,38.13321264274232],[13.36895734163775,38.133420731755734],[13.368262225201658,38.133306182317064],[13.368068411712127,38.133310878373],[13.367932243635668,38.133363014258585],[13.367816906546151,38.13345221768561],[13.36769644951721,38.13366149922382],[13.367655782449328,38.1339911985564],[13.367741850552692,38.134219249069105],[13.367842710755784,38.13432646735427],[13.367970421682934,38.13439966885923],[13.368652605671727,38.13453062732408],[13.368576639035515,38.13480730957453],[13.36824951868661,38.13467194202147],[13.368062751174923,38.1346503745047],[13.367694161404419,38.13476687695728],[13.367555804570868,38.13484379285617],[13.367263619769966,38.13491627680345],[13.367147347200039,38.13491047922685],[13.363363629339105,38.13368108983542],[13.363275983153745,38.133432569031704],[13.36369503750445,38.131228375232574],[13.365871520744976,38.13148291534424],[13.366064057276919,38.13146788201865],[13.366236534763965,38.13138100375052],[13.366363222105976,38.13123524149756],[13.366609700721686,38.13047377796015],[13.366594939892925,38.13033161048233],[13.366540558968579,38.13019942807472],[13.366451001843323,38.13008803240545],[13.36628986508013,38.1299872332674],[13.363582117058323,38.12949522554565],[13.363625317478995,38.12941057771555],[13.366821300028459,38.12979688694928],[13.366967776926986,38.12979296496434],[13.3671494237154,38.12972253041743],[13.367290362265578,38.1295880205434],[13.367703241113603,38.12886269992489],[13.367757224987614,38.12871984200451],[13.3677626687806,38.12853805257803],[13.367707400238803,38.128354125175555],[13.367586876663957,38.12820459936173],[13.367418879574522,38.12811153551787],[13.364632666601937,38.12776796997953],[13.367701168861592,38.12793595245004],[13.367845845360126,38.12792273504653],[13.368021327115448,38.12784198049602],[13.368125474475878,38.127740692212896],[13.368528410992731,38.126956895489016],[13.368552341219633,38.12676647886547],[13.368502779870807,38.12658107439145],[13.368349563346179,38.12639757755703],[13.368175976130686,38.1263157324295],[13.36544591073276,38.12615787729905],[13.365484883841809,38.12605498404518],[13.369228461451916,38.12588589072152],[13.369373210531862,38.12585757638515],[13.369503400920046,38.12578826216862],[13.36965825730892,38.12559940907273],[13.370337050953673,38.124206957395906],[13.370450777535625,38.124132036488135],[13.370546509001986,38.12401810412295],[13.370993014117373,38.1230777542653],[13.370996670271477,38.12283869432425],[13.370888911058882,38.12262526758044],[13.370738303781904,38.12250627434424],[13.370429786930426,38.122406332934645],[13.37105251962021,38.12197394252831],[13.371233198632488,38.121964636108366],[13.37194353306568,38.12263531837979],[13.371213030417929,38.12537916425474],[13.371187444898416,38.12556090047755],[13.371211947166723,38.12570894043857],[13.371300428446254,38.12587997229548],[13.371409735916123,38.12599124132619],[13.371716016589955,38.126123895255446],[13.372071143983367,38.12611891938775],[13.372194946430604,38.12607744546414],[13.372375947312007,38.12596134184393],[13.372473278423886,38.125840391605045],[13.372528818217944,38.12569541699726],[13.372661909695521,38.12498840944483],[13.373260000338595,38.12263473615162],[13.373282947229322,38.12238974090062],[13.373242765413202,38.12220535725451],[13.373137105348746,38.12204899914605],[13.372592844774069,38.12150683427924],[13.372342037242342,38.121398341029675],[13.372146661744797,38.12121423203679],[13.372853576669083,38.12069490353168],[13.374411346959908,38.11972702770492],[13.376627544945679,38.117652509099045],[13.37736754494568,38.116894209099044],[13.377810928886493,38.116365512705094],[13.378023864086561,38.116254502790504],[13.378408317756014,38.11595915172321],[13.379317316558947,38.11475654611915],[13.379617953979983,38.11469540745783],[13.379791908301994,38.11458006029925],[13.380362949758107,38.11377716314842],[13.38044512736134,38.11354293345793],[13.380422431569164,38.113344894240925],[13.38032417138616,38.113171459622436],[13.38016596414057,38.11305019504436],[13.379888455723085,38.11299598182731],[13.379900569313483,38.11297080544895],[13.380355881921194,38.113062018205994],[13.380505658215501,38.11302958484965],[13.380638576304865,38.112953311378114],[13.380804647779254,38.112753396156435],[13.380863891324015,38.112514354510154],[13.380801835561092,38.11227602744803],[13.380672210230916,38.11212380545083],[13.381209545343882,38.11162027084717],[13.382808347977573,38.11033447182001],[13.383103424406054,38.11016821275617],[13.383337686003811,38.10995834786308],[13.383426532773624,38.10983731138719],[13.383907417667837,38.10945057113788],[13.384492319733885,38.10910246517408],[13.38984206442355,38.10668142036863],[13.391128914925535,38.106231051976536],[13.391338729889284,38.106057470959904],[13.39173345678662,38.10590613498789],[13.392433577722956,38.105690868887955],[13.392636299903524,38.10568958568784],[13.392800244858806,38.10563025289599],[13.392991950891219,38.10548763480341],[13.393086543792357,38.10534720568824],[13.393140553208564,38.10518264224132],[13.394308406696307,38.104711822552616],[13.394709197862117,38.1045843509251],[13.395857370119566,38.10437824061078],[13.396146699784993,38.10435904231136],[13.396505410899858,38.10440620550219],[13.398239622626361,38.104145068021346],[13.398438396470805,38.10404546853001],[13.398825477719292,38.10393492961497],[13.399333091301658,38.103712097765026],[13.400831928887525,38.10330693438561],[13.401042573352235,38.103162727789105],[13.401435740836433,38.102982490225486],[13.40167713177259,38.10273691527326],[13.402699387590564,38.10189323588694],[13.403397967465843,38.101534239685655],[13.404085796712652,38.10080892246127],[13.404451605865615,38.100674240727955],[13.405443381321751,38.100420947673726],[13.408051048591846,38.09984080446341],[13.410565964947377,38.09939760759492],[13.410783794702825,38.09947408350013],[13.41098024080952,38.09947239338016],[13.411160872542759,38.099395152806046],[13.411287836233479,38.09927072782191],[13.412362709094344,38.09908180269464],[13.413302014398496,38.09895204913022],[13.414041550050024,38.098926617764484],[13.414690358896392,38.09877183946453],[13.415475697354404,38.098696116067856],[13.415816621553923,38.09870660544803],[13.415999293870122,38.09917753895441],[13.416128505176594,38.099319598865115],[13.41625561802266,38.0993881472557],[13.416445306564365,38.099418061083526],[13.417018411854164,38.09933705860069],[13.417424444301938,38.099446560864706],[13.417655793388077,38.099393067206684],[13.417806526085464,38.09927637985609],[13.417896845415479,38.099139860137875],[13.418037236918066,38.09910956788505],[13.418990387054286,38.09900944449117],[13.42007750927512,38.09882351215011],[13.422474706293398,38.09856306543658],[13.423099272547779,38.098527592188965],[13.423768132816168,38.098634558397954],[13.424430942936699,38.098862148754044],[13.425091391383203,38.099026786178094],[13.425728445771515,38.09935175883435],[13.426039500419193,38.09935575624919],[13.426648987046677,38.099476356454126],[13.427075643357133,38.09950912824028],[13.427508372127326,38.09963991387063],[13.428050072127325,38.09968451387063],[13.428576638971867,38.09965441374376],[13.429470661147398,38.09925381109153],[13.429795284822912,38.099069807103824],[13.430098712905401,38.098813162060566],[13.430537724230254,38.098568805041765],[13.43100281817013,38.09820738931978],[13.431629231200397,38.097489105806254],[13.431863735641526,38.097308254806904],[13.432227227766937,38.09714045266783],[13.432631851525134,38.096872888535465],[13.433432178337123,38.096584423305444],[13.433714442965798,38.09642141772928],[13.434780244269477,38.09599077235576],[13.437063978238081,38.095757753808556],[13.438183588563092,38.09569343670713],[13.439096212555874,38.09570637327425],[13.439319085044538,38.095673452773575],[13.440055669720875,38.09545810940937],[13.44058402858258,38.0954069],[13.441344379554424,38.095437473317084],[13.441594940417477,38.095344995294084],[13.442519245816952,38.09531096256693],[13.442970674464124,38.09532489706555],[13.443550681319355,38.09542002444226],[13.44495143420876,38.0954897055669],[13.445652798359127,38.09565023804095],[13.44590072648731,38.09564511175581],[13.446488681400039,38.09553838517192],[13.446998523556205,38.09556958327779],[13.447345205085384,38.095652961907334],[13.448274378922637,38.09565501043486],[13.44873018653294,38.09568654821447],[13.448995698230338,38.09575369998964],[13.44923250517461,38.095721878854704],[13.44943739023056,38.095790730760605],[13.449680376166098,38.09577946972638],[13.450579338489078,38.095916651626645],[13.451063507564099,38.09580501620712],[13.451193063408304,38.095739731290294],[13.451298423715144,38.09564000144082],[13.451397407848942,38.095421063354934],[13.451564279581868,38.09348802022191],[13.452005242683043,38.09332263870021],[13.452320934362156,38.09314200404565],[13.452453149755414,38.09299869193579],[13.452532669519043,38.09285869471888],[13.45258439320614,38.09260008202901],[13.452535712062321,38.09206745724388],[13.451876554166324,38.0898186964958],[13.451957899972369,38.088617931520645],[13.451855068399224,38.08840251257021],[13.451664085603399,38.08825931610259],[13.451524729898818,38.08822258522946],[13.451333706404624,38.08823784761483],[13.450495420794034,38.088648436318465],[13.448397066088539,38.0891104205758],[13.447579489265266,38.08940734858818],[13.446991983645196,38.089757275281485],[13.446723231395497,38.08995875826851],[13.446532777108407,38.090144369154025],[13.446166873574718,38.09065783138236],[13.445997560267593,38.090845690997625],[13.442239583759148,38.08902922036893],[13.443124553495503,38.088296647764615],[13.443248902928769,38.08809317593497],[13.443270900718634,38.08790300848256],[13.443227954278653,38.08772156734324],[13.443129335695563,38.087561892555435],[13.442372989624824,38.08694812948653],[13.442231223790193,38.08649024519616],[13.44220993807596,38.08569067704938],[13.442100921795056,38.085470913421176],[13.441945814501958,38.08534949167736],[13.441805044861802,38.0853032800885],[13.441656913105323,38.08530035002755],[13.44064433308472,38.08550948193322],[13.440043557503245,38.08553956952555],[13.43966796314394,38.08551815015959],[13.438148775416517,38.08526285440259],[13.436886503044972,38.085151429127976],[13.436731595691578,38.08517779412092],[13.436508315420875,38.085280619425625],[13.43604348823437,38.0856295037224],[13.435672301659903,38.08583367805116],[13.435292754108218,38.085671372869044],[13.434248244650849,38.084253785684666],[13.434433453265031,38.08347032454533],[13.434751470686122,38.08273151191595],[13.434779272400286,38.082588563478694],[13.434764704488032,38.082443667077925],[13.434663499004406,38.08215393215728],[13.434690585302647,38.081989466315456],[13.434666953823601,38.08184135581702],[13.434472082226257,38.08147612587212],[13.434276191601935,38.0812519134622],[13.433917716823336,38.08106953394152],[13.432813942343682,38.08073649350317],[13.43216919152647,38.08049580918404],[13.431249765623114,38.08003581201766],[13.431141636686709,38.0798984614596],[13.43052977035877,38.078768212637634],[13.430481139577994,38.078371546962174],[13.431508953662863,38.078081627697365],[13.431891801858773,38.0779382674256],[13.43375924242298,38.07748861250989],[13.43387764823783,38.07741785891792],[13.434251251123678,38.07705909494618],[13.434537297005587,38.07688452417684],[13.434677607484383,38.07668031095669],[13.43470760031439,38.07648361886464],[13.434660123616894,38.07629461704919],[13.434716452926322,38.07580985525384],[13.435237917626083,38.06847993139695],[13.43519697885437,38.06806486097346],[13.434735641917237,38.06699050342298],[13.434642564150458,38.066870387206215],[13.434427654772346,38.066724831014696],[13.434301215550262,38.06633735470627],[13.433928435558443,38.06577331559027],[13.43379347249074,38.065637048635935],[13.433663752404755,38.06557398959183],[13.433521429210693,38.065550583349435],[13.432882910383238,38.065706544703595],[13.432680968194676,38.06564041990674],[13.429830970304478,38.06387103013223],[13.429828176598239,38.06373331169252],[13.429784832660333,38.06359573609134],[13.429704019022353,38.06347625848293],[13.429592461235428,38.063384822148954],[13.428423698242181,38.06284830998032],[13.42812151735018,38.06280973510892],[13.42588822725207,38.06142322156914],[13.425802649751216,38.06119963290123],[13.425614769648547,38.06103772032493],[13.425372198218147,38.060986012332364],[13.424987069745592,38.06103809120987],[13.422853175919698,38.06024797257567],[13.422818797166038,38.059747785609716],[13.422586196260658,38.05935701452246],[13.422154606242,38.059024033180435],[13.42179877732132,38.05889364981042],[13.421616141110375,38.05886791823563],[13.421152150606197,38.05890787056096],[13.42055851909122,38.059167137992375],[13.420350928309201,38.05932146328057],[13.419925991986934,38.059179691508234],[13.415120361731327,38.058637461598565],[13.41444520915681,38.05828489169483],[13.414261256382451,38.05822857554036],[13.414116701390698,38.05823460594509],[13.413532396235892,38.058393268117456],[13.412979795683295,38.05828600322449],[13.41249734078474,38.05837706789511],[13.411754780323502,38.058310852327445],[13.41018313447724,38.058366052361784],[13.409604156500249,38.05822593532643],[13.409418553809978,38.05826404498261],[13.409230000082776,38.05840125480833],[13.40484100579481,38.058927206168555],[13.404442748800866,38.05889700313794],[13.403854338022855,38.058915496722996],[13.402891608389607,38.05910309897154],[13.402684975606485,38.05919606247404],[13.402201508723545,38.05963713080253],[13.401802136610389,38.059892597721515],[13.401684292607696,38.060102803060516],[13.40168058315261,38.06035144377681],[13.401156830134223,38.06103698108594],[13.400822959255466,38.06134542717103],[13.400657140519591,38.06145435741735],[13.400562576286664,38.06158598156633],[13.399340074027688,38.06271538835135],[13.39906209620212,38.06281970875982],[13.398316673003409,38.06336395384464],[13.397873820793942,38.06406242906315],[13.397355436768002,38.06444802711721],[13.396058911106167,38.06561541155313],[13.395756356055646,38.06567200651234],[13.395280439105429,38.065984121629334],[13.39381548623245,38.06628089376549],[13.393505527696474,38.06625193758494],[13.393185663761184,38.066342205899964],[13.39289915478537,38.0659909288985],[13.392371272581727,38.06577352187473],[13.392191561137928,38.06575822274519],[13.391393992856939,38.06590712648011],[13.39034549612127,38.06628982205425],[13.389731343241518,38.06642087656266],[13.388275392009206,38.06681562205831],[13.387558340664262,38.066749208175864],[13.387201236792913,38.06683964029795],[13.386047625584022,38.06740423938953],[13.38511640633314,38.06793865879867],[13.384659330430015,38.06813361327388],[13.384486201439445,38.068168645384],[13.383577677172061,38.06764731916615],[13.383390644919434,38.067587362251814],[13.381611758352625,38.06738991116673],[13.380247978636591,38.067558938611164],[13.37967334955162,38.06757790092792],[13.379090870977826,38.06747851748223],[13.378410813528177,38.067203111780714],[13.377720011715722,38.06701004281656],[13.376815679397069,38.06709800960654],[13.376007912160112,38.06735943377842],[13.375624035692434,38.067559659250904],[13.375378864323913,38.06759142383007],[13.374932768051327,38.06790938228972],[13.37349350143471,38.068593048001745],[13.372223711639244,38.06981970971404],[13.371494955603955,38.07013018042963],[13.370959373199272,38.07086549094321],[13.370476831301863,38.070999834661414],[13.370140130986018,38.0712382989419],[13.369916482618454,38.071286414892256],[13.369722350561347,38.071381548821535],[13.369267334645073,38.07142680698281],[13.368805079485321,38.07138899208856],[13.368513836695065,38.071451228621186],[13.368426510625822,38.07125207091648],[13.368617737621866,38.0707040088477],[13.368901209826285,38.07063470614416],[13.369061311863243,38.07052588039794],[13.369458510343843,38.06992233809631],[13.369865383922244,38.06857572976264],[13.369847355509407,38.067665385774475],[13.369905057089298,38.067458433122376],[13.370167285698914,38.067087208622084],[13.370199614058087,38.06694599229447],[13.370190101207038,38.06680143545564],[13.370105570350727,38.066488152555834],[13.368948348023254,38.06424645395466],[13.36841797584331,38.06358896780757],[13.367912494222569,38.063267830517574],[13.367475834716297,38.063059478847435],[13.36731191755488,38.062933337091266],[13.36711409187504,38.062683409610656],[13.366763719948148,38.06244958572327],[13.366621445421824,38.062401599885554],[13.366268514618291,38.06237287196425],[13.365887961381652,38.06241843673185],[13.353996257983766,38.06075605544821],[13.353375158726589,38.060624057504256],[13.352881383536971,38.06061473115059],[13.351929009812805,38.06071431850855],[13.35106730142057,38.060891113808324],[13.348985271749138,38.06143701629059],[13.347061617512985,38.06119223775266],[13.346385495326576,38.06078248748693],[13.344526932601275,38.05986205157206],[13.343557681533543,38.059543420963756],[13.343513544021706,38.059260325320324],[13.343525064080774,38.059030433312834],[13.34369159597589,38.05853560851156],[13.343623284309698,38.05796990941076],[13.343004950998159,38.0564865232601],[13.342887693328843,38.05634146451141],[13.342725430430832,38.056249474547215],[13.341806315831382,38.05611062648692],[13.341626651621187,38.05611787089773],[13.339880851621187,38.05651027089773],[13.339440406479898,38.056710041316286],[13.339124445861206,38.05674267915148],[13.338882669521235,38.05669820142856],[13.338206385530473,38.05643237075952],[13.336813399272222,38.0561358293747],[13.336239051721344,38.05615754669037],[13.335610312519021,38.0563938660577],[13.334558419215792,38.05700956563667],[13.333819859085635,38.057350293445595],[13.333372487266677,38.05775340411328],[13.332926521953954,38.057340923237234],[13.332427788334599,38.05723056589289],[13.332081439083812,38.056706501002765],[13.331512862326997,38.05610187929404],[13.330915325892233,38.05579080961285],[13.330381235227811,38.055655265783685],[13.33011899209464,38.05554201487422],[13.329844570241693,38.05529782777184],[13.32968578946017,38.055065831001784],[13.329472792602488,38.054609495845305],[13.329179674661097,38.054218121681274],[13.328940988588432,38.05382854718559],[13.328725622712817,38.053334044224904],[13.32841728946574,38.053016051589715],[13.328198288153787,38.0528981353584],[13.326922432883151,38.05257283171519],[13.325932334241806,38.051634423402234],[13.325051087991131,38.05028101348114],[13.324947620845826,38.05016598010639],[13.324500027262005,38.04987974207492],[13.32401337584693,38.049799716760695],[13.323687490535542,38.04949611144009],[13.323515609795008,38.04942444713064],[13.323375900855565,38.04941504129645],[13.322890570225889,38.04950564074995],[13.322409260541452,38.049811499386855],[13.318353814733438,38.05022728692762],[13.317944937740306,38.050302758724435],[13.317123068333471,38.050663600666255],[13.313543267935653,38.053130700940414],[13.313434454976996,38.05323270917851],[13.313360572151414,38.05336227487109],[13.3133312511975,38.05360746246859],[13.313422846700623,38.05383678089375],[13.314108650142703,38.054478533529505],[13.31417265297611,38.05466107750071],[13.31425359065925,38.05477470997667],[13.314899100037739,38.05545394743351],[13.315915026641452,38.05639830000037],[13.31668588117932,38.056998409896416],[13.317311869879443,38.05717723915872],[13.317654844125315,38.057534013437554],[13.317904435602383,38.05773970134691],[13.318932573017658,38.05833431945763],[13.319782051991366,38.05938645645996],[13.320399941348139,38.059773461607286],[13.320998752323575,38.06046534004045],[13.321539085182458,38.060911352003956],[13.322129427908783,38.06161469188552],[13.322238808961975,38.062083652813016],[13.322556476835612,38.06265113201671],[13.322502235565194,38.06298501292238],[13.322700288676192,38.0635346179143],[13.322867133886053,38.063701481958816],[13.32355178945383,38.064022778505866],[13.323738325055336,38.06430717442083],[13.324276955819492,38.06495660532651],[13.324699090741579,38.06566825592995],[13.324446250258898,38.06591507970181],[13.324180201728057,38.06626308142119],[13.324031349260839,38.06630843015152],[13.323879062903147,38.066423440164016],[13.323008662903147,38.06739224016401],[13.322901215349198,38.06754543532222],[13.322849521714783,38.067744488271515],[13.321800649989004,38.06894591267798],[13.32169572145757,38.069010909299045],[13.321140595147169,38.06919767381614],[13.320530053651506,38.06930923876533],[13.320395749586645,38.06939088268219],[13.320203970857348,38.06958185172432],[13.31999514134027,38.06956471061898],[13.31984689640883,38.069588205863774],[13.319256564557275,38.069905918779725],[13.319139529722964,38.06999620560726],[13.31903388749068,38.07016191824621],[13.319000267556994,38.07035554329626],[13.319025629031273,38.07060501945955],[13.318956141265337,38.070645328380046],[13.318370385199337,38.07065199378817],[13.317961526534608,38.06996545519305],[13.31762104861752,38.06970027392992],[13.317433320326893,38.069626516028386],[13.316691195415922,38.06963985301981],[13.315601478308773,38.06972952776875],[13.315119339843152,38.06978693366616],[13.314903843885652,38.069891675996466],[13.314807238053877,38.06999935679353],[13.314745503190453,38.070130187399386],[13.31472380720495,38.07027321580566],[13.314759795220077,38.07046217819037],[13.314899737059536,38.07065666660912],[13.3152822118017,38.07091690686793],[13.315108652409327,38.07110028763273],[13.315039512614755,38.07132108914973],[13.314843425477548,38.07163074503481],[13.314803,38.0718277],[13.314814926062052,38.07221714055468],[13.31445576785525,38.073124758986665],[13.314346140929144,38.07356351185665],[13.314205013576698,38.07365093136899],[13.309308850764593,38.07413444326707],[13.308496235556333,38.07398552747],[13.305944743643268,38.07400060625054],[13.30350259036096,38.074071979483925],[13.302831125480699,38.07423367589637],[13.302626136943035,38.074374578731],[13.302527558670942,38.074548314479905],[13.301575550522447,38.07750583898055],[13.301586749603471,38.08459522940135],[13.301465333746236,38.08470591919369],[13.301391665010268,38.08483683244258],[13.301337742604172,38.085170533503586],[13.3014867609833,38.08565319322401],[13.301589134788573,38.085804142388675],[13.301596759839791,38.08878010002018],[13.3016712609112,38.089584161461005],[13.301961348188495,38.090809906854844],[13.301875210704313,38.091010176594644],[13.301877148176796,38.09120269828078],[13.301951687996649,38.091380214952366],[13.302139311458069,38.0915618793646],[13.303005276357682,38.09522095913131],[13.300028833173982,38.0985934864059],[13.295805870554382,38.10020372807936],[13.29559691598505,38.100159416941615],[13.295025254971755,38.100193830982484],[13.294798153659395,38.100274877414314],[13.294617232536886,38.10026437281433],[13.294431841669523,38.10031733299258],[13.294250470234923,38.1004747489566],[13.293218528601953,38.101940397475346],[13.289679204013131,38.104459123127306],[13.289593692961475,38.10458415533623],[13.289549547888377,38.10472905670179],[13.289577017020397,38.10497827986229],[13.2911728086866,38.10819777856895],[13.29063993976879,38.10822566029383],[13.289772020649208,38.10787771508396],[13.289458322197024,38.10778407382427],[13.288481820534361,38.10759018499763],[13.288233564735453,38.10757071074072],[13.287835532145337,38.10760475393181],[13.286391177322232,38.10799456977449],[13.286070089580411,38.10794457206543],[13.285194797093558,38.10756837404319],[13.284342344373652,38.10738701726746],[13.283981803415934,38.10689027232921],[13.283542239848483,38.1065282218141],[13.281602015624602,38.10542611752681],[13.28037842077396,38.10512640036718],[13.27027355068159,38.10385298997265],[13.268619467579045,38.10382820629331],[13.26820244590968,38.10371057871105],[13.267667138345496,38.10361038764826],[13.267456600296946,38.10362525949124],[13.267032651830077,38.103758799999994],[13.266497096675312,38.103672999943505],[13.266253190671026,38.103692268363595],[13.265972079908787,38.10379355250153],[13.263508200552279,38.103773626305944],[13.262615781825197,38.104108395214226],[13.262076356446281,38.10456442196824],[13.261938104872296,38.1046079876987],[13.261418440379538,38.10451619187235],[13.260714315242396,38.10425829270835],[13.25965522454774,38.10420472965671],[13.258092051154991,38.103928603819156],[13.257027627029618,38.1037007439278],[13.255105727733952,38.103240217468155],[13.254037378285602,38.1027468692302],[13.253460322846259,38.10252612115064],[13.253075669138596,38.10246702786422],[13.252708078908277,38.102480301366455],[13.251993321356057,38.102329458955666],[13.251297087671775,38.10230258890052],[13.250300394880322,38.10204436667253],[13.250166568239552,38.101965093910245],[13.249060257921707,38.10152756836708],[13.248626108824032,38.10150546555555],[13.248307722131504,38.10144263509219],[13.248050197657353,38.10146138769917],[13.246935192945543,38.10117251333049],[13.246909772646065,38.10092439910784],[13.246775477206253,38.100726858310196],[13.24639844590173,38.100456525092284],[13.246042837763822,38.100352877752144],[13.244111316370601,38.100255183459375]],[[13.372524969572705,38.144590877468545],[13.372498286252073,38.14463355281299],[13.371633182319014,38.14508076364537],[13.371592243486237,38.14494948155944],[13.37150489940092,38.144816299616785],[13.371098894426304,38.14439832392645],[13.370851668173366,38.14422561413172],[13.370455188503412,38.144022868218165],[13.370262931921005,38.143868480929],[13.370014648613752,38.14376616638533],[13.369729854807652,38.14372449023814],[13.369706203218513,38.14345225821086],[13.369487235036328,38.14300129743029],[13.371120867254644,38.142492511293995],[13.371680719912812,38.14374743525613],[13.371594574435537,38.14387917530066],[13.37151267521092,38.14411855160301],[13.371528982809917,38.14431665318793],[13.371591626196244,38.144452412942265],[13.371774708010998,38.14461900333682],[13.372085637301304,38.14471912171478],[13.372323387551377,38.14470759717839],[13.372524969572705,38.144590877468545]],[[13.375785739131405,38.151802826100926],[13.37579130227141,38.151871329455936],[13.375768162168301,38.151879160084555],[13.37578049559785,38.15183172975334],[13.375785739131405,38.151802826100926]]]}}]}