{"type": "FeatureCollection", "features": [{"type": "Feature", "geometry": {"type": "Polygon", "coordinates": [[[13.39490313907726, 38.069748645944145], [13.39492543073021, 38.069496790122926], [13.394930354585469, 38.06927124261853], [13.395004142176846, 38.06896700713033], [13.395246624854622, 38.06862525174064], [13.395572151084545, 38.06832444174782], [13.396164457250451, 38.06810690543642], [13.3966028276295, 38.06801998461382], [13.397039164337333, 38.06802593220371], [13.397324470778603, 38.06802982019453], [13.39785775117442, 38.06820960882877], [13.398538315549507, 38.068563941470174], [13.398817837890984, 38.068833175773186], [13.399429553486426, 38.069266193757585], [13.3996899923157, 38.06964134657494], [13.39985290401152, 38.06986917821469], [13.400146625885094, 38.070258051532576], [13.400510366398157, 38.070515158365815], [13.400827224029316, 38.070612362501535], [13.401293107017642, 38.07080449573911], [13.40165686342827, 38.071061599273165], [13.402292893039865, 38.07114987494301], [13.402489098187612, 38.07139142393738], [13.40260341331529, 38.07153896338928], [13.402128861217145, 38.07174486412662], [13.401319230143244, 38.07191966438512], [13.40089877379574, 38.07195376336748], [13.400228880221228, 38.07187830267299], [13.399779205819653, 38.071712923404576], [13.399531786067513, 38.07151048715865], [13.3994857695, 38.07131078393241], [13.399474767078775, 38.071045205401475], [13.399479099024253, 38.070846187039834], [13.399350033275736, 38.07060554677712], [13.399000767150945, 38.07045479876254], [13.398580617968241, 38.07047562451988], [13.398277365432111, 38.07052458511552], [13.398143390201014, 38.070509484233646], [13.397705294589846, 38.07058315333902], [13.397371084908631, 38.07051224071148], [13.397055101598674, 38.0703752163632], [13.39660398860178, 38.07027616391934], [13.396021507266951, 38.07004260682641], [13.395587176336713, 38.06994378678693], [13.395286540484355, 38.06987332666925], [13.39490313907726, 38.069748645944145]]]}, "properties": {"anno": 2018, "id": 19716, "data": "2018-04-26", "localita": "Monte Grifone", "sup_ha": 12.0081, "sup_boscata_ha": 0.0, "sup_non_boscata_ha": 10.6286, "squadre_aib": 0}}, {"type": "Feature", "geometry": {"type": "Polygon", "coordinates": [[[13.26262694247683, 38.130030803905], [13.26263802357385, 38.12996874290274], [13.262673860738452, 38.12991615264848], [13.2626823772725, 38.1298813672837], [13.262710417372324, 38.129833214388256], [13.262728456717413, 38.12980160683344], [13.26275766875424, 38.12978534476715], [13.262817432159817, 38.1297771233687], [13.26286922004975, 38.12978091823363], [13.262923212617793, 38.12977261232303], [13.262953585302837, 38.12978823997966], [13.262991861864172, 38.12979487279357], [13.263044262056328, 38.12977288603332], [13.263066433484052, 38.12972919806504], [13.263086614624942, 38.129688518503045], [13.263106617237225, 38.12965541784609], [13.263124450859628, 38.12962376843467], [13.263155965213903, 38.12959998940723], [13.26318738191244, 38.12957161746188], [13.263224702869273, 38.12953726523979], [13.26326195198636, 38.12950594258023], [13.263287990744999, 38.12948536010041], [13.263356867422752, 38.129473948770446], [13.263426226434321, 38.129465868951016], [13.263493704188523, 38.12945624640584], [13.263533774207856, 38.12945483377351], [13.263574091176151, 38.12946957556198], [13.263602510846267, 38.12948668994463], [13.263638289514384, 38.12950571456305], [13.263670753182868, 38.12952563909265], [13.263677470442575, 38.12956671644352], [13.263697589844588, 38.12960951401453], [13.26369459307783, 38.12965500046258], [13.2637110130079, 38.1296916685441], [13.263691190624403, 38.12971717420001], [13.263688868197626, 38.12975042731059], [13.263646776525304, 38.12980758716836], [13.263632284262824, 38.12985138788408], [13.263594927249038, 38.12988726267988], [13.263549433494394, 38.12990912651038], [13.263522704434546, 38.12993476341894], [13.263508366246183, 38.1299724916038], [13.26345965622126, 38.13000061603754], [13.263427892267433, 38.130027895205366], [13.263396967685859, 38.13005128741038], [13.263356305170582, 38.13006435147906], [13.26333246958941, 38.13009738738575], [13.263310549972328, 38.130130452521215], [13.263264090959124, 38.130144944806645], [13.263215236961116, 38.130179134589255], [13.263161351974153, 38.130182890409245], [13.26310695326008, 38.13020788550715], [13.263065931109066, 38.130236115362564], [13.263017483985752, 38.1302536159914], [13.262965191303683, 38.130271052512114], [13.262900098456218, 38.130260986099024], [13.262850010487531, 38.13026632001506], [13.262801815144684, 38.13027319767459], [13.262768903444853, 38.130283331132276], [13.262746182538525, 38.13026933779324], [13.262733489396734, 38.13023727652526], [13.262711381257226, 38.13019748722375], [13.262695387058494, 38.13016443719847], [13.262673204131097, 38.13010586188191], [13.26262694247683, 38.130030803905]]]}, "properties": {"anno": 2018, "id": 18941, "data": "2018-06-30", "localita": "Vallone Scala di Carini", "sup_ha": 0.5015, "sup_boscata_ha": 0.0, "sup_non_boscata_ha": 0.5015, "squadre_aib": 3}}, {"type": "Feature", "geometry": {"type": "Polygon", "coordinates": [[[13.295683384465445, 38.107480618616144], [13.295677373615629, 38.107451625233224], [13.295705053084268, 38.10741300584982], [13.295741819433037, 38.10741618784664], [13.295769558405665, 38.107423642914014], [13.295805213120035, 38.10742680876298], [13.295860865031147, 38.10743379192398], [13.295875166325935, 38.1074428156212], [13.295919848618508, 38.10744170023759], [13.295988998652371, 38.10744446608989], [13.296002313286815, 38.10744819365699], [13.29604249096267, 38.107448775584004], [13.296069212815913, 38.107451804562245], [13.296078907971173, 38.10746694529923], [13.296085149901808, 38.10748644180106], [13.29609821879532, 38.10750074651858], [13.296101998444282, 38.107522544957135], [13.296113828249545, 38.107549486034586], [13.296143408049474, 38.10757373322382], [13.296157549417375, 38.10760108091419], [13.296176856286028, 38.10762361734365], [13.296197532751783, 38.1076468495189], [13.296208052905762, 38.10767434654189], [13.296218561614369, 38.10770272925545], [13.296156102872105, 38.10770006059463], [13.296127264699853, 38.10769170381576], [13.296063613537742, 38.1076925450182], [13.296046043404571, 38.10767993770492], [13.2959980191632, 38.10768100555647], [13.29595461221571, 38.10767508595323], [13.295920098530397, 38.10767105895482], [13.295874542424873, 38.10766157372561], [13.295842238495464, 38.10765845650942], [13.295807745215996, 38.1076535520272], [13.295757593379216, 38.10765017584679], [13.29571747564392, 38.1076440164022], [13.295710360329256, 38.107616856213134], [13.295702815377688, 38.10759463815572], [13.295696899340765, 38.10757167412616], [13.295686390852742, 38.107543291370575], [13.295691529657278, 38.107514256995], [13.295683384465445, 38.107480618616144]]]}, "properties": {"anno": 2018, "id": 19060, "data": "2018-07-02", "localita": "Torrente D'Inverno", "sup_ha": 0.1012, "sup_boscata_ha": 0.1012, "sup_non_boscata_ha": 0.0, "squadre_aib": 1}}, {"type": "Feature", "geometry": {"type": "Polygon", "coordinates": [[[13.297175670505023, 38.10742020511742], [13.29717697299153, 38.107364159931336], [13.297253465854814, 38.10728365992692], [13.297545795395889, 38.107204785982816], [13.297547365035635, 38.10730224857822], [13.297475131974684, 38.1073572675359], [13.29741630840992, 38.107446118170806], [13.297386110857282, 38.10752416494028], [13.297320110102806, 38.10761132631968], [13.297269316560499, 38.10762625251253], [13.297286293534558, 38.10754514659009], [13.297273403370175, 38.10748889567271], [13.297260523506235, 38.10743264400175], [13.297175670505023, 38.10742020511742]]]}, "properties": {"anno": 2018, "id": 19634, "data": "2018-07-11", "localita": "Madonna Del Ponticello", "sup_ha": 0.0708, "sup_boscata_ha": 0.0708, "sup_non_boscata_ha": 0.0, "squadre_aib": 2}}, {"type": "Feature", "geometry": {"type": "Polygon", "coordinates": [[[13.302414145575273, 38.10450647330982], [13.302427669655271, 38.10447818159178], [13.302464605051634, 38.10444005929126], [13.302534428452304, 38.10442682786405], [13.30259633813238, 38.10442162329153], [13.302692833851598, 38.104368086254965], [13.302778521133131, 38.10433677374854], [13.302834780628569, 38.10429791219582], [13.30285078583617, 38.10427372689778], [13.302885380641296, 38.10422540174299], [13.302894602672, 38.10416043562313], [13.30288773468495, 38.10412371609697], [13.302876132433132, 38.10406861802108], [13.302864539151258, 38.10401352728276], [13.302854992596252, 38.10398083247061], [13.302829969878934, 38.10394995613252], [13.302812981323646, 38.10390495724146], [13.302778601444595, 38.10383325477208], [13.302764056470696, 38.103794389456375], [13.302744079232216, 38.10376765662376], [13.302726902623737, 38.1037307881418], [13.302722516057186, 38.10369817508279], [13.302738756377728, 38.10366382519299], [13.30273674687325, 38.10363937961854], [13.302758466384306, 38.103590868463606], [13.302751929045279, 38.10353991417731], [13.302765359781015, 38.103515691689616], [13.30278974885756, 38.10346314847319], [13.302829812199917, 38.103400662807765], [13.302874837122792, 38.10334638194915], [13.302865254784015, 38.103315729590825], [13.302876486440818, 38.10327520002635], [13.30287723933534, 38.103242661222026], [13.302844538696926, 38.10320963909774], [13.302798870066379, 38.10318050112969], [13.30275521118357, 38.10317579971177], [13.302735045947935, 38.10315719820137], [13.302704816435892, 38.10312828236803], [13.302702948000482, 38.10309774145285], [13.302711520335968, 38.103061245005605], [13.302720186847111, 38.103020678391715], [13.302737086953618, 38.10295785807179], [13.302767190372817, 38.10288098177589], [13.302796483311393, 38.10283868551607], [13.30282812553815, 38.10280659299512], [13.302854853400554, 38.10276425245068], [13.302866321317188, 38.10271355739249], [13.302864782183152, 38.10266878170543], [13.302871486087918, 38.10260173531561], [13.302888196509345, 38.102547053478666], [13.302907633998199, 38.102486297438084], [13.302924627955337, 38.10241940781342], [13.302946299866544, 38.10237293168591], [13.302990428855551, 38.10235729390065], [13.303045869728129, 38.10240895464571], [13.303102798533605, 38.10247192322518], [13.303132144204024, 38.10255343432063], [13.303144050825317, 38.102617066440075], [13.303155314429654, 38.10270888896401], [13.303193819046317, 38.102779958808945], [13.303232568398936, 38.10284045233446], [13.303293463997226, 38.1029083111423], [13.303330663348081, 38.10303576868613], [13.303364471787331, 38.103117343277376], [13.30337134584675, 38.103205576064056], [13.303431425396475, 38.1033086834442], [13.303509669130278, 38.10339794606631], [13.303575017318686, 38.103465876242446], [13.303645154104215, 38.10351976847845], [13.303746024521036, 38.103595256943805], [13.303820052171735, 38.1036738858492], [13.303925221095044, 38.1037564906591], [13.304012461678653, 38.103842362845356], [13.304102941366134, 38.10398116201109], [13.304208112185446, 38.104063766597854], [13.304283118618931, 38.10410010169533], [13.304371501931591, 38.10413662983794], [13.30440401893796, 38.10417764234892], [13.304447639722282, 38.10422057873186], [13.304531408163506, 38.10426409367159], [13.3046472050737, 38.10427281758424], [13.30471889239683, 38.10425974422633], [13.304776795419581, 38.10426410617044], [13.30483874328477, 38.10428615351762], [13.304856347329586, 38.10429698018856], [13.304886419522498, 38.104346774423064], [13.304876690545195, 38.10438188725092], [13.304862733199574, 38.104406366428], [13.304786421712288, 38.10442641945843], [13.304714325981916, 38.104457105911735], [13.304668830065363, 38.104495229746085], [13.304632084468295, 38.104540533379684], [13.304595104749621, 38.10459640715444], [13.304562412960351, 38.104659396332465], [13.304583979213483, 38.10469143360401], [13.304609680746974, 38.10473763761005], [13.3045911094189, 38.10476909647719], [13.304585586725898, 38.104814850727315], [13.304624582778269, 38.104864765712385], [13.304699346881796, 38.104911677792664], [13.304782953440565, 38.10496223653829], [13.304831444570414, 38.104987616906996], [13.30487936437488, 38.10503766869682], [13.304899789285363, 38.10511904971223], [13.304939275558537, 38.105147819196915], [13.304978770837973, 38.10517659510671], [13.304963917576346, 38.10523983368428], [13.304949481617733, 38.105285459332656], [13.304921905075584, 38.10532031551831], [13.304925061980681, 38.10537676766046], [13.304870233270009, 38.105432391156526], [13.304842982606699, 38.10545314406993], [13.30478013635966, 38.105469872294385], [13.304743961921206, 38.10549049640113], [13.304725144835174, 38.10553253157713], [13.30472432889925, 38.10556778112622], [13.304602845504652, 38.105611854569354], [13.304568300130017, 38.105562003817205], [13.304541375179939, 38.10556866151672], [13.304248201644318, 38.10570545329812], [13.304207727364872, 38.1057189688474], [13.30416312794073, 38.10571832498676], [13.30408746560848, 38.10571018813292], [13.304029407565773, 38.10571287712737], [13.303980427219605, 38.10570864363387], [13.303933826635241, 38.105702260924616], [13.303916234823825, 38.10568369677217], [13.303925032876636, 38.10563703460678], [13.303920974887726, 38.105590186815675], [13.303924067831309, 38.10556785070044], [13.303919671530542, 38.1055352375491], [13.303902598311813, 38.10549430010868], [13.30388827729183, 38.10544526836553], [13.303868770703627, 38.105398197507945], [13.30386237365012, 38.10534113892779], [13.303866077936657, 38.10529236835253], [13.303884940720076, 38.105256019513206], [13.303908669917249, 38.10523195371048], [13.30391399891818, 38.10522388940588], [13.303896313115954, 38.105209394517516], [13.303868196779986, 38.10520084729554], [13.303816481785185, 38.10521027757468], [13.303772114954052, 38.10523608201729], [13.303717542236406, 38.10525767474942], [13.303670374789426, 38.10529361482084], [13.30364565643391, 38.10536039297527], [13.303639282322337, 38.10541319651183], [13.303607827332801, 38.1054371587976], [13.303559111249644, 38.10542831401024], [13.303439135894275, 38.10538385640444], [13.303370346692754, 38.105352348962555], [13.303248314633608, 38.10528548789436], [13.303227959282712, 38.10527502497043], [13.30316576647127, 38.105292437651606], [13.303124067927415, 38.105314208864975], [13.303060571224805, 38.105276671309134], [13.303015324769744, 38.10522922937282], [13.302993384521518, 38.105176016829425], [13.302996995216775, 38.10513131555754], [13.303013566278251, 38.10508272999158], [13.30302418536402, 38.10506863576389], [13.303011980179814, 38.1050399803941], [13.303010017463828, 38.10501350785225], [13.303005526466693, 38.104984956714574], [13.302996320338627, 38.10493803451984], [13.303010267632693, 38.10489144590964], [13.303008447280321, 38.10485886993802], [13.3029916087888, 38.104807766857114], [13.303003228466121, 38.10475096851024], [13.303040481666336, 38.10469861109448], [13.303041847475477, 38.10463962975136], [13.303022294564913, 38.10459459294657], [13.302919345146828, 38.10459310656506], [13.302869923663238, 38.10461477422918], [13.302836138937028, 38.10462852654261], [13.302797289396556, 38.10463813414328], [13.30275296950258, 38.1046619103277], [13.302710203995412, 38.10461856663432], [13.302679842905926, 38.104595755281586], [13.302628928512718, 38.10457060396285], [13.30259893507206, 38.104531514503584], [13.302559953398738, 38.10454722650366], [13.302543806754636, 38.10457751610268], [13.302517925473232, 38.10458324038207], [13.302502909786531, 38.10456471324676], [13.30246196670429, 38.1045539526824], [13.302426445768063, 38.10453105949004], [13.302414145575273, 38.10450647330982]]]}, "properties": {"anno": 2018, "id": 19659, "data": "2018-07-14", "localita": "poggio ridente", "sup_ha": 3.6568, "sup_boscata_ha": 0.0, "sup_non_boscata_ha": 3.6568, "squadre_aib": 4}}, {"type": "Feature", "geometry": {"type": "Polygon", "coordinates": [[[13.361209951905495, 38.17499563734222], [13.361215410909425, 38.174950182566896], [13.361234248143806, 38.17490141887579], [13.361248580042924, 38.17485609606243], [13.361267142907552, 38.1748195791115], [13.36127029895503, 38.174777604066264], [13.361361768915373, 38.17475436162719], [13.361419103575994, 38.17476916793395], [13.361564545831788, 38.17481146681657], [13.361672536350488, 38.17484274149247], [13.361724531187535, 38.17489775206462], [13.36175218744419, 38.17495066749908], [13.361775318084407, 38.175007015434986], [13.361789114176437, 38.17508425482776], [13.361738285557575, 38.175174600302185], [13.36170503845108, 38.175272189625865], [13.361625002334998, 38.175379637293865], [13.361518699338921, 38.17547095676245], [13.361399644952233, 38.175537581685475], [13.361406688197627, 38.175520170157], [13.3614158519437, 38.17540823782586], [13.361408746504987, 38.17532934349959], [13.361398745596135, 38.17518211770158], [13.36140063091899, 38.175098096809855], [13.361372985138956, 38.17504518144168], [13.361298413699304, 38.17500737353573], [13.361209951905495, 38.17499563734222]]]}, "properties": {"anno": 2018, "id": 18949, "data": "2018-07-15", "localita": "Statua S. Rosalia", "sup_ha": 0.2394, "sup_boscata_ha": 0.2394, "sup_non_boscata_ha": 0.0, "squadre_aib": 1}}, {"type": "Feature", "geometry": {"type": "Polygon", "coordinates": [[[13.383092992320641, 38.068647623078014], [13.383099936385284, 38.06833185692003], [13.38312396289689, 38.06811821734638], [13.383288267570208, 38.067972733787705], [13.383528978329867, 38.067869061126146], [13.383941496029676, 38.06786453721492], [13.384353015467772, 38.0679058562281], [13.384763977809175, 38.06797263115245], [13.385128599603936, 38.06809481119452], [13.385422487306718, 38.06821093009793], [13.38587719950599, 38.06833943289217], [13.386263170371096, 38.06837020180106], [13.386609713548197, 38.06843609461989], [13.386921800457854, 38.068603397806584], [13.38719524268806, 38.068770170674476], [13.387531545619074, 38.06900913585418], [13.38775233966108, 38.069226131214656], [13.387986905735733, 38.069402562246836], [13.388253908876854, 38.06956924434051], [13.388494587708136, 38.06976103884217], [13.388773589504297, 38.06996864527891], [13.38900171585297, 38.070144986004344], [13.38915276376776, 38.07031007808055], [13.38929770170149, 38.07045980468196], [13.389465851901813, 38.07072702327255], [13.389532026542835, 38.070941898696695], [13.389584104107465, 38.07121262336414], [13.389648606427425, 38.07150389515009], [13.389720343773915, 38.07175960043172], [13.389800860071826, 38.071908445361075], [13.389881152303694, 38.072067471544685], [13.389999991237671, 38.07223212928892], [13.390081846336884, 38.07231985364376], [13.390178797451357, 38.072601384410135], [13.39032162304558, 38.07284786981903], [13.39045634251363, 38.07317067147076], [13.390541968064431, 38.07338072458932], [13.390633470728712, 38.07361632314104], [13.390685555055988, 38.07388704735065], [13.390889914821365, 38.07426683571715], [13.391020412685359, 38.0744876864391], [13.391293217583248, 38.074685010509654], [13.391540142661036, 38.074887075934214], [13.391621222589666, 38.07501045420903], [13.391766619814387, 38.0751397999879], [13.391922568313863, 38.075376286786266], [13.392027423071841, 38.07559168920357], [13.392197478957634, 38.07577232532878], [13.392233354507411, 38.07590017365747], [13.39214125006089, 38.07598552606074], [13.391907655990488, 38.07576326747126], [13.39166207385111, 38.075500082490066], [13.391454130726327, 38.07528326945483], [13.391167218132257, 38.07514179505211], [13.391009914051384, 38.07526191222299], [13.390914474386358, 38.07550004852643], [13.390936565575112, 38.075668470304194], [13.390992208923842, 38.07577622004315], [13.391334779031563, 38.07602544465035], [13.391542825175147, 38.07623716305386], [13.391822528034117, 38.076414203473114], [13.391979249927818, 38.0766150351676], [13.392052225680695, 38.0768147134291], [13.392106089088346, 38.077003953840105], [13.392283150192995, 38.07715920447816], [13.392440441599954, 38.07733457024717], [13.39262871388147, 38.077566401175915], [13.392905974041692, 38.07785548241594], [13.393087146502518, 38.07811777674059], [13.393251220497485, 38.0782779454629], [13.39336151594682, 38.0785392791321], [13.393395725123648, 38.078743523597076], [13.393444583609153, 38.0791619447323], [13.393460124548579, 38.07933537267724], [13.393436456386246, 38.079533737603626], [13.393323242701879, 38.079700310546535], [13.393047282007338, 38.07994107874126], [13.392972506362801, 38.08011836049005], [13.392827416052597, 38.080269216319905], [13.392596996615122, 38.080490229481896], [13.392522228404495, 38.080667511016024], [13.392310575370326, 38.08091425251698], [13.392066490690135, 38.08117073505713], [13.39184072885472, 38.08147331688303], [13.391753957870522, 38.08160968801187], [13.391562416381204, 38.08182103780364], [13.391435977944491, 38.082002708363], [13.391199782077882, 38.08219306933608], [13.390929951427497, 38.0825943986314], [13.390737959480818, 38.08282611767271], [13.390617739502106, 38.083018064935885], [13.390453646768139, 38.083153369570745], [13.390242872957874, 38.083359364596284], [13.390045556129273, 38.083540063342056], [13.389690373423962, 38.08357085871014], [13.389460529510442, 38.08347092309541], [13.389216566793234, 38.083426820526775], [13.388998601637336, 38.08337288865993], [13.388824740308152, 38.08336541830571], [13.38861943331081, 38.08332184367994], [13.38849733993272, 38.08330489034333], [13.38820228170248, 38.08323970801849], [13.388082758649842, 38.08310561664787], [13.387923678557335, 38.08301173607955], [13.387766620519193, 38.082826176036264], [13.387641100744206, 38.082671624199996], [13.38752813736403, 38.08253251794136], [13.387173778780246, 38.08223217527668], [13.387058431514575, 38.082054837959355], [13.386962385675805, 38.081732562890224], [13.386878215325865, 38.08145630158286], [13.386780931763242, 38.08119005173467], [13.386767306777834, 38.08093004581795], [13.386694788557806, 38.08070998582575], [13.386592300402041, 38.080387622857906], [13.386487455442113, 38.0801722150617], [13.386318634313648, 38.079935553507084], [13.38612527233706, 38.07964251224283], [13.385795595907858, 38.079393448821975], [13.385483120467216, 38.07924141780977], [13.385144876400934, 38.07908903181667], [13.384722650031925, 38.07894568372342], [13.384505820123708, 38.078840813983234], [13.38434166257373, 38.07868572829723], [13.384287034678119, 38.07853213957373], [13.384278511014273, 38.0783333340034], [13.384379188363933, 38.07815131692782], [13.384424566294522, 38.077846263954314], [13.38439071998615, 38.07762673334366], [13.384401306250668, 38.07743838298954], [13.38419562953156, 38.077119696149325], [13.384156904836896, 38.07682877626676], [13.3839432185473, 38.07658130183587], [13.383702305888466, 38.07639968828056], [13.383661242686713, 38.07621571560825], [13.383708129230262, 38.076134852301465], [13.384001199329465, 38.07599623370059], [13.384280594936946, 38.07589308377332], [13.3844768969688, 38.075758230423645], [13.384428155433472, 38.07563019573024], [13.384217445413746, 38.07554069745432], [13.384026955280396, 38.07541071508401], [13.384063872137405, 38.07519725283113], [13.38424152957564, 38.075031575008154], [13.384215584624467, 38.074745918019445], [13.38398811721122, 38.07453901684334], [13.383780881658387, 38.07429163080881], [13.383644743726624, 38.07403503718209], [13.38353140348113, 38.07362082133463], [13.383412068080725, 38.07318614693033], [13.383369490306634, 38.07277799254301], [13.383253016783362, 38.07250638837026], [13.383394016958494, 38.072248499325845], [13.383489588346986, 38.072005274759775], [13.383591714609757, 38.071757051239004], [13.38372616553355, 38.07150416789185], [13.383885712235426, 38.07128220608796], [13.384007047735652, 38.0710393353855], [13.384120931512724, 38.07084221113367], [13.384236166126016, 38.07058397474717], [13.384370612543053, 38.07033109141656], [13.38434988099565, 38.070101556508924], [13.384270936222102, 38.069881406439684], [13.384248637608792, 38.069723165829544], [13.384167687691946, 38.06959469617464], [13.383932459290797, 38.069448809727106], [13.383728536658746, 38.06934412337278], [13.383531853176372, 38.06920386254467], [13.383315501759187, 38.069078620429195], [13.383189118188016, 38.068964805633044], [13.38314649093423, 38.06885214319027], [13.383092992320641, 38.068647623078014]]]}, "properties": {"anno": 2018, "id": 19011, "data": "2018-07-17", "localita": "Ciaculli", "sup_ha": 92.2867, "sup_boscata_ha": 0.6897, "sup_non_boscata_ha": 91.597, "squadre_aib": 9}}, {"type": "Feature", "geometry": {"type": "Polygon", "coordinates": [[[13.351584979386061, 38.07038967025225], [13.35162945078388, 38.07025355220747], [13.35178415292811, 38.070090095473525], [13.351963539551384, 38.07002134824034], [13.352161339390694, 38.069891239246545], [13.35237775071489, 38.069759852547975], [13.352579313915381, 38.069665639498375], [13.352796766381811, 38.06954738702065], [13.352922461252168, 38.06941572339438], [13.35301666101986, 38.069320005506185], [13.353173033751014, 38.06918877879398], [13.353297098297606, 38.06912986654103], [13.353420480671453, 38.06903644526539], [13.353602773306484, 38.06894655194268], [13.353703223347978, 38.06892099303817], [13.353857962042115, 38.06897323457017], [13.353975940570027, 38.06892673672868], [13.354010781099054, 38.06878471067516], [13.354078715445903, 38.0685795935763], [13.354119300627355, 38.06839912389666], [13.354189876249444, 38.06818440999467], [13.354248365831417, 38.0679656822928], [13.354409768991488, 38.06761165290916], [13.354571682313276, 38.06745213869298], [13.354804644456655, 38.06727436778972], [13.354988644509206, 38.06710746243968], [13.355091211372198, 38.06698756025253], [13.355143576378463, 38.06682459483452], [13.355285305289417, 38.066671144125486], [13.355631814336144, 38.066669649196285], [13.356006716596033, 38.06668066247569], [13.356141689943938, 38.06663633321355], [13.356003557945769, 38.06638595800138], [13.355417971243655, 38.066210220075526], [13.355230556070401, 38.065876349277765], [13.355241094044374, 38.06573205674884], [13.355242662863512, 38.06555296719176], [13.355274643079131, 38.06543015904814], [13.35540855556681, 38.06532418066235], [13.355512996015571, 38.06522935014201], [13.355679376017115, 38.06508722846852], [13.355813900787584, 38.064954301771245], [13.35597647553624, 38.06487376151907], [13.356191738269315, 38.0647246232114], [13.356257715728049, 38.06460613481562], [13.356399063247824, 38.0644944880395], [13.35664665450827, 38.06442475973536], [13.356882996146727, 38.06442228174276], [13.357102424267492, 38.06441379468502], [13.357318813375878, 38.064432222043216], [13.357584706935578, 38.06452452750356], [13.357855732121005, 38.06460534450855], [13.358041651967753, 38.06467920052894], [13.358206946954422, 38.06469498646919], [13.358360190658324, 38.06470483169391], [13.358503656442185, 38.064716466876945], [13.358730038894295, 38.06472347167036], [13.358973088208183, 38.064748047687786], [13.359316323212127, 38.064758615292725], [13.35952825894382, 38.064867495602314], [13.359788309843447, 38.06495099822413], [13.359968854295875, 38.0649911230224], [13.360240000428268, 38.0651759336441], [13.360319312559799, 38.065333039160436], [13.360432686161285, 38.06549253851023], [13.360607107211392, 38.06564518967918], [13.360665071647192, 38.06577695935563], [13.360766782736745, 38.06591319186044], [13.36083849612732, 38.0660836692293], [13.360954309461935, 38.06624320210951], [13.361102716950953, 38.066360827209046], [13.361289021443334, 38.06652712131954], [13.361500536872047, 38.06665525069128], [13.361684878888699, 38.06680033973956], [13.361834877797321, 38.066956493983916], [13.362026561903953, 38.06709975901251], [13.362206815339698, 38.067210119655485], [13.36240427416115, 38.067313012820044], [13.362565425018346, 38.06740577500449], [13.362717388699414, 38.067473372084955], [13.362849402150063, 38.067561867195224], [13.363065923589923, 38.06768429139662], [13.363212640789294, 38.06776914555224], [13.36344133543153, 38.067891729619525], [13.363578606919932, 38.06796297446327], [13.363718402078018, 38.06803039989799], [13.363947569035625, 38.068131805278234], [13.364127989123581, 38.068234466451024], [13.36425215028498, 38.068347889364766], [13.364356777342465, 38.068462975099514], [13.364462047964668, 38.06854917752861], [13.364552315518857, 38.068652503652174], [13.364676639161486, 38.06875822951174], [13.364886458079505, 38.068853592588326], [13.365106536539725, 38.068925986102904], [13.365311442090066, 38.069023197799225], [13.365594416775165, 38.06911572291566], [13.365782664152652, 38.06919537129736], [13.365922035347692, 38.069282046682375], [13.366057891473739, 38.06941682274193], [13.365960776473024, 38.069511772626456], [13.365445415864112, 38.06946224259098], [13.365073726158045, 38.06939658282106], [13.364688328363185, 38.06931995647278], [13.364292880927547, 38.069456986500704], [13.363655441450403, 38.069764750091], [13.363429325921116, 38.06985404965931], [13.36318295093742, 38.070087506650154], [13.362765120708358, 38.07014331982099], [13.362089066884835, 38.070199387665646], [13.361740505451989, 38.07029090177697], [13.361186970922775, 38.070343839437705], [13.36090872052868, 38.07043699853695], [13.36067728649559, 38.07049442187518], [13.360368896916553, 38.07056289916948], [13.360275245300993, 38.07063436882445], [13.360105169284008, 38.07069264723499], [13.359919487621095, 38.07076283308787], [13.359748598530086, 38.070857486966474], [13.359517703006759, 38.07089065458366], [13.359185716097562, 38.070938903729775], [13.358917616623145, 38.0709671933907], [13.358682647580173, 38.07099351290434], [13.358488958206411, 38.0710485843181], [13.358271431252279, 38.07108021856229], [13.35811205507559, 38.07112614315299], [13.357925759482553, 38.07117746345698], [13.357747193451047, 38.071209633974426], [13.35757484298598, 38.07118219720786], [13.357430504667983, 38.07120906453059], [13.357211314585482, 38.071206002992696], [13.357080362367022, 38.0711791361633], [13.356947230984556, 38.07114068727129], [13.356789747260253, 38.07110189677907], [13.356552928560843, 38.07101577539326], [13.356340634164873, 38.07092229051531], [13.356082071999536, 38.070828157964236], [13.355702810283315, 38.0706841961614], [13.355433772105087, 38.070622652200754], [13.355248442647957, 38.07052184299692], [13.355000029579847, 38.07051836920143], [13.35479477050082, 38.07054631616747], [13.354549569389514, 38.0705082149358], [13.35425853129362, 38.07066784909862], [13.354031410943094, 38.07080140439673], [13.353753835495446, 38.07090344341924], [13.353258806284938, 38.070925404459], [13.35285896942418, 38.070939064124325], [13.352505229105432, 38.07096107391235], [13.352321649529237, 38.07089109540636], [13.35220711957462, 38.0707835672248], [13.35202662426215, 38.0706847393959], [13.3518698776847, 38.070613216983936], [13.351718469665355, 38.07052057599087], [13.351584979386061, 38.07038967025225]]]}, "properties": {"anno": 2018, "id": 19010, "data": "2018-07-22", "localita": "Casuzze", "sup_ha": 49.5899, "sup_boscata_ha": 11.6334, "sup_non_boscata_ha": 37.9565, "squadre_aib": 6}}, {"type": "Feature", "geometry": {"type": "Polygon", "coordinates": [[[13.295297937079349, 38.107418305354294], [13.295278542374874, 38.10735182158717], [13.295564768734469, 38.1073841089864], [13.295533574650895, 38.10746475872304], [13.295508843528687, 38.107537229422284], [13.295493139573129, 38.10758168553145], [13.29529489628924, 38.107549020275364], [13.295292172288413, 38.10748608756717], [13.295297937079349, 38.107418305354294]]]}, "properties": {"anno": 2018, "id": 19664, "data": "2018-07-31", "localita": "Torrente D'Inverno", "sup_ha": 0.0462, "sup_boscata_ha": 0.0462, "sup_non_boscata_ha": 0.0, "squadre_aib": 1}}, {"type": "Feature", "geometry": {"type": "Polygon", "coordinates": [[[13.297597203829353, 38.14233147588365], [13.297561173654051, 38.142271860035734], [13.297649816338549, 38.142214049779845], [13.297949475740277, 38.14219868931011], [13.298149636791944, 38.14217203722809], [13.29836294360197, 38.14211603123887], [13.298515061921814, 38.14200989550217], [13.298627714890541, 38.141991833470705], [13.298663059789655, 38.142080983128025], [13.298597981255453, 38.142198229089985], [13.298507964693243, 38.14231511457973], [13.298407083547156, 38.1423628974293], [13.29823163904807, 38.14239975885483], [13.29805664306993, 38.14241691786557], [13.297894574574311, 38.14241457066307], [13.297721181299606, 38.14236281538279], [13.297597203829353, 38.14233147588365]]]}, "properties": {"anno": 2018, "id": 19050, "data": "2018-08-04", "localita": "Petrazzi Palermo", "sup_ha": 0.225, "sup_boscata_ha": 0.0, "sup_non_boscata_ha": 0.1322, "squadre_aib": 1}}, {"type": "Feature", "geometry": {"type": "Polygon", "coordinates": [[[13.275481305293615, 38.129205293423794], [13.275478841314154, 38.12917459485864], [13.275497061482955, 38.12915304862694], [13.275534824935495, 38.12913638803898], [13.275557279204065, 38.12912088594996], [13.275620147699188, 38.129073038508956], [13.275667725401705, 38.12901887550649], [13.275738014144558, 38.12898333341173], [13.275839985640145, 38.12895967516207], [13.275924717580322, 38.12897567756719], [13.276033260734186, 38.12899448423701], [13.276151000262491, 38.12901916716231], [13.2762863081773, 38.12904738538742], [13.276396818075831, 38.129077943038176], [13.276360956290079, 38.12914331584733], [13.276313953375132, 38.12917310995804], [13.276274381589007, 38.129215193362384], [13.276219661001656, 38.12924487416027], [13.27616522833148, 38.12926236269265], [13.276156506081332, 38.12930490697525], [13.276147363088889, 38.12936572355795], [13.276192644726123, 38.129409058712326], [13.276268929986784, 38.12944675157025], [13.276237351824713, 38.12947677113771], [13.276220338719238, 38.12954357044325], [13.276127193655432, 38.12956658987396], [13.276049042331698, 38.12960811501178], [13.276009183301824, 38.129662390568306], [13.275962036669501, 38.12969827254318], [13.275923899094467, 38.12967942699624], [13.275926625460539, 38.12956364836961], [13.275881191354738, 38.129526408206985], [13.27584276608414, 38.12951974586346], [13.275771813143137, 38.12951416138004], [13.27571852740051, 38.12948289600276], [13.275719819003433, 38.12942805520758], [13.275674968967252, 38.129366438722826], [13.275598540651332, 38.12933484161366], [13.275514835444723, 38.12928484380842], [13.275505029818557, 38.129255654144494], [13.275481305293615, 38.129205293423794]]]}, "properties": {"anno": 2018, "id": 19079, "data": "2018-08-10", "localita": "Bellolampo", "sup_ha": 0.3558, "sup_boscata_ha": 0.3558, "sup_non_boscata_ha": 0.0, "squadre_aib": 1}}, {"type": "Feature", "geometry": {"type": "Polygon", "coordinates": [[[13.265540298238276, 38.135057326564706], [13.265660597453008, 38.134939772080855], [13.265962339753784, 38.13495748503808], [13.266396445366745, 38.135056697557715], [13.26650120526421, 38.13488587802786], [13.266819732065883, 38.13490383653772], [13.267374133967463, 38.13488548868171], [13.267698272711344, 38.134914814766276], [13.26789744571908, 38.135010566847214], [13.267978841953232, 38.135117835125676], [13.268064316332575, 38.135052799308795], [13.268048682665208, 38.135139924611344], [13.267664285805667, 38.13506797200433], [13.26727676328497, 38.135128546815935], [13.266868680145713, 38.135347937462114], [13.266584973728477, 38.13527745826428], [13.266231623962335, 38.13531202067442], [13.265681904389368, 38.135457180037335], [13.265540298238276, 38.135057326564706]]]}, "properties": {"anno": 2018, "id": 19627, "data": "2018-08-10", "localita": "cozzo san calogero", "sup_ha": 0.7319, "sup_boscata_ha": 0.0, "sup_non_boscata_ha": 0.7319, "squadre_aib": 2}}]}