{"type": "FeatureCollection", "features": [{"type": "Feature", "geometry": {"type": "Polygon", "coordinates": [[[13.270860761495955, 38.14496374935991], [13.270906553053074, 38.14487801500759], [13.271328717587533, 38.14460771839826], [13.271601015560012, 38.144196963318514], [13.271672353583323, 38.143956069976525], [13.2717671991903, 38.14364639471955], [13.272210412204407, 38.143410968035326], [13.27282780535379, 38.14321266333045], [13.273073729417016, 38.142991614911494], [13.273798861541437, 38.14286401455838], [13.273724270716901, 38.143243116295416], [13.27426707041253, 38.14342390472455], [13.274313952901618, 38.14421955002456], [13.274808529495678, 38.144589726421096], [13.275022803513878, 38.14478297064878], [13.275325802615056, 38.14492567063506], [13.275034904215774, 38.14519790826576], [13.274699031251819, 38.14552132956013], [13.274411388066362, 38.145655359543014], [13.274471310982968, 38.14589818255491], [13.274003769512591, 38.14623695040795], [13.273347492828515, 38.146227309411906], [13.273221538535418, 38.14600079751027], [13.272827774371226, 38.14599501094715], [13.273018131833737, 38.14627431474093], [13.273015277740262, 38.14639524486149], [13.272297044787944, 38.14622915303023], [13.2716010999894, 38.14604610226456], [13.271767643449202, 38.145739235212126], [13.271965392457908, 38.14544660149409], [13.271527064710362, 38.145474719147074], [13.271581427163479, 38.145026195309676], [13.270860761495955, 38.14496374935991]]]}, "properties": {"anno": 2022, "id": 29071, "data": "2022-06-21", "localita": "Bellolampo", "sup_ha": 8.6409, "sup_boscata_ha": 0.0, "sup_non_boscata_ha": 8.6409, "squadre_aib": 3}}, {"type": "Feature", "geometry": {"type": "Polygon", "coordinates": [[[13.362118971198347, 38.16590516048653], [13.362005629671788, 38.16569728736237], [13.362006823155232, 38.16564406610249], [13.36226080257119, 38.16559436849026], [13.362455499820362, 38.165557153898675], [13.362642218748988, 38.16549986305078], [13.362835872676827, 38.16550921600059], [13.363035864669442, 38.16561182155184], [13.363184703629566, 38.165740332609914], [13.363361803030747, 38.1657361444297], [13.363589312143697, 38.16573931196989], [13.363671636840243, 38.16582696871413], [13.363643823667191, 38.165939711208935], [13.36324764106015, 38.16594084858783], [13.362893887707573, 38.16592926677119], [13.362513811540916, 38.16596389949566], [13.362118971198347, 38.16590516048653]]]}, "properties": {"anno": 2022, "id": 28983, "data": "2022-06-23", "localita": "Vergine", "sup_ha": 0.4912, "sup_boscata_ha": 0.0, "sup_non_boscata_ha": 0.0, "squadre_aib": 2}}, {"type": "Feature", "geometry": {"type": "Polygon", "coordinates": [[[13.262324993683738, 38.10264686777626], [13.262491062109344, 38.10271805683537], [13.262641800235299, 38.102911758883], [13.262589478140427, 38.103284125288305], [13.262446200611524, 38.10356185672092], [13.262229161458324, 38.103543920032166], [13.261201680896042, 38.103116321824466], [13.260950521554188, 38.102965311392], [13.260537982783745, 38.10280701025391], [13.260346955705675, 38.10274035932178], [13.260212410114734, 38.1026499948395], [13.260145837653747, 38.10257536578337], [13.260017037872183, 38.10250472547109], [13.25980093413324, 38.10244752140557], [13.259766815624346, 38.102314456849], [13.259848490915756, 38.102276388218755], [13.260004464863702, 38.10224923839088], [13.260032105211199, 38.10213181657671], [13.259916544364609, 38.10202700507425], [13.259786813119726, 38.10199562659227], [13.259714496702818, 38.10190126570197], [13.259660929504182, 38.10180228105774], [13.259556158920882, 38.101766362524366], [13.259515713759974, 38.1016381137481], [13.259641797494487, 38.10156142644327], [13.25967425053153, 38.10150299117489], [13.25972685224483, 38.10138102872607], [13.259846141124893, 38.10132878851693], [13.259837332231264, 38.10117645959475], [13.25996283156843, 38.10112431126131], [13.260125013881087, 38.10109725320719], [13.26027244511541, 38.101168169327806], [13.260527557772274, 38.10115230527548], [13.260788541226077, 38.101151256383616], [13.261017761932342, 38.10117919430167], [13.26127687270524, 38.10125667108144], [13.261567388624561, 38.10131988236515], [13.261745293604099, 38.1014157947206], [13.26184082668624, 38.10157922509182], [13.261968578938072, 38.101694034303605], [13.262158450058973, 38.10180976238292], [13.262177125070828, 38.102070256399784], [13.262270215872775, 38.10233675185812], [13.262304195338343, 38.10247963286886], [13.262324993683738, 38.10264686777626]], [[13.259817166988318, 38.10234601120803], [13.25983878610684, 38.10241058338804], [13.259953274795555, 38.10244922388845], [13.259990649870524, 38.1023784946382], [13.259966088866287, 38.102327310007304], [13.259901718731264, 38.102320142893696], [13.259817166988318, 38.10234601120803]]]}, "properties": {"anno": 2022, "id": 28645, "data": "2022-06-25", "localita": "Valle Paradiso", "sup_ha": 4.3739, "sup_boscata_ha": 0.6125, "sup_non_boscata_ha": 3.7523, "squadre_aib": 7}}, {"type": "Feature", "geometry": {"type": "Polygon", "coordinates": [[[13.357265214984098, 38.06712156703155], [13.357086602052437, 38.06703753385046], [13.35735930216543, 38.06694961140641], [13.357399560145746, 38.06687882784914], [13.35745634780772, 38.06664519777335], [13.357525340915323, 38.06644231474165], [13.357694478822623, 38.06637332972135], [13.357711007867154, 38.06621048405757], [13.35811235748798, 38.06613454840233], [13.35826587627678, 38.066187652948756], [13.358303629974541, 38.06622894935353], [13.358299534989944, 38.066412353751254], [13.358388841954142, 38.066454369463386], [13.358619917949383, 38.066498363651846], [13.358672835058291, 38.06643794802557], [13.358614308398929, 38.0661721310139], [13.358569124604253, 38.065886115421804], [13.358687846056954, 38.06576546417493], [13.358888670114045, 38.06543191952538], [13.359145518334852, 38.06547627258772], [13.35931442607866, 38.065417474440814], [13.359355135368453, 38.06532631154386], [13.359384548497445, 38.06516364456604], [13.359376889380636, 38.06492911453937], [13.359663376086731, 38.06480061014083], [13.359617734882535, 38.06453497250831], [13.359928631557604, 38.064467962084535], [13.360652844482308, 38.06436594231444], [13.36105304564807, 38.0643409418883], [13.361154557689035, 38.064413703133845], [13.36119004108734, 38.06455688984581], [13.361212865102697, 38.06468970753097], [13.361312334164754, 38.06485417055928], [13.36137541036768, 38.06491620405196], [13.361566230701802, 38.06503097744516], [13.361783053903984, 38.065135920575564], [13.362035818711513, 38.065363672117876], [13.362084419590646, 38.065496848933826], [13.362148631932776, 38.06550793551291], [13.362333828847975, 38.06529647572014], [13.362698093740224, 38.06514866197735], [13.362866316744649, 38.06512042565234], [13.362915599159061, 38.06522303512998], [13.363285038842731, 38.065421831104636], [13.363410743942502, 38.06556627287067], [13.36345662648342, 38.065821719104285], [13.363623716859573, 38.06584442827984], [13.363711665486571, 38.06594757496592], [13.363760042761431, 38.0660909413629], [13.36395041714658, 38.06622608964875], [13.364004655508364, 38.066685498662395], [13.36410458736036, 38.066829580860244], [13.364375691623824, 38.06681296619859], [13.364544824301225, 38.066743972093604], [13.364651782471453, 38.06657218959428], [13.364758966990902, 38.0663902176687], [13.3648496365944, 38.06637109354498], [13.36509564400566, 38.06632355146498], [13.365394107955776, 38.06623596869293], [13.365641020386994, 38.06614766906849], [13.365818283478374, 38.066292824469826], [13.366021322781396, 38.06643833803238], [13.366263706770342, 38.06655382085543], [13.366500900183741, 38.066322691500275], [13.366734696804189, 38.06624439881447], [13.367066618847627, 38.066391700067626], [13.367255415822607, 38.0665981675349], [13.367501647947568, 38.06654043195958], [13.367645679913203, 38.066440507218026], [13.367520644294519, 38.066265502700944], [13.367278711048556, 38.06612964377482], [13.367192341585845, 38.065955175248405], [13.367080874527806, 38.06574978138245], [13.366915366711032, 38.065655752699755], [13.366689493505362, 38.06537742294066], [13.366618956637726, 38.065070673695615], [13.366289756448662, 38.064801101163674], [13.366178746879017, 38.06457532785385], [13.366184180644652, 38.06433078762061], [13.366420913664129, 38.0641200359335], [13.36642566670742, 38.0639060636281], [13.366042658948366, 38.06373766624696], [13.366177194362825, 38.063484726750374], [13.366510235934463, 38.06358108270415], [13.366584858674356, 38.06312346394323], [13.366816834794525, 38.063126685478174], [13.366953166857192, 38.06337319419374], [13.36682993744034, 38.063697638174595], [13.366822695808537, 38.06402369226229], [13.36685796474857, 38.064177066861646], [13.36715551420244, 38.06413023578132], [13.36713471583828, 38.06390571590665], [13.367140371660124, 38.063650986183546], [13.36740287536018, 38.063440590539315], [13.367618346314472, 38.06360665903203], [13.367649092594778, 38.063963817431464], [13.36774540880582, 38.064270924223955], [13.368016052579394, 38.064274679617604], [13.368158269499855, 38.06425626787599], [13.368380074071592, 38.064137036274815], [13.368533371470738, 38.06420031684664], [13.368569095545535, 38.064333313225056], [13.368690739532282, 38.06466115494578], [13.368762642510617, 38.064906768043], [13.368771461936683, 38.06509035234907], [13.368856026281916, 38.06534633361484], [13.368892203986743, 38.06545895122566], [13.368948733413587, 38.06581646622598], [13.369359116621025, 38.06591388768192], [13.36943170039672, 38.066128933273], [13.369564196705022, 38.06596769211527], [13.369697594808475, 38.06576569430483], [13.369838911957542, 38.06578803797787], [13.370036085769009, 38.06619846408481], [13.37001619548227, 38.066514150438984], [13.369984321093256, 38.06678890153567], [13.369890489483678, 38.06695067861536], [13.369718423047765, 38.06715214102424], [13.36955065006355, 38.06716000753348], [13.369381068402378, 38.06724938759485], [13.369377453360281, 38.06741241520802], [13.36933291260668, 38.06767679782274], [13.369315504986648, 38.06788040391074], [13.369348973118521, 38.06811529162027], [13.369327496516167, 38.06850230212088], [13.368903532555922, 38.068435269369], [13.368769221892478, 38.06867802334614], [13.368629030136896, 38.068604732521074], [13.368259559672394, 38.06840595276233], [13.367918130578637, 38.0681056384251], [13.367571952773197, 38.06801929541435], [13.367263987411365, 38.0679538672893], [13.367019108539216, 38.067950467198045], [13.366900170228416, 38.06808131637286], [13.36693249896114, 38.06836715030566], [13.36695352402737, 38.068581481647826], [13.366985851978153, 38.068867315536465], [13.366932261169067, 38.06895830207174], [13.36679591948962, 38.068711793323025], [13.36675138117087, 38.068395212262004], [13.366630419020716, 38.068036801717035], [13.366507420651432, 38.067770093156135], [13.366372893365321, 38.067442069365846], [13.366077594532959, 38.067387006717], [13.366020624842802, 38.06704986845235], [13.36581690489925, 38.06693492193095], [13.365706346116728, 38.06668877046404], [13.365699345864476, 38.066423672476795], [13.365519818621854, 38.06638040830915], [13.365236053463368, 38.06638665702372], [13.364976252556199, 38.066474777352326], [13.364933282282975, 38.06666783366982], [13.364952035131788, 38.06698405664218], [13.364945690519427, 38.06726935387863], [13.36466260254795, 38.067245034095244], [13.364680476563976, 38.06702105124428], [13.364589579222919, 38.06705036452678], [13.364432653588008, 38.06715010509786], [13.364186869955908, 38.06718745640194], [13.36410704730791, 38.067298462313914], [13.363975216527095, 38.06742912901817], [13.363894032526927, 38.06760126881984], [13.364149532276402, 38.06770674613956], [13.364366367106342, 38.06781168472035], [13.364544084152032, 38.06793646430694], [13.364513095008375, 38.068170457027136], [13.364429644446613, 38.0684444893953], [13.364426018280815, 38.06860751567177], [13.364266821824891, 38.06880914901005], [13.364277443400095, 38.06891121971455], [13.36404386274346, 38.06897931701766], [13.363811642589988, 38.06898627891125], [13.363732497264818, 38.0690667165541], [13.36371348562907, 38.06934164563567], [13.363441916659017, 38.06937863623091], [13.363220315383753, 38.06948766766302], [13.36317983429432, 38.06956864348008], [13.362856711071432, 38.06960491546238], [13.3628329754148, 38.06951285440548], [13.362704315245736, 38.06950087109177], [13.362368983782888, 38.06950639514123], [13.362366033403513, 38.06963885422103], [13.362056251802919, 38.069654925009075], [13.361824255619881, 38.06965169361208], [13.361644495714007, 38.0696186136097], [13.361647902027107, 38.069465775994395], [13.361597482174506, 38.069414111587335], [13.361260788075342, 38.06948076733659], [13.360990354583148, 38.069466806681994], [13.360836145775096, 38.069444273400855], [13.36064122581359, 38.069512903184865], [13.360715604322326, 38.06964644011337], [13.360572692990468, 38.0696954095042], [13.360378680966413, 38.06972328167361], [13.360288915024908, 38.069701645963974], [13.36026950063546, 38.06941599069963], [13.360192623928361, 38.06939453388004], [13.360087014028627, 38.06950517707742], [13.360136296375439, 38.069607787641814], [13.360134250937195, 38.069699489422334], [13.360183987377734, 38.069781721385404], [13.360143276414036, 38.06987288537115], [13.35984660887381, 38.06987894087233], [13.359587698711826, 38.069926291666185], [13.359481860643328, 38.07004712356714], [13.359261387675849, 38.07010520181562], [13.359263889538362, 38.06999312152483], [13.35929284984218, 38.069850832398], [13.359258049775562, 38.069677078311535], [13.359128935869183, 38.06968546876112], [13.358999366545156, 38.06971423852402], [13.3588424288828, 38.06981397219781], [13.35876077469292, 38.07000648660186], [13.358755542831128, 38.070240836415365], [13.358613766671583, 38.0702388578729], [13.358527413553718, 38.07006438345308], [13.358415965216158, 38.06985898191468], [13.358292538621905, 38.06961264399252], [13.358127033985015, 38.069518603046205], [13.358172298566357, 38.06922365696709], [13.35797177155527, 38.06896604984695], [13.357873441722267, 38.06875063864679], [13.357735537394962, 38.06857544410618], [13.35766640040396, 38.06820755565938], [13.357505680569098, 38.06789954181003], [13.357508639527826, 38.06776708301334], [13.357410996212476, 38.06752110363161], [13.357336853700334, 38.06737737547799], [13.357265214984098, 38.06712156703155]]]}, "properties": {"anno": 2022, "id": 29059, "data": "2022-07-28", "localita": "SERRO CHIARANDA", "sup_ha": 40.0936, "sup_boscata_ha": 5.8119, "sup_non_boscata_ha": 30.6173, "squadre_aib": 6}}, {"type": "Feature", "geometry": {"type": "Polygon", "coordinates": [[[13.289549648740232, 38.1259835247098], [13.288941436161508, 38.125988392003975], [13.288881259791996, 38.125589509901616], [13.289040455066509, 38.12546830160307], [13.288765133190104, 38.12535449493855], [13.288646762224408, 38.125215527651214], [13.28859947019183, 38.12500896888166], [13.288239551288761, 38.12479785766718], [13.287406521187574, 38.12475827820211], [13.286933415030424, 38.12492980197518], [13.286686078248165, 38.12510462205626], [13.286521422567459, 38.12545905511357], [13.286153158932617, 38.12560465815471], [13.285937963363201, 38.1251486147229], [13.285538822578257, 38.12512906756979], [13.285544283296387, 38.1248958306506], [13.286309767656117, 38.124852093011064], [13.286591182601748, 38.12470522424617], [13.286753921184847, 38.12443309974298], [13.286515907277309, 38.12421004112108], [13.286363764740104, 38.124029406910395], [13.28589515674899, 38.124008848334384], [13.285969116199878, 38.1238177829748], [13.28614986698439, 38.12351847598002], [13.28599836855233, 38.123310396424216], [13.285915389791134, 38.12314448863725], [13.285815031769904, 38.12297833525005], [13.285872591692893, 38.122745858609754], [13.285945917319804, 38.12258222922945], [13.286175875556133, 38.12240716510224], [13.286661521897084, 38.122441690502555], [13.286870567918424, 38.12241729097699], [13.286893395310337, 38.122184299956274], [13.286722610919707, 38.12205829382493], [13.28695127295503, 38.12193810066509], [13.287156475718268, 38.12207834231528], [13.287220170444353, 38.12232631376901], [13.287552081583225, 38.122248796146955], [13.287686200815363, 38.12245662037944], [13.28786213036962, 38.122363110927616], [13.287886868305675, 38.12204780180338], [13.288182442930538, 38.12203838794455], [13.288138400989004, 38.12243576061178], [13.287922609266634, 38.122748279507924], [13.287896267658807, 38.12313218335419], [13.288277074893063, 38.123192628066434], [13.288424347693075, 38.122837930868315], [13.288499911317528, 38.12257826904769], [13.28896884075631, 38.12258509514051], [13.289060481202187, 38.122380558589526], [13.288929873307296, 38.12202181594879], [13.28864296583999, 38.121660804848354], [13.288668672405429, 38.12130433763273], [13.289000897618545, 38.12121310183576], [13.28943283504262, 38.1213154595519], [13.28946115550781, 38.12159036086368], [13.28980562466377, 38.121718897607785], [13.290115344777522, 38.12184692115725], [13.289850676423425, 38.122021495836066], [13.289723016759408, 38.12228040090122], [13.289644573994867, 38.12266354745892], [13.289885476069108, 38.12276312327096], [13.289861057405918, 38.12306471081405], [13.290097155280243, 38.123370087802044], [13.290231295176685, 38.123577909475415], [13.29000135166999, 38.12375298178712], [13.290031277537624, 38.123959288123544], [13.290129074406915, 38.12423519890049], [13.290473236974629, 38.12437745688549], [13.290976910663067, 38.12438478077851], [13.291300812701602, 38.12465025112344], [13.291206293963103, 38.12497827330733], [13.291078633484645, 38.12523717971295], [13.290607444250982, 38.12532640051157], [13.290493628018348, 38.12573648689211], [13.290420630274468, 38.12588639628169], [13.290091268463357, 38.1258541598873], [13.290059740235685, 38.12571644930824], [13.289608802960545, 38.125682443253034], [13.289549648740232, 38.1259835247098]], [[13.2863436695008, 38.12397916342612], [13.286455460495844, 38.124061987576525], [13.286645342357472, 38.12390823011347], [13.286529627355874, 38.12382246603802], [13.2863436695008, 38.12397916342612]]]}, "properties": {"anno": 2022, "id": 29250, "data": "2022-08-18", "localita": "Manche di Bellolampo", "sup_ha": 12.9462, "sup_boscata_ha": 6.2021, "sup_non_boscata_ha": 6.3014, "squadre_aib": 4}}, {"type": "Feature", "geometry": {"type": "MultiPolygon", "coordinates": [[[[13.40715869793866, 38.06176663447725], [13.406691070627138, 38.06216850272035], [13.405997963386689, 38.06238589370909], [13.40518965778646, 38.06262438771731], [13.404726439796812, 38.062822211282906], [13.404207339256896, 38.062951237473186], [13.403727244258139, 38.06260455346553], [13.403069690431451, 38.06250492328733], [13.402642527291096, 38.06236305696366], [13.402103127765788, 38.0621062745939], [13.401876186527446, 38.06198980192702], [13.40174119744764, 38.06160244452918], [13.401195892336636, 38.061617718949975], [13.4009605750556, 38.06188664578669], [13.400613522959393, 38.062017994374806], [13.400126063191985, 38.062011366177245], [13.399674667026256, 38.06166506368908], [13.39921587500208, 38.06165882122923], [13.399048270300112, 38.061452444295135], [13.39877239318585, 38.06094977573639], [13.398551385972207, 38.06056124358387], [13.398534560958641, 38.06001674722508], [13.398913239435744, 38.059749768573674], [13.399033365780904, 38.05950195421695], [13.398693726348187, 38.05929322754388], [13.39843912578129, 38.05913101874361], [13.399120809027146, 38.05811980101701], [13.399262695164174, 38.058189761428466], [13.399629030154173, 38.058489555367125], [13.399766478813923, 38.05876355847297], [13.399941969520054, 38.05860720235086], [13.400176776926031, 38.05836093909814], [13.400460553474337, 38.05850086448749], [13.400888675668932, 38.05859739806726], [13.401294541697174, 38.05839881097204], [13.40172266450602, 38.058495341525635], [13.40195894273777, 38.05818106426151], [13.401733994447177, 38.05797390495674], [13.40159555430248, 38.05774525138952], [13.401600974155318, 38.05749586770455], [13.401835781547387, 38.05724960101245], [13.40184169246976, 38.05697754716614], [13.402046830722544, 38.05677623734954], [13.402677128919438, 38.056807473823916], [13.402720621839775, 38.05680806406904], [13.402713326452478, 38.05684401907631], [13.402739433767074, 38.05707879040914], [13.402829279398778, 38.057252737503305], [13.403028588794692, 38.05741583290681], [13.403275495371082, 38.057542557145716], [13.40333414844645, 38.05771608004007], [13.403551188390853, 38.05778071553745], [13.403787327403363, 38.057685212422086], [13.403976115932736, 38.057613754944484], [13.404226236249588, 38.05759246689131], [13.404415034390391, 38.05752100883181], [13.404618627786991, 38.05748675264434], [13.404838086324093, 38.057440382181426], [13.405027944536963, 38.05731957537553], [13.405246332696782, 38.057322535534645], [13.405527120753927, 38.05732634193144], [13.405684620723529, 38.05727229364461], [13.405935980427994, 38.057305228430955], [13.406682453517538, 38.05726998788977], [13.407176765479301, 38.05695919435275], [13.407497075424784, 38.05673674999952], [13.407925196438125, 38.0568332579288], [13.408551583901918, 38.057045829883535], [13.409238260018968, 38.05712314557961], [13.410129074800338, 38.05704448139154], [13.411163743677644, 38.05694506954752], [13.411593830633704, 38.056950877112115], [13.41202391657405, 38.056956683088444], [13.412997816024022, 38.057015177122295], [13.413832262457086, 38.05689036360234], [13.414637048343716, 38.05681050488749], [13.415070075286314, 38.0566802720435], [13.415086664290035, 38.05666865673471], [13.415156042316353, 38.05671368616893], [13.415274754982223, 38.0565993930061], [13.415228457685666, 38.0565693418825], [13.41541951995844, 38.056435521935605], [13.415539575296528, 38.05618768187059], [13.41534424159113, 38.055935592980696], [13.415546411854129, 38.05587028654743], [13.416263708151046, 38.05585726750036], [13.417129246331365, 38.05561945882121], [13.417705615909847, 38.05549114489684], [13.418314563281779, 38.05518184546182], [13.418813686415714, 38.05464428678626], [13.419398325993845, 38.05413055020364], [13.419978088095945, 38.05384352715689], [13.420636564473655, 38.05389772099945], [13.421233799502552, 38.05413251870797], [13.421310576903595, 38.05456442669924], [13.421047171541993, 38.05481034975109], [13.420695806165664, 38.05514579761547], [13.420378959451734, 38.055209581571134], [13.419976082479046, 38.05527220085335], [13.41974329843929, 38.055427817951156], [13.419621299880056, 38.055766350966984], [13.419697095074175, 38.05624360033042], [13.419573146537834, 38.056672813516585], [13.41916832105869, 38.056826118338], [13.418904412478483, 38.057094705541566], [13.41938746919756, 38.057305301455536], [13.419238743796818, 38.057552760768395], [13.418948121514024, 38.05773027590383], [13.41856952197192, 38.057997321024274], [13.418966559512812, 38.058206753895924], [13.419451084635593, 38.05834933159084], [13.41996671954028, 38.058378934141196], [13.420161101569958, 38.058676363541785], [13.420733109099494, 38.05875207336009], [13.421049981028634, 38.058688296161144], [13.421541325110296, 38.058513462105346], [13.422085147509675, 38.05856611802868], [13.423002697583732, 38.05857842081454], [13.423464383275741, 38.058448541588234], [13.424011131858885, 38.05836515320676], [13.424529186606515, 38.05828137759927], [13.4250433680282, 38.05837897617216], [13.425498749963719, 38.05854381530777], [13.425691214260809, 38.05893191567864], [13.426025111011691, 38.05941261481082], [13.426248193458276, 38.05971040970481], [13.426655941137279, 38.059421053122215], [13.427120535110207, 38.05915513099389], [13.427582712080033, 38.05900256527044], [13.428161029787963, 38.058783519680226], [13.428644125490823, 38.05899407019499], [13.42817807479615, 38.059328008617626], [13.427841012125976, 38.059505926810765], [13.42782504673449, 38.05947648014237], [13.427871077715517, 38.05946087436806], [13.427826224385722, 38.05937862752569], [13.427704980103469, 38.0594199051978], [13.42777001806165, 38.05953927664791], [13.42780164987837, 38.05952852046553], [13.427855885761552, 38.05964119834288], [13.427899769192024, 38.05968792316913], [13.427638940034008, 38.059966561947334], [13.427434836751052, 38.060193000282894], [13.427431451311863, 38.06019737535902], [13.427428893981936, 38.06020209495991], [13.427427205799024, 38.06020705239219], [13.427367737413025, 38.06044946122346], [13.42736691515663, 38.06045571174677], [13.427367000609465, 38.060458641785324], [13.42738613106545, 38.06069256142522], [13.427386600019762, 38.060695893123004], [13.427388093278324, 38.06070094720025], [13.427390497509062, 38.06070705435232], [13.427344672546067, 38.060745580160514], [13.426913095795822, 38.06080783980253], [13.426313363181576, 38.06068642773455], [13.426005705485379, 38.060319471473434], [13.42557414054452, 38.06038172636882], [13.425417662075459, 38.06099193817257], [13.4254119234887, 38.060996118542214], [13.425245530850752, 38.061016513527356], [13.425238743331004, 38.061017782480285], [13.425232282809413, 38.06101985517754], [13.425226288131011, 38.06102268841978], [13.425220915947985, 38.06102620590213], [13.425098289874528, 38.06111993908717], [13.42509554875133, 38.061122217529736], [13.425093903018634, 38.061123804112945], [13.424769969612614, 38.061455055079605], [13.424251303515035, 38.06180525528888], [13.423621501483836, 38.06206008731656], [13.422915875811293, 38.062210648143264], [13.422201054958927, 38.06223870220699], [13.421772565634846, 38.06218578329048], [13.421769271421178, 38.062185467788595], [13.421538480131955, 38.062170454193335], [13.421463962964024, 38.062118196740045], [13.420842847158308, 38.06165630707626], [13.420246039480116, 38.0613988369564], [13.419298798496534, 38.06143146663641], [13.418950804602938, 38.061608217930555], [13.418543512214425, 38.06187487749689], [13.418135241672932, 38.06218687519879], [13.417528185672836, 38.06240549193381], [13.416951762268734, 38.062533803654446], [13.416668425240527, 38.0623712396901], [13.416033676642982, 38.06254412278509], [13.415751318394967, 38.062336216179446], [13.415037379522946, 38.06219053278934], [13.41458200929054, 38.062025653347426], [13.413947738572855, 38.06217584758277], [13.41366440964734, 38.062013283749124], [13.41317596854979, 38.062052049191315], [13.412796339181542, 38.06236442207319], [13.412336567880915, 38.06240357122181], [13.411877767258225, 38.062397378967255], [13.411769438229056, 38.062101105594216], [13.4112572106527, 38.061912769869345], [13.41060014081758, 38.061790503436995], [13.409999929185563, 38.06169167946688], [13.409425950628522, 38.06170659694346], [13.408913732158961, 38.06151825028236], [13.408394647617186, 38.0616472953686], [13.40785081436507, 38.06159458392434], [13.407712838920302, 38.06134325885893], [13.407313364102942, 38.061247137344], [13.407221945594152, 38.061495357534625], [13.40715869793866, 38.06176663447725]], [[13.415669195184009, 38.056266678260904], [13.415672617059233, 38.056282043854054], [13.415527900773654, 38.05630226677788], [13.415537778320896, 38.05634637750324], [13.415773494518405, 38.056313327139776], [13.4157603013578, 38.05625393698722], [13.415669195184009, 38.056266678260904]], [[13.416346629734706, 38.05795387080966], [13.416381482772774, 38.05800395861511], [13.416510139978202, 38.057948008395336], [13.416475288171062, 38.057897913434104], [13.416346629734706, 38.05795387080966]], [[13.415364941008901, 38.056685036911624], [13.41541539549696, 38.05667533002063], [13.415386820665459, 38.056582475531116], [13.41530891856439, 38.05659746821612], [13.415321186867494, 38.05663731518514], [13.415348624125851, 38.05663203734797], [13.415364941008901, 38.056685036911624]]], [[[13.428136321006702, 38.0599397569583], [13.428071707903966, 38.060279057318], [13.427636742141845, 38.060500025842416], [13.427473003256294, 38.06063768830307], [13.427458358562191, 38.060458627874524], [13.427514824517328, 38.0602284603533], [13.42771273846615, 38.06000889271871], [13.427956574497045, 38.05974839919645], [13.428136321006702, 38.0599397569583]]], [[[13.421859570833071, 38.06239563846789], [13.421652153682844, 38.06225017791867], [13.421760126258219, 38.06225720466439], [13.422191614877022, 38.06231049734224], [13.422197873756359, 38.062310922930585], [13.422200911272615, 38.06231087809967], [13.422777416731131, 38.06228824940656], [13.422664410616019, 38.062315718767216], [13.421859570833071, 38.06239563846789]]], [[[13.425141611747742, 38.061192868747455], [13.425164013905405, 38.061169955900084], [13.42527388474476, 38.06108597932561], [13.425291410119085, 38.06108382869415], [13.425141611747742, 38.061192868747455]]], [[[13.423990752133024, 38.06199333074216], [13.423980390518597, 38.06199584851239], [13.42399678467876, 38.06198921656895], [13.423990752133024, 38.06199333074216]]]]}, "properties": {"anno": 2022, "id": 29037, "data": "2022-08-19", "localita": "Monte Grifone", "sup_ha": 128.1958, "sup_boscata_ha": 13.9875, "sup_non_boscata_ha": 112.1665, "squadre_aib": 2}}, {"type": "Feature", "geometry": {"type": "MultiPolygon", "coordinates": [[[[13.424011131858885, 38.05836515320676], [13.423464383275741, 38.058448541588234], [13.423002697583732, 38.05857842081454], [13.422085147509675, 38.05856611802868], [13.421541325110296, 38.058513462105346], [13.421162309579502, 38.058216105868965], [13.421854793089354, 38.057569602505644], [13.422353700734464, 38.05715897242377], [13.422545975646113, 38.05698269350649], [13.4231949985382, 38.05660387995486], [13.423297842555266, 38.05708219659666], [13.42355847676412, 38.05723473781047], [13.424049073439193, 38.05721150251487], [13.42442724219094, 38.057156951674536], [13.424471313864144, 38.05685945215014], [13.424813707076154, 38.05671498906068], [13.425456975512773, 38.05660436722619], [13.42569191285707, 38.056533677660234], [13.425800124571797, 38.056564973117936], [13.425834418953299, 38.05649080691507], [13.42583641619423, 38.05649020372963], [13.42614366823708, 38.05622604099132], [13.426417045252572, 38.05578256017403], [13.426576729155215, 38.055367373628876], [13.426841814828729, 38.05531130265518], [13.427074957805345, 38.05498652196876], [13.426851373942192, 38.05486429253488], [13.426321195044748, 38.0549764419684], [13.425828063421193, 38.0551188860852], [13.425768591651982, 38.05518369585442], [13.425748174767675, 38.05517910381876], [13.425732317099339, 38.055223226786225], [13.425557864717923, 38.05541335975096], [13.425437786237728, 38.055739650433175], [13.424982972993456, 38.05585279535791], [13.424681461854949, 38.05584875863789], [13.424277102269327, 38.05536640525172], [13.423863807814095, 38.055301252412555], [13.423341275857165, 38.055055778043815], [13.423309975439409, 38.05475726948423], [13.42336043612274, 38.05416176644064], [13.423525880555548, 38.05347838069236], [13.423990893701701, 38.05288843191253], [13.424601549031276, 38.05253890442334], [13.42520261921993, 38.052636375323836], [13.425990219122538, 38.05282577202871], [13.42655234410489, 38.052982331497944], [13.42670627490268, 38.05283534919294], [13.426976403975226, 38.05245065532962], [13.427110746482942, 38.05245790472941], [13.427118420878084, 38.05245781277996], [13.427125971359875, 38.05245669450775], [13.42743497758715, 38.05238929150592], [13.427437713532246, 38.05238862067303], [13.427443284085362, 38.05238676934701], [13.427709941379941, 38.052281051305094], [13.42803247417541, 38.05216816389146], [13.42826680140167, 38.052130758350245], [13.428412948284262, 38.05215341332404], [13.428491939420763, 38.05221399203472], [13.428632162706617, 38.05245973702907], [13.428675004270554, 38.05258635523288], [13.42867240826225, 38.052986668571755], [13.428662842758841, 38.05343452611144], [13.428663042585088, 38.05343850577699], [13.428683106926897, 38.0536072055412], [13.428667493452805, 38.05374948094132], [13.428501253951469, 38.053515134373235], [13.428372172716157, 38.053613811804475], [13.428305711592909, 38.053607252663745], [13.428295436112966, 38.05367246482756], [13.428194659282731, 38.05374950427886], [13.427767359232258, 38.054339973498685], [13.4274480178471, 38.055170358318826], [13.427175277186215, 38.05558403399463], [13.426968881967884, 38.05589707696662], [13.42695458994544, 38.055890935048836], [13.426897779636331, 38.05597326787558], [13.426914037601511, 38.05598026792224], [13.426824608165017, 38.0561159079873], [13.426360870249798, 38.056646268673504], [13.426426046890336, 38.057124078363046], [13.426155215755745, 38.05744836096043], [13.426298956754245, 38.05777818163375], [13.426858569951065, 38.058053939310206], [13.426438883200195, 38.05828679933503], [13.425943805830796, 38.058518649867324], [13.425498749963719, 38.05854381530777], [13.4250433680282, 38.05837897617216], [13.424529186606515, 38.05828137759927], [13.424011131858885, 38.05836515320676]], [[13.426349125255888, 38.05814141377942], [13.426573525076014, 38.05821164422869], [13.42660924304031, 38.058140301408976], [13.426384735150945, 38.05807006958166], [13.426349125255888, 38.05814141377942]], [[13.426881429735507, 38.052777803736014], [13.426913656399018, 38.05286961672888], [13.427001706111534, 38.05285024610603], [13.42699441259267, 38.05282924246012], [13.42705395486777, 38.05281615640938], [13.427029138767196, 38.05274535587362], [13.426881429735507, 38.052777803736014]], [[13.425498636480327, 38.05508069161005], [13.42543745495706, 38.05518639634319], [13.425517183522134, 38.05521530616267], [13.425578367931033, 38.055109515812454], [13.425498636480327, 38.05508069161005]], [[13.427814295623023, 38.053724239582394], [13.42788550665727, 38.05375681708601], [13.427952894666058, 38.053664812059694], [13.427881674727352, 38.05363222726826], [13.427814295623023, 38.053724239582394]], [[13.425664536636965, 38.055183662781985], [13.425719075461295, 38.05519142362933], [13.425736706204965, 38.055113165365945], [13.42568228278785, 38.05510549979786], [13.425664536636965, 38.055183662781985]]], [[[13.430191832107717, 38.05542411738853], [13.430197388970251, 38.0554275557922], [13.42943531667705, 38.0556738498629], [13.428763285524669, 38.05536678801438], [13.428697458853305, 38.054918770642296], [13.428631631596927, 38.05447076041027], [13.428722093430448, 38.05404322696615], [13.428727965127432, 38.05402591141824], [13.42872868596543, 38.05402343464628], [13.428729344979248, 38.05401969176359], [13.428731796208957, 38.05399737388687], [13.42875742197143, 38.05387626183512], [13.428746740175555, 38.05386119515893], [13.428774275910348, 38.05361019440932], [13.428774436664511, 38.05360768671769], [13.428774247259945, 38.05360369908091], [13.428754032824447, 38.05343374735985], [13.428763565388754, 38.05298740428423], [13.42876619337906, 38.05258189414791], [13.42876562991341, 38.05257605224768], [13.428764647042772, 38.052572395556815], [13.428719263626256, 38.05243827065202], [13.428718323211056, 38.05243582664197], [13.428716777237547, 38.052432760818725], [13.428571449723284, 38.052178083473045], [13.42856877504802, 38.052174077925], [13.42856549442026, 38.05217037518861], [13.428561635168185, 38.05216702970122], [13.428466704564682, 38.05209423571904], [13.428461676972361, 38.05209089803667], [13.428456096201048, 38.05208816667406], [13.428450078449048, 38.05208609725688], [13.428443741188916, 38.05208473911955], [13.428275396285914, 38.05205864033236], [13.428269495268653, 38.05205804052155], [13.42826355034675, 38.05205805474148], [13.428257652688355, 38.05205868331024], [13.428009553318862, 38.05209829009911], [13.428003710564804, 38.05209954842685], [13.428000131003907, 38.0521006576877], [13.42767202476407, 38.05221549094043], [13.427670044055091, 38.052216233164515], [13.427406429455456, 38.05232074817708], [13.427109217508322, 38.052385573814874], [13.427025226790573, 38.05238104046051], [13.427169868101881, 38.0521735636231], [13.427208569457628, 38.05222075468206], [13.42729556631833, 38.052176145162136], [13.4272266552762, 38.05209209993579], [13.427367342412282, 38.051890295241144], [13.42812489500542, 38.05172156954881], [13.42891249359597, 38.0519109376348], [13.429208778844323, 38.05210241337558], [13.429191377473053, 38.0521108115862], [13.42916620363825, 38.05207830588813], [13.429122447887663, 38.05209934893924], [13.429206515425713, 38.052207981214174], [13.429291956597023, 38.05216667483957], [13.429275722623627, 38.05214567710667], [13.429618989981734, 38.052367508509235], [13.429567945978704, 38.05299281424116], [13.42990013599187, 38.05332514611562], [13.430238052883613, 38.05338927179524], [13.430575332643555, 38.05348320329248], [13.430754230890441, 38.05393272064256], [13.43054736086818, 38.05479442136313], [13.430475643819658, 38.05493605770449], [13.430464431248934, 38.05493338369906], [13.43044076603531, 38.054995426147094], [13.430445056989113, 38.05499644683671], [13.430262481528178, 38.055356991671985], [13.4302598538644, 38.0553553641549], [13.430191832107717, 38.05542411738853]], [[13.427220452947846, 38.05229355040203], [13.427174324142097, 38.0522500350718], [13.427102650538485, 38.05229756128948], [13.42714889670372, 38.052341077316854], [13.427220452947846, 38.05229355040203]]]]}, "properties": {"anno": 2022, "id": 29038, "data": "2022-08-19", "localita": "Monte Grifone", "sup_ha": 25.801, "sup_boscata_ha": 0.4714, "sup_non_boscata_ha": 20.442, "squadre_aib": 4}}, {"type": "Feature", "geometry": {"type": "Polygon", "coordinates": [[[13.322405039573106, 38.21238783314267], [13.322465537837031, 38.212244288785016], [13.322513770991694, 38.21213667158876], [13.32267718770622, 38.21199459719338], [13.322836453404236, 38.21203297307199], [13.323076390562091, 38.21204542499528], [13.323225258021926, 38.2120385249914], [13.323307173888846, 38.21195846420617], [13.323424224001549, 38.211842803663096], [13.323552088828366, 38.21175437300986], [13.32380366728196, 38.21175796364677], [13.323822182378619, 38.21194776401243], [13.324027398108269, 38.21197776934934], [13.324036137971415, 38.21209522506541], [13.324160890153932, 38.212142133268586], [13.324343650290029, 38.2121537661531], [13.32453701680305, 38.212201651781], [13.324602934179348, 38.21231992460717], [13.324473826921675, 38.212462490627594], [13.324371322274603, 38.21244297772453], [13.32411787528023, 38.21252059089695], [13.323862767189288, 38.2126703848072], [13.323655475928344, 38.21273060488712], [13.323334865556411, 38.21274407987183], [13.32317580513147, 38.21269668151462], [13.32316769017142, 38.2125521573564], [13.323101359603696, 38.212451929996384], [13.322665357718755, 38.21250888294905], [13.322564513113653, 38.2124171871904], [13.322405039573106, 38.21238783314267]]]}, "properties": {"anno": 2022, "id": 29091, "data": "2022-08-19", "localita": "Capo Gallo", "sup_ha": 1.1512, "sup_boscata_ha": 0.0, "sup_non_boscata_ha": 1.1512, "squadre_aib": 3}}, {"type": "Feature", "geometry": {"type": "Polygon", "coordinates": [[[13.308551725251272, 38.107679691201795], [13.30847400359745, 38.1083241234032], [13.30788345148141, 38.10804250834054], [13.307479662967621, 38.10783806303397], [13.306973912362398, 38.10776000966401], [13.306974443797012, 38.10773358124477], [13.306962256644685, 38.10773340559056], [13.307012479948364, 38.10765753196246], [13.307143297836602, 38.107435956524], [13.306927421206895, 38.10725904386671], [13.307031404505155, 38.106838451117895], [13.306748693113036, 38.106834378926386], [13.306404305202506, 38.106779753769395], [13.305877752229414, 38.106449394682], [13.305602492860341, 38.10612264839968], [13.305483163241686, 38.10584780499636], [13.305079968306963, 38.10561853262084], [13.304772165682627, 38.105340978809885], [13.3048407290088, 38.10509367185257], [13.304308452059662, 38.10501151150417], [13.30381160929839, 38.10475605546315], [13.303393484910453, 38.1051721121761], [13.303178198277493, 38.10497037285035], [13.303595748584854, 38.10457913697916], [13.303253662654686, 38.10442522421431], [13.302592293088038, 38.10449015986212], [13.303078985575526, 38.10382680821103], [13.302961392862246, 38.10347750311822], [13.302437753915104, 38.10302301636777], [13.302508622291342, 38.102676440432695], [13.302703987669407, 38.10238131017357], [13.303105997658312, 38.102660229345844], [13.303158482396778, 38.103107913707106], [13.303340619348425, 38.10338365853086], [13.3036792529613, 38.10368649686867], [13.30370146991494, 38.10408407989488], [13.30435479590131, 38.10436662188844], [13.304914459040278, 38.10462298847328], [13.305454779597934, 38.10435765571009], [13.305768892295177, 38.10436218383334], [13.306010430313593, 38.104787763322356], [13.306285676654797, 38.1051145012896], [13.306782531785522, 38.10536995433201], [13.307150305493494, 38.10577251454291], [13.306824142612589, 38.10628922681307], [13.306629930049981, 38.1065347164571], [13.307193632996881, 38.10661732016837], [13.307385550169235, 38.10647111634193], [13.307784285411683, 38.10553335551284], [13.307798615275331, 38.10491283151362], [13.3079962483342, 38.10451841331324], [13.308381787502668, 38.10415152653543], [13.308208213829158, 38.10350347776351], [13.307708500171058, 38.10337213785602], [13.306705065103495, 38.10328319538109], [13.30579586195921, 38.103195610655796], [13.305831862373978, 38.10299749823738], [13.30639782961616, 38.102980825548194], [13.306746797584323, 38.10283687774709], [13.307436119946393, 38.10292128893854], [13.307570357042428, 38.10255078624527], [13.306889638808586, 38.102094064916436], [13.306685821170829, 38.10139591393225], [13.306060489042341, 38.10126276531542], [13.306162746981833, 38.10091663142911], [13.30547344531111, 38.10083220510592], [13.305102267141383, 38.10057856631674], [13.305178832149371, 38.09998377678023], [13.30487619704298, 38.09948283134122], [13.303747173353472, 38.099392061661035], [13.303404531139504, 38.09926296979467], [13.303639877504898, 38.09859598100295], [13.304012205221435, 38.09879999226147], [13.30429660543248, 38.09872960362793], [13.304493085051234, 38.09838483112543], [13.304405874593574, 38.098256900749995], [13.304554597573162, 38.098300808857616], [13.30467910643734, 38.09838830616089], [13.305080250693326, 38.09823697384854], [13.305427846886378, 38.0980562958175], [13.305543838125452, 38.09772944016852], [13.305443991404994, 38.09735662275305], [13.305305375900673, 38.097097521011506], [13.305489030676698, 38.09697161601774], [13.306180254625671, 38.09678160264351], [13.306476599084927, 38.09647163083438], [13.306992394109146, 38.09605055227254], [13.30678874087499, 38.095476266072374], [13.306437905878244, 38.095014132006135], [13.306333197591979, 38.09494541874985], [13.306373031940042, 38.09492783063998], [13.306310863126345, 38.09485466509433], [13.306254088383028, 38.094883941476034], [13.306270942855326, 38.094904577288645], [13.306081805115607, 38.09478046214651], [13.30576086197769, 38.09459014758719], [13.305286523130778, 38.09399767912274], [13.304968880797757, 38.09366457203116], [13.304686054061559, 38.093389103156575], [13.304368416881067, 38.09305600174135], [13.304045375305066, 38.09268244226081], [13.30430964727403, 38.0927211813782], [13.304830965265236, 38.09327493744965], [13.30522836675133, 38.093752413873176], [13.305760266767246, 38.09430273812706], [13.305743828300903, 38.094309678957735], [13.30579824706118, 38.0943680510014], [13.305816777069374, 38.094361201606176], [13.305934136770887, 38.09448262846742], [13.306642200732375, 38.095113559136045], [13.30719552181017, 38.0956429313841], [13.307531862959172, 38.096045036746695], [13.307267432225489, 38.09661230304968], [13.307764826524314, 38.09684292301699], [13.308037779624488, 38.0972689431322], [13.307811056449264, 38.09756363022868], [13.307930395298063, 38.09783846359905], [13.308311308169397, 38.097670142480986], [13.308777295502855, 38.0979003068385], [13.308328422433322, 38.09829111019228], [13.308508874776692, 38.09864131366742], [13.308753860725288, 38.09891796161131], [13.30840264546759, 38.09916119516489], [13.308547680370546, 38.09968469193638], [13.308595633512661, 38.10033093188184], [13.308258705519966, 38.09995364866143], [13.307596237788324, 38.100068261167316], [13.307652762940542, 38.10034219789096], [13.307901763669088, 38.10044509393744], [13.308177585578596, 38.10074701471098], [13.30826780143716, 38.100922116408306], [13.308413970735296, 38.10139596734431], [13.308841117444201, 38.10194835229678], [13.309147203205482, 38.10230036330324], [13.309389328139115, 38.10270110892813], [13.309167159794098, 38.102797233027594], [13.308787943283624, 38.102891089478035], [13.308940409632713, 38.10309191433957], [13.309283646222429, 38.10319617217714], [13.309184253469313, 38.10341820170089], [13.308799304774585, 38.103760271332156], [13.309141389642603, 38.10391416801278], [13.30954401657107, 38.10416824675169], [13.309501726627106, 38.10463939301829], [13.30978214090806, 38.104742737235185], [13.30971073219242, 38.10511414557399], [13.309327485140571, 38.105381757900076], [13.309103018422352, 38.105577160445435], [13.309034469052204, 38.10582446209088], [13.309252638022794, 38.10590208404709], [13.309463362577029, 38.10630238555483], [13.309265149680881, 38.1067216261851], [13.308821361016694, 38.10688904543761], [13.308502653731493, 38.107083090797765], [13.308551725251272, 38.107679691201795]], [[13.308087084289935, 38.105847201047645], [13.308122442103352, 38.10591133355941], [13.308189144702972, 38.10587742132913], [13.308160811109083, 38.105825011610925], [13.308087084289935, 38.105847201047645]], [[13.308016590182945, 38.098082864247104], [13.30801665268983, 38.09814927762402], [13.30805269164932, 38.09814926048423], [13.308052621850749, 38.09807806894442], [13.308016590182945, 38.098082864247104]], [[13.304216396281303, 38.09280023959761], [13.304251106266264, 38.09282785984625], [13.304292252141732, 38.092803672190676], [13.304253512952673, 38.092767883170154], [13.304216396281303, 38.09280023959761]], [[13.306400888035718, 38.106559243714074], [13.306421329359765, 38.10659278742426], [13.306472609247292, 38.10656009841641], [13.306460576355345, 38.10653324823904], [13.306400888035718, 38.106559243714074]], [[13.308963503363184, 38.10553657531484], [13.308967306396202, 38.1055647441527], [13.30902983074674, 38.10555852760954], [13.30902592037724, 38.10553026440685], [13.308963503363184, 38.10553657531484]], [[13.307856756992111, 38.10714423151859], [13.30785129619788, 38.107178038983754], [13.307894170288574, 38.10717856287498], [13.307904298669849, 38.107144829853844], [13.307856756992111, 38.10714423151859]]]}, "properties": {"anno": 2022, "id": 29159, "data": "2022-08-19", "localita": "poggio ridente", "sup_ha": 31.9635, "sup_boscata_ha": 5.3866, "sup_non_boscata_ha": 23.2314, "squadre_aib": 5}}, {"type": "Feature", "geometry": {"type": "Polygon", "coordinates": [[[13.281302877837826, 38.12376001449952], [13.281096666126903, 38.12392569818259], [13.280668237861791, 38.123981587408295], [13.280278103392401, 38.12384269201303], [13.280100417032244, 38.12375129930125], [13.27990337630091, 38.12352644204378], [13.279940629548463, 38.12337604737763], [13.280568181014834, 38.12345625421992], [13.280856370334716, 38.12314970229677], [13.281208223922057, 38.123003908097864], [13.281591077137046, 38.12297398782641], [13.282019082797472, 38.12293584751186], [13.282136233950155, 38.12273333615953], [13.282319343637742, 38.12259395140546], [13.282576515018281, 38.12265098421606], [13.282776475621132, 38.122751570027944], [13.283126243365139, 38.12269453129103], [13.283287085830958, 38.12254593302688], [13.2835267800029, 38.122389613982], [13.283830767750047, 38.12236741392247], [13.28422423874293, 38.12236427796996], [13.284255851863236, 38.12197405915429], [13.28459729872148, 38.12179257743769], [13.28472545872266, 38.12159911064958], [13.28461789156568, 38.12139331734239], [13.285077930962888, 38.12142666778501], [13.285296185213857, 38.12122563562153], [13.285334256854714, 38.12103972582654], [13.28558103136415, 38.121061083165166], [13.285654061452131, 38.121301889501574], [13.285887108017102, 38.12142958988254], [13.286152380389138, 38.121140448665955], [13.286428688134327, 38.120860347093604], [13.286821311138283, 38.12089270798207], [13.287154433192251, 38.12106626011898], [13.287250366623036, 38.121289640069676], [13.28764903879055, 38.12154406016324], [13.287585802715741, 38.12184502719922], [13.287191928509433, 38.12186592711539], [13.287082474354138, 38.12174003005739], [13.28668860196395, 38.12176092020438], [13.286886489052167, 38.12195026964451], [13.286876283480831, 38.121977520096486], [13.286722610919707, 38.12205829382493], [13.286819308554774, 38.12212964178902], [13.286704318000233, 38.122436697777886], [13.286661521897084, 38.122441690502555], [13.286175875556133, 38.12240716510224], [13.285945917319804, 38.12258222922945], [13.285872591692893, 38.122745858609754], [13.28581622582596, 38.122973520581155], [13.285794775226918, 38.12297320750513], [13.285651198368171, 38.122864562435325], [13.285437306010111, 38.12287920140049], [13.285421081830185, 38.12309206791922], [13.285127901028831, 38.123132180292444], [13.28506424660711, 38.1234509054255], [13.28473901819231, 38.12341952282635], [13.284745048010292, 38.12316211120909], [13.284602730065842, 38.12300021575631], [13.284399646425642, 38.12303276922653], [13.284227360077434, 38.12319007389411], [13.283922120912319, 38.123265531365945], [13.283459780551983, 38.12332981550725], [13.283087954308723, 38.123368782327034], [13.283231528396728, 38.12347742234745], [13.283101270175237, 38.123759656575764], [13.282751497298669, 38.123816695106825], [13.282324944064015, 38.12379270443197], [13.281841793533989, 38.12378564368626], [13.281641206049375, 38.123711684904485], [13.281302877837826, 38.12376001449952]]]}, "properties": {"anno": 2022, "id": 29251, "data": "2022-08-19", "localita": "Manche di Bellolampo", "sup_ha": 7.8802, "sup_boscata_ha": 5.9691, "sup_non_boscata_ha": 1.6923, "squadre_aib": 2}}, {"type": "Feature", "geometry": {"type": "MultiPolygon", "coordinates": [[[[13.289689837832926, 38.121256818452764], [13.289461934926543, 38.121407138132845], [13.289502661382997, 38.121584998664964], [13.289830832825734, 38.121625227963186], [13.290186446372639, 38.12177222061836], [13.290095379034215, 38.12183866770587], [13.28980562466377, 38.121718897607785], [13.28946115550781, 38.12159036086368], [13.28943283504262, 38.1213154595519], [13.289000897618545, 38.12121310183576], [13.288710438305811, 38.121292865931885], [13.288931014537646, 38.12108032480152], [13.289129290823023, 38.120917758383456], [13.289899699556761, 38.12059805764765], [13.290428079236621, 38.12039302009377], [13.291218190215925, 38.12051086469093], [13.291611686442423, 38.120315677312036], [13.292276857104945, 38.120018077751986], [13.29288467567959, 38.11961326873556], [13.292728707567372, 38.119244645028786], [13.293463950687, 38.119148955281965], [13.29385863380788, 38.119544681943665], [13.29378560685375, 38.12011088681536], [13.294019378027985, 38.12035064196992], [13.29431021417751, 38.12070940465912], [13.29414102834513, 38.12090785650324], [13.293858272140266, 38.120844666562675], [13.293464132458874, 38.12042530817708], [13.293325408776933, 38.12060056991739], [13.29336476774384, 38.12083750301798], [13.292832260550073, 38.12121976943057], [13.29266307982854, 38.12141821915517], [13.292224429363683, 38.121624569655836], [13.291521553608021, 38.12161435649642], [13.290964918894549, 38.12174808599834], [13.290746116361642, 38.12150854270086], [13.29061731074453, 38.12125849264308], [13.290094441766307, 38.121227249227324], [13.289689837832926, 38.121256818452764]]], [[[13.28864296583999, 38.121660804848354], [13.288929873307296, 38.12202181594879], [13.28896606921441, 38.12212122646154], [13.288464151069135, 38.12185351532556], [13.288662312696959, 38.121392579923196], [13.28864296583999, 38.121660804848354]]]]}, "properties": {"anno": 2022, "id": 29252, "data": "2022-08-19", "localita": "Manche di Bellolampo", "sup_ha": 5.8451, "sup_boscata_ha": 1.0789, "sup_non_boscata_ha": 4.7662, "squadre_aib": 2}}]}