{"type": "FeatureCollection", "features": [{"type": "Feature", "geometry": {"type": "Polygon", "coordinates": [[[13.294377444631492, 38.197893547433765], [13.294382814307683, 38.197663861802276], [13.294435345147424, 38.197492299898855], [13.29465676824705, 38.19736148779772], [13.294856169755535, 38.19713461830942], [13.295540206593364, 38.19693393133561], [13.296002375123086, 38.1968831978401], [13.296181260827872, 38.19678768661036], [13.296382231524365, 38.196745506683634], [13.296387722463864, 38.196918446962506], [13.29656685479893, 38.19699619581844], [13.2967376899493, 38.19702122479892], [13.296858296170056, 38.19715825145845], [13.297006407268121, 38.19734077226316], [13.29718910535862, 38.19767411168555], [13.296921659138903, 38.19770780913501], [13.296749234046647, 38.19775040418947], [13.296587272540142, 38.197810730767166], [13.296438174975432, 38.197961744211675], [13.296192495890717, 38.19809221569269], [13.296091464995694, 38.198263067138456], [13.29582420934165, 38.19827833870787], [13.29570696797267, 38.19810431298174], [13.295441959463613, 38.19802387926932], [13.295151351790587, 38.19800052059668], [13.294884097172366, 38.19801578193586], [13.29454319754484, 38.1980682793417], [13.294377444631492, 38.197893547433765]]]}, "properties": {"anno": 2010, "id": 557, "data": "2010-05-10", "localita": "Spinasanta", "sup_ha": 2.4948, "sup_boscata_ha": 0.0, "sup_non_boscata_ha": 2.4948, "luogo_inizio": "incolto e pascolo", "squadre_aib": 0, "fine_intervento": "2010-05-10"}}, {"type": "Feature", "geometry": {"type": "Polygon", "coordinates": [[[13.3068825167249, 38.15728262594899], [13.306939749403933, 38.15713475606886], [13.307130472739185, 38.15703128668835], [13.307321186413917, 38.15692781685202], [13.307563238105537, 38.15693130332274], [13.30764735837049, 38.1567838206276], [13.307651784721012, 38.15659269628861], [13.307630306049242, 38.15635871281485], [13.307687537579397, 38.156210842511946], [13.307639159616091, 38.155976472230094], [13.307804948856422, 38.15578767260124], [13.307890552388058, 38.15557647836981], [13.308160471151819, 38.155537879396356], [13.308265095735694, 38.15566684233957], [13.30834134704022, 38.15585912821027], [13.308444005139563, 38.156073032381535], [13.308438105546779, 38.156327860143485], [13.308596529409316, 38.15645759693309], [13.308732468555199, 38.156395829586735], [13.308817086778484, 38.15622710625056], [13.308740824738118, 38.15603482053074], [13.30869146114867, 38.15584292131227], [13.308855772251555, 38.15571783067753], [13.30901565905253, 38.15578386338662], [13.309173591311444, 38.15593483115405], [13.309441545853586, 38.155981172488886], [13.30965620500501, 38.15600550715687], [13.309898745412855, 38.15598774978052], [13.310005829349267, 38.15601053622972], [13.30989383354519, 38.15620011332456], [13.309701640742874, 38.15636728980251], [13.30961604251807, 38.15657848544448], [13.309721652920645, 38.15666497553379], [13.309852688756084, 38.156815563315014], [13.309875167933384, 38.1570070669601], [13.309842864743441, 38.1572402759108], [13.309879473973398, 38.157485243111054], [13.309855962503459, 38.157697820999495], [13.30918221033283, 38.15811455800091], [13.309428407872607, 38.15830005959201], [13.309318598824406, 38.1582826557075], [13.30890830026073, 38.1580977824054], [13.308561626199616, 38.15796533613263], [13.308242324617124, 38.157812044419266], [13.308085383624812, 38.15761859674964], [13.307817916205549, 38.15755101327575], [13.307523549339194, 38.15748304957085], [13.307257067359327, 38.15737299328528], [13.307126044958437, 38.15722241096151], [13.3068825167249, 38.15728262594899]]]}, "properties": {"anno": 2010, "id": 556, "data": "2010-05-25", "localita": "Malaterra", "sup_ha": 4.4546, "sup_boscata_ha": 0.0, "sup_non_boscata_ha": 0.2541, "luogo_inizio": "incolto e pascolo", "squadre_aib": 0, "fine_intervento": "2010-05-25"}}, {"type": "Feature", "geometry": {"type": "Polygon", "coordinates": [[[13.32464816600632, 38.21228234013357], [13.32426318688973, 38.212135682593946], [13.32427984665513, 38.212135678952315], [13.32406637374452, 38.21205194397536], [13.323785042163736, 38.21197346921564], [13.323342948066507, 38.21198407906248], [13.323009391811844, 38.21193870414479], [13.32279668367129, 38.21186119944884], [13.32292704810684, 38.21178860174242], [13.323049140163446, 38.211702344769016], [13.32301795192545, 38.211566513369306], [13.323030259169153, 38.2114042216205], [13.323104941182349, 38.21114128131362], [13.323211130527676, 38.211000644063624], [13.323348353909106, 38.21100260270105], [13.323517710343328, 38.211099794017784], [13.323705310666456, 38.21114985064238], [13.324133990824981, 38.21116274220388], [13.324451798290424, 38.211146969333925], [13.324629272898273, 38.21126457372574], [13.324856327974508, 38.21146412565754], [13.325100706298864, 38.21165715121177], [13.325275686383465, 38.21188303199761], [13.325290973266538, 38.21198477460886], [13.325260571018477, 38.21200655092154], [13.32521655031602, 38.21203013708367], [13.325182662918282, 38.21205790776318], [13.32512321545488, 38.21208530555979], [13.325043072087094, 38.21212250733244], [13.324986126723948, 38.21215196028042], [13.324937043736833, 38.21217345457298], [13.324882750591446, 38.212198914407814], [13.3248671493891, 38.21220600108923], [13.32485149042234, 38.21218900598501], [13.32464816600632, 38.21228234013357]], [[13.324835460478683, 38.21200432651643], [13.324927467452651, 38.21208544248891], [13.325011683673528, 38.21203120830763], [13.324908869680788, 38.21194565040714], [13.324835460478683, 38.21200432651643]], [[13.325070697287131, 38.21196658621585], [13.325133045228473, 38.21191539669666], [13.325054417797645, 38.211857885026326], [13.324996192033373, 38.211914400651594], [13.325070697287131, 38.21196658621585]]]}, "properties": {"anno": 2010, "id": 554, "data": "2010-05-31", "localita": "Fossa del Gallo", "sup_ha": 1.8092, "sup_boscata_ha": 0.0, "sup_non_boscata_ha": 1.8057, "luogo_inizio": "altro", "squadre_aib": 0, "fine_intervento": "2010-05-31"}}, {"type": "Feature", "geometry": {"type": "Polygon", "coordinates": [[[13.32417168578915, 38.21258271875917], [13.324187328738114, 38.21260035895853], [13.324200937398334, 38.21261954624779], [13.324214718255444, 38.212630828263315], [13.32424105692829, 38.2126201191006], [13.324263370122138, 38.21260883158111], [13.324231258022277, 38.212648908414906], [13.324064586628785, 38.212739291780686], [13.323724194444313, 38.212970972999074], [13.323595378613343, 38.212820720063824], [13.323585758406198, 38.21272782114407], [13.323652643800964, 38.212631375813324], [13.323778075650136, 38.212545042341375], [13.323798504722273, 38.21253652431853], [13.323815334018315, 38.212547555237734], [13.323847066982546, 38.21256383922797], [13.323880798094157, 38.21258015264752], [13.323901257857647, 38.21256302800971], [13.323925987369377, 38.21253488721406], [13.323944476176234, 38.212516149270016], [13.323922700122644, 38.21250317600217], [13.323905223263916, 38.21249204303014], [13.323950197041881, 38.21247329492005], [13.324127767423589, 38.21242016924346], [13.324272973268023, 38.21249645182256], [13.324276086031329, 38.21252467212135], [13.324261156802246, 38.21253248384094], [13.32417872167821, 38.21257559457775], [13.32417168578915, 38.21258271875917]]]}, "properties": {"anno": 2010, "id": 555, "data": "2010-06-16", "localita": "Fossa del Gallo", "sup_ha": 0.1851, "sup_boscata_ha": 0.0, "sup_non_boscata_ha": 0.1851, "luogo_inizio": "altro", "squadre_aib": 1, "fine_intervento": "2010-06-16"}}, {"type": "Feature", "geometry": {"type": "Polygon", "coordinates": [[[13.349070284185501, 38.07006755161248], [13.34906223764615, 38.06999000211546], [13.349113111182772, 38.06990554192599], [13.349115371160133, 38.06980490999297], [13.349146511990293, 38.06971081190019], [13.349154638032338, 38.069660943431515], [13.349210862056754, 38.069596772026976], [13.34928435759634, 38.069576153459806], [13.349358338472728, 38.069533889701304], [13.349450895224038, 38.0694774533849], [13.349478597023545, 38.069463408157205], [13.34955766351677, 38.06949619011171], [13.349666376514726, 38.0695338015187], [13.349774756294932, 38.06958584068575], [13.349874657674098, 38.0696088938096], [13.349974397020306, 38.06963916129416], [13.350038936646348, 38.069611198870355], [13.350138353043052, 38.06965589512281], [13.350227134258443, 38.0696612961304], [13.35018435051966, 38.069718998753046], [13.350141567852127, 38.069776701374025], [13.350092621049102, 38.069828786830435], [13.350033279809312, 38.06991056467264], [13.349994939319416, 38.06997562383465], [13.349956364795379, 38.07005160300611], [13.3499287035022, 38.07013562712485], [13.349904267016138, 38.07019723078569], [13.349889055580796, 38.07025896308712], [13.349860266260688, 38.07030957509141], [13.34985895885452, 38.07036785913828], [13.349690543613606, 38.07036276151167], [13.349516894252073, 38.07024417732475], [13.349420709426703, 38.07016539071335], [13.349254596172083, 38.07014756847523], [13.34913744229425, 38.07013044107189], [13.349070284185501, 38.07006755161248]]]}, "properties": {"anno": 2010, "id": 261, "data": "2010-07-08", "localita": "Valle Giorgia", "sup_ha": 0.6102, "sup_boscata_ha": 0.6102, "sup_non_boscata_ha": 0.0, "luogo_inizio": "bosco", "squadre_aib": 1, "fine_intervento": "2010-07-08"}}, {"type": "Feature", "geometry": {"type": "Polygon", "coordinates": [[[13.368837430825234, 38.15771096214334], [13.368355037871543, 38.15764313646275], [13.367903769801982, 38.15760551006732], [13.367878776288109, 38.157478848086484], [13.367875454363396, 38.15728885602914], [13.367885457611095, 38.15719386217185], [13.3678688051359, 38.15687220377114], [13.367667166997562, 38.15650055746535], [13.367273870744034, 38.15596558203564], [13.366885579321636, 38.155423939492565], [13.36671893016186, 38.15517395065803], [13.366519634343065, 38.15494750401717], [13.36688462473914, 38.15485876375019], [13.36677750280765, 38.154336121282064], [13.366394356758434, 38.15435163931863], [13.366163081436705, 38.154364062367165], [13.366198896899842, 38.154197080255585], [13.366387599339086, 38.15405323712879], [13.366738962477754, 38.15400929542312], [13.367004990026484, 38.15409436643398], [13.367312953759516, 38.154147469375786], [13.367517179206502, 38.15423167268081], [13.367678732585869, 38.154380390808335], [13.367732439745751, 38.1544155588273], [13.367764076129252, 38.15445358136053], [13.367841824457896, 38.15452811176869], [13.36799770138612, 38.15465926408466], [13.368024278269944, 38.154678004897605], [13.368060473119376, 38.15470353728643], [13.368062477543239, 38.15470495566316], [13.368069355779257, 38.15480357894023], [13.368448763809248, 38.15478018037974], [13.368469710222032, 38.15495325714908], [13.368469826129907, 38.15495425275984], [13.368467549908297, 38.154957040920905], [13.368378859991482, 38.15506585060751], [13.368399180003477, 38.15517182952068], [13.368567848315598, 38.15523866506505], [13.368579231008718, 38.15533825117246], [13.368627775188457, 38.15539983720288], [13.36868436323055, 38.15571055318887], [13.368972601381929, 38.15574898235222], [13.368992735322378, 38.155881442417076], [13.369027131409277, 38.15606823799132], [13.36905822565622, 38.1563015597039], [13.36910913997842, 38.15656203524836], [13.369128061592605, 38.1567306950063], [13.369158983698048, 38.15686996908301], [13.36917295563364, 38.15686858607681], [13.369173327327278, 38.156871318205795], [13.36969466557343, 38.15686908830462], [13.36970537832668, 38.15692600859931], [13.369189924370108, 38.15693305055717], [13.369189540456711, 38.15693701491693], [13.36917573092513, 38.15693290028741], [13.369140854513892, 38.15707215534522], [13.369174715070272, 38.157079788205735], [13.36910702695383, 38.15746939993646], [13.369058968208938, 38.15777692284683], [13.368837430825234, 38.15771096214334]]]}, "properties": {"anno": 2010, "id": 1027, "data": "2010-07-12", "localita": "Monte Pellegrino", "sup_ha": 5.0952, "sup_boscata_ha": 0.0, "sup_non_boscata_ha": 5.0952, "luogo_inizio": "altro", "squadre_aib": 1, "fine_intervento": "2010-07-12"}}, {"type": "Feature", "geometry": {"type": "Polygon", "coordinates": [[[13.33805319694274, 38.16089243253226], [13.338101531904613, 38.16092243460192], [13.338346519628491, 38.160930761988055], [13.33850317416906, 38.16097409587623], [13.33880202837623, 38.160891633306456], [13.338936554440593, 38.16078915165439], [13.339045600268543, 38.16064456878244], [13.33915783053694, 38.16058799362522], [13.339266579122693, 38.16053953285628], [13.339343172536102, 38.16045743864367], [13.339309840962262, 38.16038244545328], [13.339409820497718, 38.16036656595876], [13.339631540430064, 38.16018381617154], [13.33973035639453, 38.16001522395221], [13.339783385725099, 38.159910975180345], [13.33988163301277, 38.1597673742767], [13.33995039947495, 38.15964468008429], [13.340059842952622, 38.1596374634499], [13.340071498162196, 38.159422411383176], [13.340218616647267, 38.15919031897039], [13.340349853380896, 38.159112475921305], [13.340426526741627, 38.15898248282322], [13.3406216733157, 38.15904330001122], [13.340796512241731, 38.15899414786896], [13.340473670345313, 38.158843612074264], [13.34073318660787, 38.15875082422833], [13.340641527924662, 38.15863915656971], [13.34070986307643, 38.15850416646646], [13.34081319926567, 38.15847250043146], [13.340881527619855, 38.15838416757828], [13.340918201293073, 38.1582041704364], [13.34119319425841, 38.15824249865672], [13.3413215214778, 38.15821249823929], [13.341503179244391, 38.15826416662424], [13.341584842336882, 38.15835248897875], [13.341754825160125, 38.158419156157066], [13.341628159911401, 38.15858748120948], [13.341426492269452, 38.15883080858963], [13.3411698203286, 38.15920913500011], [13.341023143924179, 38.159404125382295], [13.340878147928967, 38.15959745411549], [13.340768144300979, 38.159634121213266], [13.340656481473406, 38.159664123097485], [13.340476490597537, 38.159675789908285], [13.340514820188211, 38.159760789779874], [13.340599814109403, 38.15983244938927], [13.340608137926091, 38.159964109758704], [13.340571469720382, 38.16004244074842], [13.340433136074362, 38.16022910423697], [13.340564793638887, 38.16028743267455], [13.340541459206438, 38.16035743058518], [13.340439794644604, 38.16046742487525], [13.340296466660488, 38.160450764776684], [13.340086464795592, 38.160670759424995], [13.340016463565599, 38.160685758424556], [13.339994791273963, 38.16074408787179], [13.340021460823774, 38.160827416274955], [13.339863124554395, 38.16100741052182], [13.339868117194703, 38.16108907258657], [13.33986811428417, 38.16120740942243], [13.339554796131546, 38.16109074392335], [13.339344813183823, 38.16103575116975], [13.339169813568642, 38.161120750245416], [13.339094814578264, 38.161225744105735], [13.339013140588051, 38.16141573961583], [13.338888148328614, 38.161329078884734], [13.338671489824014, 38.16124575217355], [13.338533168048349, 38.161092421000916], [13.338314850550322, 38.161069097410085], [13.338171521052702, 38.16100743182729], [13.33805319694274, 38.16089243253226]]]}, "properties": {"anno": 2010, "id": 989, "data": "2010-08-06", "localita": "Favorita", "sup_ha": 2.7096, "sup_boscata_ha": 0.0, "sup_non_boscata_ha": 2.7096, "luogo_inizio": "bosco", "squadre_aib": 0, "fine_intervento": "2010-08-06"}}, {"type": "Feature", "geometry": {"type": "Polygon", "coordinates": [[[13.36255325285764, 38.157128708373534], [13.362568260468073, 38.15701704363283], [13.362664921201928, 38.15697537652691], [13.362679925194266, 38.15694204120198], [13.362739926978813, 38.15694037619913], [13.362806587858955, 38.15693704761912], [13.362866584935158, 38.156938706030054], [13.36290491154091, 38.15693537975387], [13.363011573450148, 38.1569470420261], [13.363101569807162, 38.15701536774439], [13.36315823711002, 38.15698203821379], [13.363194906759603, 38.15695037193008], [13.363286565341504, 38.156897036417234], [13.363386558306695, 38.15695036868171], [13.3634232175148, 38.157040363012875], [13.363488216040514, 38.15708536177955], [13.363626543677439, 38.1570120277466], [13.363761540716096, 38.15696703244127], [13.363768210348452, 38.15691036107896], [13.363838212625028, 38.15688702816386], [13.363874866935292, 38.15697369063585], [13.363826536438259, 38.15705035988762], [13.363892781619008, 38.15709060586856], [13.363933196669793, 38.15710868610268], [13.363603208674471, 38.15723202344171], [13.363309877520583, 38.157397019490745], [13.362936559675218, 38.157488692751976], [13.362799898828415, 38.157502022636706], [13.362821562888707, 38.157378697518425], [13.362699902073228, 38.15735536023659], [13.362609905518722, 38.15736036755976], [13.362579911316782, 38.15724037019492], [13.36255325285764, 38.157128708373534]]]}, "properties": {"anno": 2010, "id": 988, "data": "2010-08-13", "localita": "Grattarola", "sup_ha": 0.4795, "sup_boscata_ha": 0.3298, "sup_non_boscata_ha": 0.0, "luogo_inizio": "bosco", "squadre_aib": 1, "fine_intervento": "2010-08-13"}}, {"type": "Feature", "geometry": {"type": "Polygon", "coordinates": [[[13.35956385486172, 38.154504031694096], [13.359567288821594, 38.15449089633627], [13.359568888776748, 38.154489271335216], [13.359578660500143, 38.15447209982721], [13.359578846728482, 38.15447168338116], [13.359593076141504, 38.15445747143471], [13.359612277814978, 38.15443919614765], [13.359629821853447, 38.15442461055336], [13.359634333417848, 38.15442037766446], [13.35955260392657, 38.15433076273329], [13.359464279374391, 38.15428076691194], [13.359539280766553, 38.15417576684041], [13.359747598121979, 38.154207432690065], [13.359563591559004, 38.15399736232737], [13.359563054445523, 38.1539928101829], [13.359562848310006, 38.15399105901773], [13.359560164090908, 38.15397124336395], [13.359565299656895, 38.153951536956484], [13.359571896573327, 38.153936798431744], [13.359581706159625, 38.15391839193524], [13.359589746128782, 38.15390862283901], [13.35960690139033, 38.15391133263034], [13.359636493973522, 38.1539179218117], [13.359675367683819, 38.15392958900766], [13.359712761357969, 38.15393752987179], [13.359754845333905, 38.15394553534117], [13.359786111631353, 38.153947207606834], [13.359810985182133, 38.15395496543996], [13.359846833242248, 38.15396164915673], [13.359871817440704, 38.153964468264505], [13.35991261517131, 38.15396009695562], [13.359929770458523, 38.15396280670029], [13.35995324693178, 38.15396313460272], [13.359979878302818, 38.1539622710497], [13.360007962091323, 38.15396636803425], [13.360025172696822, 38.15396660840855], [13.360040792611748, 38.15396806117804], [13.360057781769328, 38.15397818798284], [13.360060099025961, 38.153992840158054], [13.360062597438139, 38.15399242446249], [13.360042591048364, 38.15411409426327], [13.35987389755652, 38.15439639950111], [13.359730424498514, 38.15448163663198], [13.359728723392143, 38.15448161286898], [13.35972583847761, 38.1544843536043], [13.359723275228088, 38.154485879539195], [13.359722500181439, 38.15448578310051], [13.35972234681098, 38.154486464952114], [13.359712520935336, 38.154506105844625], [13.359704498116066, 38.154514648684305], [13.359701314397096, 38.15451707433851], [13.359687175593068, 38.15451934695594], [13.359671527896632, 38.15451912926541], [13.3596419085363, 38.154513775232274], [13.35962002376104, 38.15451223398725], [13.359598175929706, 38.154509451431075], [13.35958255707168, 38.15450799771544], [13.359566926784982, 38.15450654473926], [13.35956385486172, 38.154504031694096]]]}, "properties": {"anno": 2010, "id": 990, "data": "2010-08-23", "localita": "Monte Pellegrino", "sup_ha": 0.2, "sup_boscata_ha": 0.0, "sup_non_boscata_ha": 0.0, "luogo_inizio": "bosco", "squadre_aib": 1, "fine_intervento": "2010-08-23"}}, {"type": "Feature", "geometry": {"type": "Polygon", "coordinates": [[[13.347039841925465, 38.1534309520842], [13.347144843515887, 38.153342617983874], [13.347144839395797, 38.15325928611015], [13.34710317858095, 38.15324262718758], [13.34707651951957, 38.153164296520224], [13.347188180453037, 38.153055967082345], [13.347131526484702, 38.15299929935794], [13.347109855574118, 38.15301096554198], [13.347124857287849, 38.15291097125811], [13.347161527368206, 38.15288596790847], [13.347308184840923, 38.15294930048453], [13.347418175202693, 38.15300096116811], [13.347469843548932, 38.15298096216437], [13.347554840873816, 38.15295929457977], [13.347658171771911, 38.15288429914177], [13.347696503526358, 38.1528676305603], [13.347733178956549, 38.15272930140596], [13.34770151300338, 38.15262430848859], [13.347733181654355, 38.152634308384904], [13.347883170889304, 38.15263596732034], [13.34777483956082, 38.152785966949736], [13.347706502130132, 38.15291096376213], [13.347539834879713, 38.15309429327478], [13.34747316765083, 38.15317762049825], [13.347383162441474, 38.15329761973708], [13.347238165568028, 38.15351094485754], [13.347156496392532, 38.15347594890095], [13.347039841925465, 38.1534309520842]]]}, "properties": {"anno": 2010, "id": 991, "data": "2010-08-24", "localita": "Favorita", "sup_ha": 0.1987, "sup_boscata_ha": 0.0, "sup_non_boscata_ha": 0.1987, "luogo_inizio": "bosco", "squadre_aib": 1, "fine_intervento": "2010-08-24"}}, {"type": "Feature", "geometry": {"type": "Polygon", "coordinates": [[[13.305339172815428, 38.10076005905799], [13.305190704922735, 38.10071687022711], [13.305192410269518, 38.10064310985403], [13.305235593715082, 38.10056995600046], [13.305453882795495, 38.10055351069534], [13.305709171672772, 38.10060787171967], [13.305985045475108, 38.100696314264674], [13.306218947956507, 38.10075036578082], [13.306358835603639, 38.10071014438979], [13.306574106331668, 38.100645675580125], [13.3067889835584, 38.100598089709266], [13.307005417231652, 38.100482955413966], [13.307281684295836, 38.100554504370784], [13.307453820506352, 38.10050630139046], [13.30766597281364, 38.10057693377133], [13.307750295232397, 38.100628820952416], [13.307772691944757, 38.100750090031546], [13.307893539022936, 38.10107977555795], [13.307928000396842, 38.10129889906389], [13.308030887588663, 38.10155024482103], [13.30815839230308, 38.10184039026176], [13.307855997625124, 38.10185377354177], [13.30736443638654, 38.10208681098532], [13.306961949094276, 38.1019934648661], [13.306795613048894, 38.10171845071272], [13.30684027227289, 38.10150108735233], [13.306599459578567, 38.10138769479523], [13.306320704196214, 38.10141116386423], [13.306042477204885, 38.10120670544566], [13.305990811216502, 38.10107503883671], [13.305878208306329, 38.10094877193484], [13.305665404417734, 38.10091501942403], [13.305568565198667, 38.10097646279139], [13.305497096901954, 38.10092624191497], [13.305467308972133, 38.10086842691599], [13.305426964192298, 38.1008186558516], [13.305339172815428, 38.10076005905799]]]}, "properties": {"anno": 2010, "id": 1167, "data": "2010-08-24", "localita": "Poggio Ridente", "sup_ha": 2.3182, "sup_boscata_ha": 0.3144, "sup_non_boscata_ha": 2.0038, "luogo_inizio": "altro", "squadre_aib": 1, "fine_intervento": "2010-08-24"}}, {"type": "Feature", "geometry": {"type": "Polygon", "coordinates": [[[13.294911685866897, 38.14834676032281], [13.294950574981955, 38.148035136596164], [13.295175958228455, 38.14786357899457], [13.295588989906399, 38.147782152153816], [13.295988843235286, 38.14758814836315], [13.29628489877874, 38.14746280158749], [13.296710359499697, 38.147322271095035], [13.297056352385983, 38.14712353609797], [13.297432777713444, 38.1471573598254], [13.297843796351012, 38.147248424309254], [13.298254816249594, 38.147339479269], [13.298664848689738, 38.14747308175678], [13.298894986273593, 38.14761826403238], [13.299207635329598, 38.14792445217645], [13.29942519258424, 38.14803834634764], [13.299523515274231, 38.14825000471374], [13.299736838006643, 38.14838999441805], [13.29984349568978, 38.14863332054037], [13.299948488869713, 38.14871164576916], [13.30001215879456, 38.14910310675041], [13.300025804198771, 38.14939311225236], [13.300082837519097, 38.14957104888899], [13.300099110199199, 38.14974838821363], [13.299954931052294, 38.14981070945723], [13.299812631832676, 38.149792547029755], [13.29975559769278, 38.14961461837098], [13.299677439534157, 38.149468575472106], [13.299687665441326, 38.14936341527809], [13.299759832480225, 38.14916443157585], [13.299765409723566, 38.148924477017644], [13.299517150908988, 38.148707517881846], [13.299303273034825, 38.148464395003245], [13.298720500271145, 38.14810924150525], [13.29848261232543, 38.14817247331237], [13.298455364838574, 38.14853446592289], [13.298144662877375, 38.148823363249846], [13.2979055221064, 38.14893992958299], [13.29775087616074, 38.14902206997839], [13.297529301910474, 38.14890615623028], [13.297223948160335, 38.1488856283262], [13.296920467454742, 38.14878462330971], [13.296806120990656, 38.1486142050578], [13.296599650851293, 38.148521092016914], [13.296365140635945, 38.148405307452016], [13.296019108414235, 38.14832536405902], [13.295589388928638, 38.148444009168884], [13.295253644780631, 38.148601475150556], [13.294969389887118, 38.14858486771001], [13.294911685866897, 38.14834676032281]]]}, "properties": {"anno": 2010, "id": 1166, "data": "2010-08-28", "localita": "Petrazzi", "sup_ha": 5.1381, "sup_boscata_ha": 0.0, "sup_non_boscata_ha": 4.8731, "luogo_inizio": "incolto e pascolo", "squadre_aib": 1, "fine_intervento": "2010-08-28"}}, {"type": "Feature", "geometry": {"type": "Polygon", "coordinates": [[[13.29050871921356, 38.1674050114821], [13.29056136514209, 38.16718124827245], [13.29089786267271, 38.166980320312426], [13.291331756954124, 38.16666854757436], [13.291576550461683, 38.166335309794576], [13.291751138501573, 38.16596362987399], [13.291925288053108, 38.165610657852426], [13.292191583104037, 38.165371285446625], [13.292768765680034, 38.165296893819644], [13.293196042438419, 38.164998907436484], [13.293726417959467, 38.1647853830617], [13.29394296415975, 38.16451198896574], [13.2940868934724, 38.16434816151105], [13.294285665891508, 38.16385146364547], [13.294809886360838, 38.16347918309362], [13.295173252040984, 38.16410855943205], [13.295474871440545, 38.16443855467042], [13.295544736166706, 38.164877355275436], [13.295777721214813, 38.16504913710737], [13.29573137752326, 38.16522918852707], [13.295726314760243, 38.16544619503443], [13.295583820039969, 38.16566120740039], [13.295488029321247, 38.165784018618204], [13.295032653753648, 38.16600194105015], [13.29467422234443, 38.16612771405], [13.294364482346891, 38.166198065801765], [13.294000806056246, 38.16654829040426], [13.293746137514324, 38.166797188187346], [13.293697007641184, 38.166871323470176], [13.293479851177844, 38.16703656419457], [13.293310513045695, 38.167183793169315], [13.292949887914306, 38.16740308375024], [13.29263795319783, 38.167566953790214], [13.292279947894196, 38.167674011864456], [13.29201933028395, 38.16767022346126], [13.291689831688426, 38.16757187832189], [13.291432715186518, 38.167418450945696], [13.291127341701102, 38.16730174976563], [13.290770211719137, 38.16737139494405], [13.29050871921356, 38.1674050114821]]]}, "properties": {"anno": 2010, "id": 1164, "data": "2010-08-29", "localita": "Vallone Guggino", "sup_ha": 8.853, "sup_boscata_ha": 0.6358, "sup_non_boscata_ha": 6.6326, "luogo_inizio": "incolto e pascolo", "squadre_aib": 2, "fine_intervento": "2010-08-30"}}, {"type": "Feature", "geometry": {"type": "MultiPolygon", "coordinates": [[[[13.354253154801048, 38.071526529542716], [13.35401450724917, 38.07155330093682], [13.35350536821271, 38.07168906843347], [13.35315101571918, 38.07136974623918], [13.352981837585086, 38.07085297724584], [13.353029498866716, 38.070339243864346], [13.353687663085482, 38.07000552488553], [13.353987008110368, 38.06955246768509], [13.35395854326097, 38.06920913485658], [13.353452619928007, 38.06920205388656], [13.352975146642033, 38.06953830266119], [13.352698200058951, 38.06899144315], [13.352711642415834, 38.06839149719298], [13.35272124416878, 38.06796296484582], [13.352948306233005, 38.06750889680208], [13.352774025142097, 38.067220675833674], [13.352057049299423, 38.0669534325607], [13.351960806920088, 38.06640910260556], [13.351641345076699, 38.06614742586094], [13.35114184914275, 38.06585464456803], [13.350308151977904, 38.06595726821902], [13.349770601541495, 38.06574967974605], [13.349635674232134, 38.065319118753344], [13.349725263739138, 38.06454877580186], [13.34958905484642, 38.06417535014355], [13.348839201665049, 38.06376472857924], [13.348597803083218, 38.06324693828192], [13.349114596078428, 38.06276837465382], [13.350172423035474, 38.06234025830702], [13.350861538617101, 38.06223560806364], [13.351440969256343, 38.06218657754505], [13.35212944204742, 38.06211049115689], [13.35260238914709, 38.06197422869705], [13.352932714279861, 38.061750227054155], [13.35336824090834, 38.06167059136932], [13.353736618890428, 38.061361393981585], [13.354279264283614, 38.061340407181746], [13.35515350420141, 38.06103828134141], [13.355345350009593, 38.06054084887831], [13.356073134005097, 38.06032239472022], [13.356945438983919, 38.060105962152434], [13.35813975916337, 38.06003690458633], [13.359220568151503, 38.06019487233018], [13.360187887443658, 38.06057987609354], [13.360689305162662, 38.060786912927476], [13.360840659893583, 38.061025730220365], [13.360431439940992, 38.061993316008405], [13.360224488459936, 38.0621807527286], [13.359997488574077, 38.06263483573479], [13.360023423184234, 38.06309244573239], [13.359715867282855, 38.06391691251972], [13.359706945591858, 38.06431688332017], [13.359916111884736, 38.06466273381755], [13.360491735705246, 38.06478507249599], [13.360997630386992, 38.06479212337863], [13.361507354779029, 38.06462775770502], [13.36187188512325, 38.06448994079878], [13.362278290103998, 38.06409551275389], [13.3624349230453, 38.06355471087431], [13.362835584560969, 38.063417393484926], [13.363774464091733, 38.06345903792367], [13.36453075782531, 38.063583870501965], [13.364849621160177, 38.0638740846464], [13.364979555318575, 38.0645331791537], [13.36464734575044, 38.064842922498094], [13.364959862064175, 38.06541882202284], [13.365020061825001, 38.06596264077327], [13.364973121832763, 38.066447817019515], [13.364388590274235, 38.066725463472075], [13.363658857698764, 38.067029675351584], [13.362965896163635, 38.067305814543175], [13.363250545610487, 38.06750981522083], [13.363604914868727, 38.067829107586846], [13.36384961319493, 38.068204026309594], [13.363874946452171, 38.06869019915998], [13.363393707315698, 38.06919790514325], [13.363381624004584, 38.069740718460096], [13.363297903086638, 38.07025395537668], [13.362783052982117, 38.07064688438446], [13.362124922390072, 38.07098065509786], [13.362033536284153, 38.071009586425525], [13.362033832565219, 38.07100729161989], [13.361925190917772, 38.07099828915209], [13.3619170518379, 38.07104646505219], [13.361433190216628, 38.071199648364015], [13.36095574011011, 38.07153593001913], [13.360411745475995, 38.07161408071278], [13.359874759797437, 38.07137796651011], [13.359681233208693, 38.07105799313594], [13.359917311748784, 38.0709598902211], [13.36175012682276, 38.07044256111388], [13.362878067015105, 38.07029303744113], [13.362188150918952, 38.06954386871869], [13.361333748237065, 38.06947688865638], [13.360722819413663, 38.069649336260575], [13.360063193630134, 38.069773891298645], [13.359778698829329, 38.06958896421839], [13.359466125524104, 38.06932497326635], [13.35922501962097, 38.069285742200115], [13.359339014244696, 38.06919874782533], [13.35934183244901, 38.06907244754996], [13.359480383314244, 38.069002187636514], [13.359663376894334, 38.06898668605811], [13.359795487608917, 38.06920511500115], [13.360022913308432, 38.06924438647557], [13.360230739740608, 38.06913899083179], [13.36023355640569, 38.0690126904987], [13.36005378301568, 38.06888383661799], [13.36008224727023, 38.06863155458377], [13.36001739950515, 38.068468210029025], [13.359906098008214, 38.068340318746316], [13.359749155764675, 38.0682117902776], [13.359684712184713, 38.06803039763765], [13.359826480882042, 38.06781579621255], [13.359993081092208, 38.06751128516189], [13.360134848025167, 38.06729667519482], [13.360208146027873, 38.067081110495565], [13.360282246851334, 38.06682946426673], [13.36003240145114, 38.06677183411536], [13.359804176252082, 38.066768652337004], [13.35959836998944, 38.066783828519014], [13.359437808752457, 38.06681768867135], [13.35927724751571, 38.06685154229426], [13.35904901305906, 38.0668483580158], [13.358842410280046, 38.06689962252583], [13.358522888276736, 38.06689516403498], [13.358683852109603, 38.066843263527375], [13.35866103369176, 38.066842944804065], [13.358501679460614, 38.066822674319496], [13.358317885714442, 38.0668742565273], [13.358250223482047, 38.06683721133417], [13.358066036311044, 38.06690684119126], [13.358042804297906, 38.066924562901086], [13.357949502028248, 38.06701350791839], [13.357832966286022, 38.06712017360346], [13.357694830044935, 38.06717239197623], [13.357625556238, 38.06720751733611], [13.357533048803088, 38.067260372348485], [13.357417731803151, 38.067312908443924], [13.357187480348319, 38.06739993930824], [13.357070954268382, 38.06750660525158], [13.35695522270202, 38.0675771814165], [13.356792239819928, 38.067719298247916], [13.356765790214302, 38.067881360641636], [13.35664642958605, 38.06811433421981], [13.356688449519485, 38.06827736133385], [13.356777318751801, 38.06838688838846], [13.356820952753571, 38.06847774461111], [13.356908613466342, 38.06864140896331], [13.357066760170587, 38.0687158109379], [13.357180880171885, 38.06871740557337], [13.357268541963382, 38.0688810696755], [13.357265121541445, 38.069039841234385], [13.357264912956214, 38.069043458397616], [13.357217247503922, 38.06913303986692], [13.35707869429896, 38.06920329795553], [13.357008217328616, 38.06929256038946], [13.357050632180792, 38.069437538444795], [13.357186363926276, 38.06949358053546], [13.357414999650134, 38.06947872779077], [13.357509927904225, 38.06931761348648], [13.357672913094724, 38.0691754957459], [13.35774380170212, 38.069068192330406], [13.357903966181906, 38.069052382548364], [13.35801647427474, 38.0691261463657], [13.358128167778725, 38.06923599855643], [13.358170593764054, 38.06938098449415], [13.358281894828762, 38.06950887738223], [13.358325089786396, 38.06950638077763], [13.358274985178582, 38.06957365569528], [13.358273320381395, 38.06956720064398], [13.358010091522475, 38.06973928888561], [13.35796716014677, 38.07000233742234], [13.35777670144954, 38.07023403193561], [13.357586250671766, 38.07046572533039], [13.357324979804448, 38.070549962541946], [13.357063698118951, 38.07063419811324], [13.356617208443817, 38.07071583755926], [13.356282499175173, 38.07076975125103], [13.355795678170066, 38.0709972990782], [13.355122324341558, 38.07128082732951], [13.354786751834311, 38.071466680356544], [13.35452740643337, 38.07149577374001], [13.354228656249068, 38.07147339205372], [13.354253154801048, 38.071526529542716]], [[13.356754643234305, 38.06111851292053], [13.356735368195066, 38.061122314066154], [13.356717215162892, 38.061128694786376], [13.35670074778461, 38.061137476417166], [13.356686454320172, 38.061148385516745], [13.356674771985531, 38.061161086648674], [13.356666065938418, 38.06117520461759], [13.356660515466611, 38.06119057160639], [13.356649173666675, 38.061239052068615], [13.356647290239287, 38.061253847614964], [13.356648670051666, 38.06126951248406], [13.356653477704162, 38.06128475216408], [13.356661547999629, 38.06129910473714], [13.35667265496571, 38.061312124557894], [13.356686452734223, 38.061323426486325], [13.35670251824538, 38.06133266215301], [13.356720374612285, 38.06133954551917], [13.356739888040092, 38.06134394313918], [13.356836313274794, 38.06135817850094], [13.356855212995848, 38.06135969362309], [13.35687502587847, 38.06135860265002], [13.356894300973781, 38.06135480148287], [13.356912452908714, 38.06134842072051], [13.356928920310995, 38.06133963906084], [13.356943214918218, 38.061328729948066], [13.356954896115823, 38.06131602787254], [13.35696360326536, 38.061301909897566], [13.356969089465224, 38.06128681505642], [13.356969777673454, 38.06128371737277], [13.35698003806834, 38.061232565047796], [13.35698142827561, 38.06122004531585], [13.356980048392655, 38.06120438044894], [13.356975240656395, 38.061189141681574], [13.356967170310131, 38.06117478912868], [13.3569560633107, 38.06116176933475], [13.356942265529007, 38.0611504674374], [13.35692620002552, 38.06114123180343], [13.356908343705863, 38.06113434756812], [13.35688925185417, 38.06113000994242], [13.356883913061333, 38.06112929094219], [13.356794219011363, 38.061119018556965], [13.356788846080242, 38.0611185009418], [13.356774456052602, 38.06111742196291], [13.356754643234305, 38.06111851292053]]], [[[13.35871289110211, 38.06941873406811], [13.358740776859689, 38.06940698814393], [13.358762700845709, 38.06940212063482], [13.35871289110211, 38.06941873406811]]], [[[13.358475023981953, 38.069498071188605], [13.358472473956713, 38.069497865240336], [13.358476330909355, 38.069497638851196], [13.358475023981953, 38.069498071188605]]]]}, "properties": {"anno": 2010, "id": 764, "data": "2010-09-08", "localita": "Chiarandà e Valle Giorgia", "sup_ha": 115.6992, "sup_boscata_ha": 34.0824, "sup_non_boscata_ha": 81.6168, "luogo_inizio": "incolto e pascolo", "squadre_aib": 4, "fine_intervento": "2010-09-08"}}, {"type": "Feature", "geometry": {"type": "MultiPolygon", "coordinates": [[[[13.356071812083618, 38.07291730359208], [13.356264401554556, 38.07301234814457], [13.356152669452412, 38.073315040008346], [13.355354337728157, 38.07302728109656], [13.354795917514755, 38.07296415230237], [13.354380506461903, 38.07276472554933], [13.354037531655363, 38.07245566407148], [13.353657110088518, 38.07225672491176], [13.353209820177616, 38.07191854553905], [13.35335406843579, 38.071726942130155], [13.353251616550248, 38.07161486919315], [13.353340372368981, 38.07154038431957], [13.353425880631086, 38.071617432954476], [13.353472559006018, 38.071659500289904], [13.35350536821271, 38.07168906843347], [13.353575499857927, 38.07167036465071], [13.353657415124049, 38.07164852397112], [13.353725914728036, 38.07163025593625], [13.35383180338492, 38.07160202363463], [13.353916566286067, 38.07157941520144], [13.353971364347569, 38.0715648076613], [13.35405415975221, 38.07154885298202], [13.354134362932799, 38.07153986056899], [13.354214556020828, 38.07153085984892], [13.354253154801048, 38.071526529542716], [13.354405363704423, 38.071856685091355], [13.354506003752542, 38.072326806502836], [13.354646323293968, 38.07268029462699], [13.354902361417713, 38.07283035164141], [13.354916329750957, 38.07281615972411], [13.354932280921613, 38.07282922499022], [13.354946689541286, 38.07284102411617], [13.355034266241821, 38.072870969269246], [13.355064538514336, 38.07288132146113], [13.3550922081161, 38.07287355935956], [13.356071812083618, 38.07291730359208]]], [[[13.35470958777166, 38.0715094157384], [13.35452740643337, 38.07149577374001], [13.354539563065728, 38.07149440564686], [13.354617489752213, 38.0714856603923], [13.354624150269359, 38.07148491465151], [13.354720282463699, 38.07147413253181], [13.354786751834311, 38.071466680356544], [13.35470958777166, 38.0715094157384]]]]}, "properties": {"anno": 2010, "id": 1047, "data": "2010-10-05", "localita": "Chiarandà", "sup_ha": 2.6463, "sup_boscata_ha": 0.0, "sup_non_boscata_ha": 2.6463, "luogo_inizio": "incolto e pascolo", "squadre_aib": 4, "fine_intervento": "2010-10-05"}}]}