{"type": "FeatureCollection", "features": [{"type": "Feature", "geometry": {"type": "Polygon", "coordinates": [[[13.306339585059714, 38.105534223169755], [13.306547560795863, 38.10544524908242], [13.306591980862693, 38.10546471958607], [13.306649619758321, 38.10548743382444], [13.306707459450847, 38.10550140318432], [13.306765450830989, 38.105508803304765], [13.306818213351136, 38.10550299874996], [13.306852918686728, 38.10548932164108], [13.306698527389136, 38.10567052576266], [13.306498874416508, 38.10582263053239], [13.30618159970675, 38.10584190030159], [13.305802071293337, 38.10594372052185], [13.305517438423115, 38.10585616942246], [13.305187833325348, 38.10575605249982], [13.304904581476949, 38.105608912278456], [13.304860435284976, 38.10556058484033], [13.304635854545962, 38.105485821700064], [13.30455878941049, 38.10555623417884], [13.304498739750882, 38.10554345116021], [13.3042700230023, 38.10564744221826], [13.304104400265008, 38.105633128611096], [13.30403119473425, 38.105536706268396], [13.303766884076238, 38.10522293939148], [13.30396433379817, 38.10516618103367], [13.304088303761153, 38.10502491416043], [13.304224590239116, 38.10500303108657], [13.304302482870211, 38.10489686477765], [13.304649641055017, 38.10488995574758], [13.304952662498907, 38.10483471842104], [13.305207954081245, 38.10488608154712], [13.305446506716002, 38.1050087355346], [13.305625837959147, 38.10508284444555], [13.305899248308826, 38.105003336867306], [13.306110945887532, 38.104982546349454], [13.306155358791266, 38.105018951869525], [13.30615122679815, 38.10519771504562], [13.306251025648193, 38.10544949890105], [13.306295437757463, 38.10548590435719], [13.306339585059714, 38.105534223169755]]]}, "properties": {"anno": 2015, "id": 8527, "data": "2015-05-23", "localita": "Poggio Ridente", "sup_ha": 1.8419, "sup_boscata_ha": 0.0, "sup_non_boscata_ha": 1.6256, "luogo_inizio": "altro", "squadre_aib": 0}}, {"type": "Feature", "geometry": {"type": "Polygon", "coordinates": [[[13.27223362639026, 38.13476267495591], [13.272094475453446, 38.13473810918136], [13.271989273659434, 38.13472529841406], [13.271952583927419, 38.13472423856618], [13.271916860120774, 38.13462766518639], [13.271800746779618, 38.13465459934318], [13.271828056973659, 38.134720558724226], [13.271672072916889, 38.13470700847381], [13.27151595207105, 38.13472010182677], [13.271457176795213, 38.13473461882089], [13.271418242716983, 38.13473404664838], [13.271281589002445, 38.134747418117826], [13.271223177626334, 38.134746559165166], [13.271183506307844, 38.13477674564232], [13.271125831055302, 38.13474512699627], [13.271048305253327, 38.1347286053722], [13.270932945700105, 38.13466537499659], [13.270875260381311, 38.134633756080454], [13.270817212036315, 38.13461752018545], [13.270721319835841, 38.1345545762465], [13.27059225724613, 38.13454097039971], [13.270538924191193, 38.134479608283655], [13.27042546720462, 38.134468631890876], [13.270365315555932, 38.13440782172259], [13.270234301707376, 38.13438858596926], [13.270144226589164, 38.1344911074191], [13.270076056867754, 38.134593944269476], [13.270040335379253, 38.13471457327038], [13.2699614166144, 38.13480860587019], [13.269852502908716, 38.134781040411696], [13.26976549367379, 38.13475379758052], [13.269788830475967, 38.134693563805804], [13.269853693748152, 38.13457668773925], [13.269935898183164, 38.13445265677348], [13.26999843649527, 38.13435589744909], [13.27004765062957, 38.13428648880379], [13.269942871857948, 38.13420256293797], [13.269834571917524, 38.134149045580166], [13.269683074419163, 38.13406892982951], [13.269616612663782, 38.13414238727903], [13.269591813884011, 38.134210756881515], [13.269559468099501, 38.13427930274606], [13.269388938105832, 38.13445008049523], [13.269309814459337, 38.13455276357906], [13.26923089497911, 38.13464679477113], [13.269162519484603, 38.13475828108355], [13.269082576478713, 38.134895567695295], [13.269014209447883, 38.13500706214803], [13.268956785892238, 38.135118717867314], [13.268889226986083, 38.13519560838613], [13.268802423215561, 38.1351597139287], [13.268705075591331, 38.13510635608368], [13.268629429268497, 38.13506197204532], [13.26852753246752, 38.135005494721014], [13.268462026692271, 38.134959441524515], [13.268391536933336, 38.13492865813345], [13.268414670447891, 38.13487707558845], [13.268426646696115, 38.134833982469054], [13.26849420458892, 38.13475709219874], [13.26852531016236, 38.13469738416249], [13.268596872743053, 38.134585532480685], [13.268640992502675, 38.13449871080987], [13.268721035988667, 38.134431590225546], [13.268766484492605, 38.134363028688306], [13.26881254618199, 38.13426851344235], [13.268869150460008, 38.134191461468944], [13.26889269334245, 38.1341225769673], [13.268937190344078, 38.134042215820145], [13.26898358711137, 38.1339854599881], [13.269018491248122, 38.13389943413272], [13.269085834127301, 38.13383119427114], [13.269065769478077, 38.13375301304512], [13.268989520242394, 38.133734582184566], [13.268924827724085, 38.13369035979517], [13.268838025690641, 38.13365446539764], [13.268692338682607, 38.13360153764751], [13.268607337080526, 38.13364796814587], [13.268541594584734, 38.13374083328998], [13.268458571015735, 38.13384495695503], [13.268368877266974, 38.133829412168076], [13.268262518005862, 38.13375670992842], [13.268083121946981, 38.13372561085094], [13.267958761042133, 38.13365263564838], [13.267852066283815, 38.13359415217138], [13.267715484909559, 38.13347443387773], [13.267622357593739, 38.133405810289126], [13.267587016694677, 38.13337683358877], [13.267456703889168, 38.13328777518033], [13.267483361994376, 38.13319034908051], [13.267481233994198, 38.133103218633835], [13.267516541128797, 38.133042182328126], [13.267545703293587, 38.132955326934585], [13.2675336508004, 38.13279343584054], [13.267431964923512, 38.13249178996567], [13.26731303175468, 38.13227649295242], [13.267251457613565, 38.13211184353605], [13.267225263903743, 38.1318356798479], [13.26733213693257, 38.13155784321645], [13.267440925185644, 38.13141059727672], [13.267566233394342, 38.131267975518476], [13.26777087205279, 38.13105210234981], [13.268039815390464, 38.13092911463723], [13.268240206540087, 38.13089266603777], [13.268458753036896, 38.13088863856481], [13.268733454964249, 38.13080650223184], [13.268984517080263, 38.13080158512776], [13.269245463702445, 38.13083990356248], [13.269529234395717, 38.130835459213834], [13.269757666455694, 38.130864675003934], [13.269976212439023, 38.13085066151946], [13.270205051554312, 38.13086264483108], [13.270443369238288, 38.13093509620776], [13.270705130602705, 38.13093894729118], [13.270997984321998, 38.13101219966897], [13.271348221668749, 38.130965644445496], [13.271564113489921, 38.13106361717053], [13.27183475581975, 38.131153779081636], [13.272040356291892, 38.131225745788484], [13.272190609151204, 38.13133136767505], [13.272329145453563, 38.13147129222697], [13.272380630654727, 38.13160132267335], [13.272541381814587, 38.13172433526039], [13.272735247278087, 38.131825664046815], [13.273130879210278, 38.131789341615466], [13.27366218009484, 38.13178243307559], [13.2739947315919, 38.1317581780403], [13.274179102327187, 38.1317608848742], [13.274600990782192, 38.13171508540405], [13.274636506032884, 38.1317383915053], [13.274693640887932, 38.131762014309636], [13.274744116584959, 38.13176275493441], [13.274794850066769, 38.13175211121678], [13.274863673193957, 38.13173887468969], [13.274892843934872, 38.131725062873635], [13.2749507276169, 38.13171736731605], [13.275019415359685, 38.13170983042232], [13.275062941873498, 38.13169908073048], [13.275092822145142, 38.131670247739784], [13.275172592341287, 38.131651477310534], [13.27524508967558, 38.131635450422266], [13.275292426899076, 38.13161621169805], [13.275313811557396, 38.13161477747455], [13.275390109334445, 38.1315902613964], [13.275455265698188, 38.13157982107971], [13.275509741704019, 38.131563529391805], [13.275545860124051, 38.131561216551454], [13.275526156100494, 38.13159566018858], [13.275482235145459, 38.13161856918054], [13.275430040282092, 38.13164778111049], [13.275377686017872, 38.13168342414167], [13.275316503783, 38.13174890687495], [13.275182085328254, 38.13181545877982], [13.27501183340869, 38.13190719102755], [13.274899152909907, 38.13197191800508], [13.27483509618703, 38.13204379081796], [13.274754887877858, 38.13211113854533], [13.274680045281057, 38.13218070893179], [13.274602974532593, 38.13225516422675], [13.274531124056361, 38.13240351834663], [13.274460548132497, 38.13257748081267], [13.274389568757005, 38.132768946162884], [13.274307714845994, 38.132951497686406], [13.274270575352032, 38.13311721087537], [13.274243887815404, 38.1333093197524], [13.274303770390867, 38.13370663495147], [13.274171532561201, 38.13384442283778], [13.274128054563581, 38.13396895569614], [13.274024331564725, 38.13414790801748], [13.273959849441612, 38.134225561372965], [13.273839553371145, 38.13432567698124], [13.273779160681832, 38.13438591933317], [13.273626602932625, 38.134447721214215], [13.273454129915244, 38.13441607152753], [13.273269781826016, 38.13441918989911], [13.273073558785134, 38.13445706005121], [13.273050327138783, 38.13466048314091], [13.272851250430563, 38.13466338425892], [13.272759846479964, 38.13483068420491], [13.272565870064135, 38.13479707049999], [13.272547459912992, 38.13479657440216], [13.272393820329947, 38.13475829451271], [13.272342756537759, 38.13478739009128], [13.27223362639026, 38.13476267495591]]]}, "properties": {"anno": 2015, "id": 10042, "data": "2015-07-13", "localita": "Bellolampo - Pizzo Piselli", "sup_ha": 21.8182, "sup_boscata_ha": 0.6262, "sup_non_boscata_ha": 21.192, "luogo_inizio": "strada provinciale", "squadre_aib": 0}}, {"type": "Feature", "geometry": {"type": "Polygon", "coordinates": [[[13.358698600855641, 38.06734250359953], [13.358628955055611, 38.067039491499365], [13.358907089168955, 38.06656010031448], [13.358955390983871, 38.06610770504659], [13.359419773780168, 38.06584234709067], [13.35964556094097, 38.06599651615303], [13.360036922892679, 38.065579109456635], [13.360684182064396, 38.065678743849624], [13.361019163884434, 38.06607607250928], [13.360856296446105, 38.06652687160228], [13.3608884316276, 38.06679915585707], [13.361150398054637, 38.06704443871155], [13.36180036239139, 38.067023289380614], [13.361808435252813, 38.066660952994575], [13.362044319763465, 38.06636218917897], [13.362651378434247, 38.06655187347083], [13.362568940243374, 38.066822562613176], [13.362749147265145, 38.06730834427954], [13.363180313239745, 38.06767679363523], [13.36340208124761, 38.06801213169469], [13.363392671058099, 38.06843486536799], [13.363234518616048, 38.06867429784599], [13.363077708921574, 38.068853339301185], [13.363184896033838, 38.06918708330475], [13.363064262886382, 38.06945724152513], [13.362749957062272, 38.06984552741833], [13.362322418552107, 38.070171819446735], [13.361239234707764, 38.069915099919214], [13.361059031971656, 38.06942931712675], [13.360644280624635, 38.06918190444123], [13.360148420247357, 38.06914478842274], [13.35973029594802, 38.069048345992954], [13.359040107501718, 38.06915953481977], [13.359126603905201, 38.06870767305097], [13.359556168703032, 38.0682908008502], [13.359638619769637, 38.06802011417818], [13.359568969529423, 38.06771710256562], [13.359154907624859, 38.0674394828082], [13.358698600855641, 38.06734250359953]]]}, "properties": {"anno": 2015, "id": 8897, "data": "2015-07-18", "localita": "Chiarandà", "sup_ha": 12.551, "sup_boscata_ha": 2.2253, "sup_non_boscata_ha": 10.3257, "luogo_inizio": "incolto e pascolo", "squadre_aib": 0}}, {"type": "Feature", "geometry": {"type": "Polygon", "coordinates": [[[13.303787168206343, 38.15230367563476], [13.303779186749846, 38.15225297213801], [13.303801101437994, 38.15220141093018], [13.303864188338345, 38.15214683976489], [13.303948558746644, 38.152053065896595], [13.304021914765368, 38.15204689984223], [13.304123723580664, 38.151997781173925], [13.304252477847413, 38.15197073375771], [13.30433523365091, 38.15194482429496], [13.304378990246326, 38.15192325308785], [13.304402024602018, 38.15190906692665], [13.304437217253545, 38.15188395388472], [13.304465679935209, 38.15186899899364], [13.304502757678126, 38.15185586900449], [13.304558413770302, 38.15183365489082], [13.304586364163102, 38.15181238436691], [13.304605168593417, 38.151790973671474], [13.304632941645457, 38.15177691716338], [13.304676536048555, 38.1517746646358], [13.30472688811741, 38.15178426995489], [13.304782927376973, 38.151791735968985], [13.304829220670552, 38.15179781854114], [13.304884618687785, 38.15177693608291], [13.30491353490217, 38.151759835629434], [13.304949162805388, 38.151756185628116], [13.304986259186466, 38.15173504703495], [13.305029225629015, 38.15171318481226], [13.305060786803777, 38.151678301817874], [13.305098051626574, 38.15164993281033], [13.305135806837317, 38.15161649907061], [13.30518310852876, 38.15157733737756], [13.305220389697068, 38.15158429902999], [13.305219571839311, 38.15165434256571], [13.305237417553215, 38.151724779838084], [13.305163214276616, 38.15176707324205], [13.305107491120465, 38.151802399635976], [13.305023806996205, 38.1518590127071], [13.304921663404462, 38.15192257672901], [13.304829010489396, 38.15197182827712], [13.304727872381916, 38.15199205034202], [13.304645642389268, 38.1520161031486], [13.304571670598792, 38.152018702874535], [13.304605750592989, 38.15212759515581], [13.304586117722915, 38.15218512368576], [13.304602566542492, 38.1522648553914], [13.30455531749821, 38.15232921077039], [13.304553306646039, 38.15241590063722], [13.304561112118291, 38.15247383345096], [13.304587386796259, 38.15252479201958], [13.304585543208637, 38.152604259602256], [13.304584537127312, 38.15264760858019], [13.304556251751137, 38.15268333086525], [13.304491706702864, 38.15270408107909], [13.304449430204356, 38.15272115251356], [13.304402522920155, 38.152759348125436], [13.304333557856163, 38.15277383526101], [13.30423603623332, 38.15275178015762], [13.30420023129002, 38.15268204673588], [13.304164537084834, 38.15260541642962], [13.30414774384769, 38.152540129090426], [13.304157570778205, 38.15251136501781], [13.304079783894753, 38.15248083090443], [13.30403823958061, 38.15241850418017], [13.303959301922633, 38.15240784854423], [13.30388629535947, 38.15237014333421], [13.303787168206343, 38.15230367563476]]]}, "properties": {"anno": 2015, "id": 10475, "data": "2015-07-21", "localita": "Inserra - Petrazzi", "sup_ha": 0.5645, "sup_boscata_ha": 0.0, "sup_non_boscata_ha": 0.025, "luogo_inizio": "strada comunale", "squadre_aib": 1}}, {"type": "Feature", "geometry": {"type": "Polygon", "coordinates": [[[13.26319664533835, 38.10503492527889], [13.263181198219222, 38.104998915762344], [13.263338016612401, 38.10495542223824], [13.263422141746867, 38.10492231318454], [13.263502562268545, 38.104892007829214], [13.263574111157443, 38.10485441685243], [13.26363656473553, 38.104818120648645], [13.263702871763387, 38.104771860311786], [13.263757652287204, 38.10482992973558], [13.263802657612725, 38.10484204526136], [13.263801878515642, 38.1048749563457], [13.263817325748374, 38.10491097299492], [13.263864342628649, 38.104914526433284], [13.26391313484393, 38.10491954256321], [13.263956399731642, 38.10492877288184], [13.263944208035644, 38.1049844168405], [13.263891925787194, 38.104973623080404], [13.263850071553346, 38.1049815971782], [13.263818917623066, 38.10499688383739], [13.26377145924952, 38.10501192949834], [13.263734700025777, 38.10503428770687], [13.263699750082688, 38.10505667354833], [13.263675457311553, 38.105087807802654], [13.263678507000973, 38.10511218278335], [13.263674372196112, 38.105133593942845], [13.263648507227773, 38.10515468389413], [13.263622686332045, 38.105174345228704], [13.263573147472451, 38.10520081037327], [13.263522707126493, 38.10518861531476], [13.263496842117124, 38.105209704330065], [13.263505157025868, 38.10524132058383], [13.263513157976236, 38.105285811777094], [13.263524479402582, 38.10534323974753], [13.263479303321027, 38.10533827691215], [13.263392690928454, 38.105324109679685], [13.263291377553363, 38.10531832493805], [13.26329440682081, 38.10526683427889], [13.263282644983587, 38.10522801262708], [13.26327064477782, 38.1051992094076], [13.263260361548594, 38.105174718457995], [13.263250238545353, 38.10514307635584], [13.263236396367157, 38.105115674259956], [13.263224363502193, 38.10508829981495], [13.263215854460105, 38.10506527246609], [13.26319664533835, 38.10503492527889]]]}, "properties": {"anno": 2015, "id": 10523, "data": "2015-07-21", "localita": "Monte Cuccio - Vallone d'Inverno", "sup_ha": 0.1912, "sup_boscata_ha": 0.0, "sup_non_boscata_ha": 0.1636, "luogo_inizio": "bosco", "squadre_aib": 0}}, {"type": "Feature", "geometry": {"type": "Polygon", "coordinates": [[[13.384822569106388, 38.08661672445858], [13.384878652999424, 38.08650719697746], [13.384968077263277, 38.08657873802236], [13.385033571167567, 38.086622434021116], [13.385159848850304, 38.08670003642724], [13.385290837184693, 38.08678742818405], [13.385315195090856, 38.08679943065471], [13.385395917938055, 38.086821941490825], [13.385448276652843, 38.08679153210903], [13.38540717384735, 38.08675789718206], [13.385404814184364, 38.086641149796215], [13.385306643808448, 38.086628126629414], [13.38517565575198, 38.086540733992976], [13.385066004948012, 38.08649059682219], [13.38500831858259, 38.086427555970545], [13.384934356864152, 38.08639840231701], [13.385018302881702, 38.08623445818399], [13.385213383384125, 38.085881788470665], [13.38551887901805, 38.08561947596582], [13.386042590090264, 38.085656278140014], [13.386375777548519, 38.08583851625302], [13.38644093952496, 38.08628359986603], [13.386396332004457, 38.08660872251931], [13.386243913323845, 38.08672507795457], [13.386016580133003, 38.08684040498638], [13.38568013704184, 38.086806173170494], [13.385040143816894, 38.08694544696716], [13.384822569106388, 38.08661672445858]]]}, "properties": {"anno": 2015, "id": 10615, "data": "2015-07-26", "localita": "Pizzo Sferro Vecchio", "sup_ha": 1.4347, "sup_boscata_ha": 0.0, "sup_non_boscata_ha": 1.1861, "luogo_inizio": "incolto e pascolo", "squadre_aib": 2}}, {"type": "Feature", "geometry": {"type": "Polygon", "coordinates": [[[13.355459819736907, 38.071624347976226], [13.355256845247514, 38.071357217071935], [13.355721557258908, 38.07113246133878], [13.35610419173313, 38.07084049289581], [13.356404009817282, 38.07051431817779], [13.356618797927073, 38.07025303500543], [13.35700216223399, 38.06992802620682], [13.357589238430291, 38.06983711522556], [13.357889036496879, 38.06951094440022], [13.35806130979944, 38.06928209564301], [13.358302372005918, 38.06971492853626], [13.358541224607482, 38.07024684020712], [13.358782292659143, 38.07067967128337], [13.358857743942206, 38.0710441208361], [13.359224148975608, 38.071478699676014], [13.359384620700096, 38.07177826352326], [13.359500364384319, 38.072209353129544], [13.359167625890676, 38.072138631948306], [13.358755012513114, 38.071901629580466], [13.358467006991612, 38.07169938891911], [13.357970108390193, 38.07149423851445], [13.357257695674779, 38.07158340087514], [13.356625871075462, 38.071805828303575], [13.356000699740747, 38.07173101241385], [13.355459819736907, 38.071624347976226]]]}, "properties": {"anno": 2015, "id": 9037, "data": "2015-07-29", "localita": "Chiarandà", "sup_ha": 5.2004, "sup_boscata_ha": 0.0, "sup_non_boscata_ha": 5.2004, "luogo_inizio": "incolto e pascolo", "squadre_aib": 3}}, {"type": "Feature", "geometry": {"type": "Polygon", "coordinates": [[[13.300272861909377, 38.20169060414166], [13.300283854019064, 38.20165655961251], [13.300290216745392, 38.20160231962471], [13.300296205247236, 38.201564170823175], [13.30031517148268, 38.20151614934959], [13.300349113449126, 38.201482436249265], [13.30033725961784, 38.20144402907146], [13.300376288738331, 38.201410382419766], [13.300382464271943, 38.201364188016946], [13.300416358214985, 38.20133248650124], [13.300450056095935, 38.201308822329565], [13.300445942117037, 38.20126651074189], [13.300480351772155, 38.201212676854546], [13.300506823986428, 38.20117080003198], [13.300534565115516, 38.20113446481563], [13.30055019220294, 38.20108696989339], [13.300539030879628, 38.20104672356966], [13.300559444798472, 38.20100120932537], [13.30057783903081, 38.200938482420895], [13.30066841477291, 38.20089207172318], [13.300776968654477, 38.200905100731994], [13.30091386785312, 38.20094716547567], [13.300992957726049, 38.200978846326485], [13.301040649708035, 38.2010081702886], [13.301105846224747, 38.20101292771259], [13.301144196864039, 38.200976264690766], [13.301190721953692, 38.20095212540759], [13.301229762457867, 38.20093741751254], [13.301283095521534, 38.20093246340103], [13.301343326557193, 38.20094287392958], [13.301371592347099, 38.20097573124675], [13.301355788418409, 38.201030859296296], [13.301367208794746, 38.2010730981667], [13.30140406064667, 38.20111389463716], [13.301445376127806, 38.20112493253596], [13.30149843989286, 38.201137911219476], [13.30151587320112, 38.201181122933804], [13.301564813874956, 38.201196139835154], [13.301618975682347, 38.20121691050694], [13.30166980852369, 38.20122510318661], [13.301753064439716, 38.201220341218296], [13.30182959529841, 38.20117969212116], [13.301891868259718, 38.20118357593715], [13.301950804657972, 38.20116802919111], [13.302017793730625, 38.2011317171125], [13.302084460888652, 38.20110881688411], [13.302172769524041, 38.20108996499789], [13.302297965229622, 38.201069409899475], [13.302403755935906, 38.2010709391253], [13.302499752583365, 38.201087233684035], [13.30258966451432, 38.201121338210626], [13.302653679218139, 38.20113121252395], [13.302722504588393, 38.20117843666931], [13.302766350658553, 38.201243190403794], [13.302786050488148, 38.20128969602656], [13.302822997983402, 38.20132601915588], [13.302893208768326, 38.20136995325535], [13.302901771713815, 38.201399254993184], [13.30290411692952, 38.20143089817163], [13.30291222625561, 38.201479637789944], [13.302926892948348, 38.201511459123026], [13.302938534884856, 38.201540804475314], [13.302959814603511, 38.201553261660244], [13.30299608923123, 38.20158296405935], [13.303032882101125, 38.20159079004582], [13.30306311976238, 38.20161554155372], [13.303093798638084, 38.20162084778318], [13.303134736583612, 38.20163926738449], [13.30315674066118, 38.20162013384792], [13.303178641978292, 38.20160586871799], [13.303197067213327, 38.20160856642871], [13.303209331301373, 38.20161116785899], [13.30323699682163, 38.20161399824378], [13.303252285548169, 38.20161908194735], [13.303267280713921, 38.2016363190244], [13.303272989448423, 38.20165585410073], [13.303266376705597, 38.20167521015713], [13.303287882051777, 38.20167795237973], [13.303315321885272, 38.20169050575936], [13.303352002169138, 38.20170318549676], [13.303388616723586, 38.20171830372679], [13.303453367176562, 38.201716434346274], [13.30349010374954, 38.2017266907201], [13.303511721955244, 38.20172457184586], [13.303530203650936, 38.20172483897701], [13.30356110943572, 38.20172042208873], [13.303589340322926, 38.20169894622451], [13.30359533124151, 38.20170632774472], [13.303610620013828, 38.20171141140254], [13.30362910172806, 38.201711677617176], [13.30364130924925, 38.20171671763916], [13.303665725480242, 38.20172679589413], [13.303696235218654, 38.201739393553325], [13.303720595033846, 38.201751903226544], [13.303741761943757, 38.20176922943846], [13.303760300082928, 38.201767065104306], [13.30379120585313, 38.20176264905641], [13.3038131625484, 38.20174594515367], [13.303846302273488, 38.20172508447003], [13.303901237428379, 38.2017477613227], [13.303922790115571, 38.20174807186846], [13.303956277452723, 38.20176557607658], [13.303995868595965, 38.20178559981783], [13.304095811929981, 38.20185997974209], [13.304103984618246, 38.2018738865575], [13.304086014441658, 38.20188297289185], [13.304080649249405, 38.20190157832717], [13.30407533944167, 38.20191784603869], [13.304058554831112, 38.201921658758074], [13.304035228207784, 38.20190325243968], [13.304020943799324, 38.201876586925145], [13.303962273602263, 38.20187775235395], [13.303914302416135, 38.201856939742505], [13.303868320375072, 38.201860299874475], [13.30382690305494, 38.20188279641202], [13.303808330472076, 38.20191778880512], [13.303754336327103, 38.20193712971795], [13.303735736540533, 38.20196906044761], [13.303750150627836, 38.20200750429616], [13.303744154911888, 38.20204564597371], [13.303774048971361, 38.20207626522801], [13.303765186203755, 38.202128456991844], [13.303744234289038, 38.2021522982138], [13.303707978652316, 38.20217592636961], [13.303646609776397, 38.20218308864016], [13.303613895333383, 38.20216450780811], [13.303570647952023, 38.2021598590399], [13.303543078906793, 38.20213933304587], [13.303474436931177, 38.202130294393115], [13.303443045147226, 38.20216405247584], [13.303401935951417, 38.202177542563504], [13.303380693295994, 38.20221345963462], [13.303374941112606, 38.20224154420341], [13.303348750259852, 38.202271353737416], [13.30330971188878, 38.20230499403891], [13.303266147854394, 38.20231442488933], [13.303254875514064, 38.20236054577261], [13.303208378153538, 38.202386038015874], [13.30318167237837, 38.202437971779034], [13.3032007064156, 38.20249660189068], [13.30315364743137, 38.202546230004835], [13.303112912695982, 38.20254362969324], [13.303056406217465, 38.202560921653756], [13.30301598926512, 38.20254424159509], [13.302961047553415, 38.20253658845575], [13.30288807002823, 38.20253109773932], [13.302832311661774, 38.20251031987984], [13.302793637175977, 38.20248091706086], [13.302729403185124, 38.20246223886695], [13.302693679188561, 38.20242622087446], [13.302643292602877, 38.20241662205838], [13.302593008079809, 38.20240258015107], [13.302531537896765, 38.20238616319096], [13.30248926536897, 38.2023899873578], [13.302453447650329, 38.202358404372774], [13.302417061907702, 38.20235122842388], [13.30235548767363, 38.20233924540109], [13.30228323291954, 38.202302699806], [13.302238723373645, 38.20228208437403], [13.302177553470855, 38.202252355959835], [13.302126856912597, 38.20225605904105], [13.30208510996396, 38.20223770488593], [13.302039774676661, 38.202252586937156], [13.301989078134435, 38.20225628905782], [13.301930824329025, 38.202222168070286], [13.301888500445314, 38.202228205440484], [13.301863828328566, 38.20220122627246], [13.30183925029019, 38.202169805717354], [13.301791729734116, 38.2021580257312], [13.301758561638291, 38.20213313777816], [13.301733889580412, 38.20210615948514], [13.301703795605883, 38.20207022265628], [13.301664750809222, 38.20205634298502], [13.30160853833239, 38.20205553049581], [13.301543994578829, 38.20205016188676], [13.30149381472225, 38.20203168549244], [13.301448479473462, 38.202046566415056], [13.301403091622914, 38.202063660720796], [13.301318454046967, 38.202075743324066], [13.301242920775813, 38.20205912216188], [13.301169633513794, 38.20206693430105], [13.30110565927352, 38.202037164742535], [13.30105604654867, 38.20199429643103], [13.301017363932033, 38.201964892915115], [13.300978381226903, 38.20194879254417], [13.30092830467133, 38.20192588187141], [13.300923708838855, 38.20188144198439], [13.30085042172914, 38.20188925392779], [13.300777807115136, 38.201868238285925], [13.300721335831046, 38.20187851496528], [13.300680262160324, 38.201831326478406], [13.30062700959878, 38.20182389856832], [13.300602585835149, 38.20178582218589], [13.300526391704793, 38.20179803458015], [13.300464601790672, 38.20179491851423], [13.300403070719765, 38.201780720935446], [13.300370448389145, 38.201770499745194], [13.300327258526474, 38.201763839217655], [13.300287263834726, 38.20172904822452], [13.300272861909377, 38.20169060414166]]]}, "properties": {"anno": 2015, "id": 10485, "data": "2015-08-27", "localita": "Spinasanta", "sup_ha": 3.1457, "sup_boscata_ha": 0.0, "sup_non_boscata_ha": 3.1457, "luogo_inizio": "strada comunale", "squadre_aib": 1}}, {"type": "Feature", "geometry": {"type": "Polygon", "coordinates": [[[13.368379095779844, 38.153925258802595], [13.36848845418282, 38.15390897193244], [13.368507215751636, 38.1539018907073], [13.368491281305646, 38.153859028222456], [13.36849466211521, 38.1537992432199], [13.368622285559999, 38.15380695697089], [13.368748640778913, 38.15387102982305], [13.368828078207459, 38.15389061293557], [13.368837152187627, 38.15397770636649], [13.368789617643731, 38.15405560180498], [13.368589154330964, 38.15411217837843], [13.368494028031142, 38.15416428128391], [13.368406624446337, 38.154207581463346], [13.368415641886468, 38.15430861086487], [13.368373312220635, 38.15435254452468], [13.36836845955616, 38.15441476387662], [13.368396374130498, 38.15449828190923], [13.368488699896774, 38.154739957837954], [13.368461529377086, 38.15477816698934], [13.368479566794486, 38.15498022580154], [13.368532041698938, 38.15498688917254], [13.368538031753959, 38.15505523399216], [13.368395123462978, 38.155059185281296], [13.368388195735465, 38.15511695641226], [13.368439733562619, 38.15516516015861], [13.368556343556719, 38.1551608443323], [13.368582689936412, 38.155327407583336], [13.368609320947181, 38.15539751440577], [13.368548603006156, 38.155423388047225], [13.368543785874728, 38.15547080152322], [13.368597443668861, 38.155508648570546], [13.368613976833679, 38.15560978236095], [13.36863802427429, 38.15571102054674], [13.368698662452267, 38.15576013554094], [13.36878313705113, 38.15575381129778], [13.368859179211377, 38.15573782997639], [13.368918742785779, 38.15569190603621], [13.368973409302926, 38.155690792745716], [13.36906833981488, 38.156232350881346], [13.368972590171982, 38.15623471212946], [13.36888728048877, 38.1562378716792], [13.368768750920918, 38.15625142887316], [13.368472945562289, 38.156261430631815], [13.368424200672349, 38.15622818922844], [13.36838418296925, 38.15617335517535], [13.368347970767386, 38.156132690051976], [13.36830018678578, 38.156056035052195], [13.368214508334724, 38.15595280755318], [13.368117199693375, 38.15593951639829], [13.36800459513931, 38.15593361040627], [13.367941567854073, 38.155924049727055], [13.367850964156029, 38.155918449383186], [13.367752157499744, 38.15591056670505], [13.36763974661559, 38.155895978397474], [13.367562931690998, 38.155888401285345], [13.367542433696428, 38.15594456253151], [13.367500524804948, 38.155974370320955], [13.367461215682622, 38.15601073246541], [13.367452099937612, 38.15604968893824], [13.367445972543713, 38.15607782685602], [13.36742517507329, 38.156113428032164], [13.367404171736931, 38.1561657828558], [13.367362755204988, 38.15619735293496], [13.367326522658923, 38.15622497221952], [13.367316163863377, 38.15623286849883], [13.367350700127746, 38.15628156716855], [13.367352783347476, 38.15632305575351], [13.367296971337264, 38.15632786611323], [13.367220336801193, 38.15633203724259], [13.367139670515979, 38.15635629629836], [13.367084028962152, 38.156429191158566], [13.367052590082144, 38.156517936366406], [13.367031822388286, 38.156568049558295], [13.36706953547346, 38.1566383648981], [13.367041450259457, 38.156691010471185], [13.366984865943005, 38.156772639905256], [13.366884235031673, 38.15680361245928], [13.366872991955985, 38.15684796979185], [13.366930739938132, 38.15690138736785], [13.36702516194358, 38.156918881215496], [13.367092796224066, 38.15698861776289], [13.367112208294083, 38.15703745582744], [13.367075434139807, 38.1570774109348], [13.367031611745011, 38.157088943972454], [13.366987970983667, 38.157092385135556], [13.366933899471915, 38.15710376838596], [13.366889806245597, 38.15712744008071], [13.366820915357208, 38.15711434031975], [13.366776775906535, 38.157140030869314], [13.36671263772604, 38.15714318682092], [13.366628917279414, 38.15710560562743], [13.366538885705936, 38.15712054376383], [13.36645219107613, 38.15710112126716], [13.366375834709318, 38.15707780346038], [13.366273596361475, 38.157066267969824], [13.366193496913953, 38.15709550604993], [13.36614184983406, 38.1571718669821], [13.366075386995702, 38.15717951144895], [13.365938810939081, 38.157050987205416], [13.365760283962807, 38.15692737882827], [13.36564412655032, 38.15682116232668], [13.365492631063635, 38.15673646868378], [13.365389918536646, 38.15665245397304], [13.365239531859476, 38.15651823677245], [13.365068349561382, 38.15637821461631], [13.364814021432894, 38.15621501135727], [13.364659684305998, 38.15625691154599], [13.364499123802464, 38.156265693059986], [13.364394698396236, 38.15625873230331], [13.364262749201774, 38.15623487213792], [13.364272231384788, 38.15618357669461], [13.364396437862416, 38.156116407322806], [13.364447144979376, 38.15604390282101], [13.364492209551932, 38.15595177494806], [13.364468041196796, 38.155883892296366], [13.364484869602329, 38.155788768517205], [13.364583226613737, 38.1557248435951], [13.364662737798168, 38.15571173310423], [13.364759816448098, 38.15570492673561], [13.36486143577423, 38.155722926270435], [13.364966966527726, 38.15570070111561], [13.365013923720195, 38.155613679326294], [13.364997993043746, 38.155521052474526], [13.365004999441549, 38.155476131667875], [13.365021164220625, 38.15542422988841], [13.365058326873438, 38.15537261326964], [13.365145530078289, 38.15536434884634], [13.365219993428044, 38.15538908567463], [13.365318093175581, 38.15543072959398], [13.365446391775079, 38.15546331612689], [13.36555509502004, 38.155423289464444], [13.365695204215875, 38.15546884226574], [13.36581186010217, 38.1554656166328], [13.36588470732216, 38.155500546308524], [13.365957880054356, 38.1555209462628], [13.366037299242727, 38.15553658475428], [13.366109930504285, 38.155581198954955], [13.366195476628036, 38.15559692259567], [13.366353095635086, 38.155625472396814], [13.366374596793555, 38.15552449349029], [13.366330625206897, 38.15548337014164], [13.366289767555191, 38.15544503959769], [13.366232978029807, 38.155392419069216], [13.366260472299556, 38.15534329357148], [13.366320963489931, 38.1552946253575], [13.366316053401965, 38.15521899412208], [13.366284696520419, 38.15514560473784], [13.366305475261894, 38.15510159730652], [13.366355072542582, 38.155097074034], [13.366395356870827, 38.155066366299735], [13.366473830827681, 38.15509872442714], [13.366544773626096, 38.15517266445528], [13.366622434137309, 38.155216322762115], [13.366694410290638, 38.155095754068014], [13.366649602868675, 38.1550343435926], [13.36658170183659, 38.15497261906087], [13.366593032672943, 38.154898386187696], [13.366632050464633, 38.154874613344205], [13.366701444769738, 38.15486950287797], [13.36672413051764, 38.15488805017496], [13.3667784048435, 38.15487057244945], [13.36680203032752, 38.154846585454145], [13.366810682717578, 38.15480415754943], [13.36681190496097, 38.154749469398894], [13.366797464050691, 38.15470671308206], [13.366829198443297, 38.15466460621885], [13.366783974123509, 38.15462142985029], [13.366749309403165, 38.15458334871423], [13.366743519784185, 38.154498165373276], [13.366721649847346, 38.15444315602141], [13.366683990305775, 38.15440615968274], [13.366646466286854, 38.154363090371476], [13.366554115761621, 38.15436180662282], [13.366438817663939, 38.15435412961356], [13.366369288147359, 38.15436532100399], [13.366284366479233, 38.15437629819875], [13.366260741167673, 38.154400276983225], [13.366184189479577, 38.15438098101323], [13.366117105410904, 38.15428279507915], [13.365997106069843, 38.154141318207024], [13.365971224167836, 38.153876854104446], [13.36593532250966, 38.1537608693436], [13.36592292008149, 38.15362696272515], [13.36590377827056, 38.15345042307261], [13.366039685745521, 38.15347570353269], [13.366056219319082, 38.15353215363855], [13.36609086931247, 38.15357479473782], [13.366125823566913, 38.15360339428828], [13.366143301355232, 38.15361769046414], [13.366160159949755, 38.15366009209586], [13.366195114432365, 38.15368868441962], [13.366212905768018, 38.153688931065], [13.366265975359893, 38.153703722434884], [13.366332919481469, 38.15371533460414], [13.366365099642163, 38.15376459105927], [13.366402365721319, 38.15379889380954], [13.36645397805189, 38.153829643622295], [13.3664959202072, 38.15386777201459], [13.366537433542845, 38.15392466237578], [13.366608559326748, 38.1539331622139], [13.366679601420909, 38.15394541425455], [13.366746396349921, 38.153935077707644], [13.366827032976602, 38.1539437024929], [13.366933862374648, 38.153843824599996], [13.367039685892635, 38.15378898164651], [13.367149756759634, 38.153756718118466], [13.367288347813364, 38.153724858262194], [13.3673843346754, 38.15368489456141], [13.367480227540808, 38.153648681081904], [13.367601316973637, 38.153548999920275], [13.367655359681105, 38.153470908863596], [13.36757119063617, 38.1534407631515], [13.367439706909682, 38.15340992260947], [13.367194196951349, 38.15339601652274], [13.367210062710823, 38.15328082135431], [13.36719242158235, 38.15307661582241], [13.367158847941447, 38.15293073112023], [13.367125748944034, 38.152764080830785], [13.367116305074537, 38.15268573708032], [13.367180188984053, 38.15266161771443], [13.36722462647397, 38.152657232283175], [13.367221264578815, 38.15261884036824], [13.367240850747894, 38.15259242790173], [13.36722916233901, 38.15254891776196], [13.367086480355022, 38.152402061941], [13.366910058261656, 38.15229158231203], [13.36679464206442, 38.15204068932846], [13.36672241628955, 38.15195649329867], [13.366634707541643, 38.15189905414713], [13.36652919891523, 38.15184136822097], [13.366424642179554, 38.15174153558325], [13.366479594746218, 38.15167201800311], [13.366602256693374, 38.15175805666529], [13.366708079941034, 38.151801686706015], [13.36679610199556, 38.15184507717401], [13.366909409895662, 38.15188220008583], [13.366959956526973, 38.15200939526171], [13.366939967319473, 38.15210750529326], [13.367215839992065, 38.152152736408944], [13.367240801530034, 38.15216976162004], [13.367261310926246, 38.152196723502286], [13.36730451927512, 38.152247344239015], [13.367368842234812, 38.15229825132564], [13.367390758302077, 38.15235692000254], [13.36740982461932, 38.152401364495056], [13.36743155495746, 38.152468365586884], [13.367459609450046, 38.15253544739009], [13.367478973856405, 38.15261407683575], [13.367498291772412, 38.15269438362666], [13.367521839203539, 38.15277474110423], [13.367498395536721, 38.15278442186721], [13.367493570482969, 38.152811031487275], [13.36750775616265, 38.15283790540864], [13.367541026763295, 38.15295508055072], [13.367568513987385, 38.15295379190008], [13.367606747483782, 38.153047854990085], [13.367624279835347, 38.15315876079897], [13.367654254656342, 38.15325085984258], [13.367895520230192, 38.15338383462354], [13.367791175345486, 38.153395033190456], [13.367782028103003, 38.153454419899894], [13.367805732584184, 38.153525503663744], [13.367833518096077, 38.1535394616403], [13.367980715094243, 38.1535918059868], [13.368117964836216, 38.15361999278441], [13.368186576525694, 38.1537410842722], [13.36832209795977, 38.15378497689433], [13.368379095779844, 38.153925258802595]], [[13.368174871765524, 38.15421672336263], [13.368189934115588, 38.15428938927138], [13.368361748193465, 38.15426638703651], [13.36835888897813, 38.154196602365786], [13.368174871765524, 38.15421672336263]], [[13.368261176723436, 38.15399398066128], [13.36837246971254, 38.15398404345584], [13.368367749163264, 38.15389853347937], [13.368263051176314, 38.153910029447665], [13.368261176723436, 38.15399398066128]], [[13.368351636504975, 38.1540173535235], [13.368379725568978, 38.15410583768201], [13.36847261214348, 38.1540915046012], [13.36845162940193, 38.15400374822763], [13.368351636504975, 38.1540173535235]]]}, "properties": {"anno": 2015, "id": 10449, "data": "2015-09-05", "localita": "Monte Pellegrino", "sup_ha": 8.5323, "sup_boscata_ha": 3.0288, "sup_non_boscata_ha": 5.2854, "luogo_inizio": "altro", "squadre_aib": 4}}, {"type": "Feature", "geometry": {"type": "Polygon", "coordinates": [[[13.297395739590458, 38.10740683779149], [13.297340455867404, 38.1072667801733], [13.297436393353937, 38.1072392862004], [13.29751971245265, 38.10721408029401], [13.297650824402961, 38.10718164201156], [13.297741911634946, 38.10715721629702], [13.297842396958682, 38.107126540950695], [13.297920024471326, 38.10710084765305], [13.2980178520985, 38.107104135985885], [13.298082768078098, 38.10713639788768], [13.298106149217617, 38.10719516271035], [13.298159600958098, 38.10724697534013], [13.298204385978838, 38.10732095031588], [13.298261457279436, 38.10735445744506], [13.298260181000165, 38.10740940900065], [13.298323933588481, 38.10744567046628], [13.298417228673353, 38.107476509403746], [13.29847953674286, 38.10751103311681], [13.298510268895566, 38.10757757156231], [13.29840799945338, 38.10771555010505], [13.298291923681477, 38.10764624599715], [13.298246980228216, 38.10768785562691], [13.29818755648083, 38.10773865563649], [13.298174126714875, 38.10772425309838], [13.2981467263528, 38.107705189123095], [13.298121040234207, 38.10768509289668], [13.298058636042619, 38.1076597740338], [13.297690135951377, 38.10767146743648], [13.297490709532708, 38.10768288155515], [13.297481377936172, 38.107616940506205], [13.297490149674921, 38.107551260941925], [13.297451996714459, 38.10747918418298], [13.297395739590458, 38.10740683779149]]]}, "properties": {"anno": 2015, "id": 10476, "data": "2015-09-05", "localita": "Madonna del Ponticello", "sup_ha": 0.4485, "sup_boscata_ha": 0.373, "sup_non_boscata_ha": 0.0755, "luogo_inizio": "strada comunale", "squadre_aib": 2}}]}