{"type": "FeatureCollection", "features": [{"type": "Feature", "geometry": {"type": "Polygon", "coordinates": [[[13.386698551657187, 38.07270225756608], [13.386560606768068, 38.07240677575581], [13.386915196227367, 38.07223222477339], [13.38760337091466, 38.07189913749765], [13.387939113189203, 38.07164277040851], [13.388073959575705, 38.07113898719305], [13.388021016448166, 38.07073049729616], [13.38798977599712, 38.07027337121319], [13.38824729757499, 38.06982020260012], [13.388644906604013, 38.06956468097266], [13.389184382980012, 38.06942527587258], [13.389515464224493, 38.06938088278584], [13.39025585263935, 38.06948887850057], [13.39069747825126, 38.07004948046561], [13.391039556657146, 38.070445618009366], [13.391502538994343, 38.070973888904284], [13.391831485904024, 38.071027321602486], [13.391943881627476, 38.07060477987818], [13.392997592226259, 38.070537626316174], [13.393465219973073, 38.07085391853978], [13.39432831349786, 38.07101249839838], [13.39485996911197, 38.071231790412945], [13.395410824558326, 38.07151658953802], [13.395984805407526, 38.07168751965943], [13.39643573580086, 38.07182415721585], [13.396473430501795, 38.07198777955023], [13.39636958527712, 38.072018983779884], [13.3965886600515, 38.072380800717426], [13.396745843752633, 38.072741780910164], [13.396307702931693, 38.07296414905575], [13.395995105208842, 38.07310668938696], [13.39568356391461, 38.07320030038887], [13.395452757240571, 38.07337656743201], [13.394874848424903, 38.07338499594549], [13.394385152468505, 38.07313364870036], [13.393763499553305, 38.073255649771454], [13.392526249647712, 38.07322243226163], [13.39200344889013, 38.07354149553393], [13.391437606596176, 38.07394153055923], [13.390912645305173, 38.07435841888388], [13.390396612958794, 38.074367672614045], [13.389750393194769, 38.07466872963775], [13.389073625501625, 38.07448004020373], [13.388544477903704, 38.07414658257474], [13.387772807058603, 38.07358144838001], [13.38712348205532, 38.07308322860668], [13.386698551657187, 38.07270225756608]]]}, "properties": {"anno": 2017, "id": 14789, "data": "2017-05-11", "localita": "Ciaculli", "sup_ha": 27.8333, "sup_boscata_ha": 0.0, "sup_non_boscata_ha": 23.0649, "luogo_inizio": "colture agrarie", "squadre_aib": 0, "fine_intervento": "2017-05-11"}}, {"type": "Feature", "geometry": {"type": "Polygon", "coordinates": [[[13.35772857649877, 38.067845376673006], [13.35774403537801, 38.067678561666085], [13.357819343308572, 38.067460004035496], [13.357932790301405, 38.06728528149592], [13.35805804442625, 38.067107631836365], [13.358189529952709, 38.06700121265302], [13.358311399574815, 38.06697507848201], [13.358504018866265, 38.066934457287275], [13.35869271770758, 38.066893789125764], [13.358834353666783, 38.066858647335145], [13.358960685317811, 38.06680783262558], [13.35908358959689, 38.06673531161138], [13.359187074773292, 38.066656335342465], [13.359022178790726, 38.06668186958394], [13.358932227165615, 38.066680614293084], [13.358827238753294, 38.066651314760996], [13.358703323451207, 38.066593908502476], [13.35865358245728, 38.066543721266], [13.358601243418963, 38.06643473650811], [13.358575867645364, 38.06634467936972], [13.35858769070909, 38.066165445469714], [13.35859300599597, 38.06592735223574], [13.358622133059095, 38.065674131679096], [13.358676291428301, 38.065526415235865], [13.358766527207768, 38.06551529863111], [13.358883243022374, 38.06554477010262], [13.359074053974451, 38.06558455031526], [13.359139097475438, 38.065650410079265], [13.359274809864946, 38.06570488860883], [13.359383914016119, 38.06572496924372], [13.359517165172967, 38.065714452620085], [13.359638895291816, 38.065694499064435], [13.359742355422021, 38.065791829031994], [13.359821658862069, 38.065919748789746], [13.35996087802868, 38.06599283369588], [13.360134948305305, 38.06608186472302], [13.360316907586917, 38.06616791269014], [13.3605727765909, 38.06627355067434], [13.360879343451113, 38.066386085577], [13.361046217172422, 38.06644717980911], [13.361198683693459, 38.066452395525886], [13.361425393552368, 38.06646173832629], [13.36173829335336, 38.06646609657972], [13.362023323696139, 38.0664917175303], [13.362097706117801, 38.066489661454604], [13.362191852278738, 38.06647860484106], [13.362227805814054, 38.066445078791716], [13.362173946854197, 38.06640411879575], [13.362031021642347, 38.06632170887728], [13.361853314534507, 38.06622025569025], [13.36181667799295, 38.06610839112587], [13.361826574433593, 38.0660157415982], [13.36194075063338, 38.06598330519708], [13.362063788538457, 38.06590459890773], [13.362092130228115, 38.06586169173957], [13.362058999735604, 38.065768435234254], [13.361940302152528, 38.06565233575165], [13.361864284363515, 38.065552298271605], [13.361831283054302, 38.065452859531185], [13.361848928748415, 38.06536341000679], [13.36189765472339, 38.065283661592446], [13.36200352856808, 38.06527276769841], [13.362116817388934, 38.065280528975116], [13.362182197776482, 38.065330932746775], [13.362325259278325, 38.06540715319692], [13.362409509394109, 38.06548875409668], [13.362540497481996, 38.065580273171804], [13.362719773674971, 38.06578691074742], [13.362748788384469, 38.065889392894896], [13.362694639165234, 38.06603710329519], [13.362612560514846, 38.06620917569837], [13.362519372647737, 38.06635325094287], [13.36252142338066, 38.066436791961074], [13.36255009348662, 38.06655472836999], [13.362587695287546, 38.0666233048492], [13.362679008527723, 38.06673902212113], [13.362712080596559, 38.066835361508616], [13.362705830364064, 38.066940445173], [13.362690579582573, 38.06709798068885], [13.362640889418538, 38.06722101006917], [13.36252271751694, 38.06743279055563], [13.362404879453228, 38.06762910752848], [13.36229562698092, 38.06779151778092], [13.362067534764465, 38.06784401867409], [13.361816594752678, 38.067868358320304], [13.361480358548196, 38.06785749175528], [13.361266003011933, 38.06782047904059], [13.361185041345962, 38.06776677358729], [13.36106928589215, 38.06769401647359], [13.361011309908028, 38.06766227448009], [13.36088615003834, 38.06766053048694], [13.360845310177508, 38.067737289241514], [13.360816070976878, 38.06782039287293], [13.36075217558166, 38.067878271760264], [13.360698100093726, 38.06793474116377], [13.360712162330838, 38.06800608090662], [13.360724364518564, 38.06816090709926], [13.360609485150894, 38.068224258606946], [13.360433822789911, 38.068206343301526], [13.360367120206538, 38.068214696644766], [13.360352150513956, 38.068359860557116], [13.36038870654012, 38.068474816389205], [13.360419156247824, 38.06868866562288], [13.360318337765603, 38.068823356577084], [13.360203320107718, 38.06889288970529], [13.360045282639756, 38.068961830436265], [13.3598330413903, 38.06900526499506], [13.359668555680493, 38.06901225391892], [13.359532767912077, 38.068960866746394], [13.359381607736236, 38.068896897758854], [13.35928059398841, 38.06886455491441], [13.359163054920518, 38.068872198633166], [13.359048793750329, 38.06890772216293], [13.359016263852533, 38.06896294520156], [13.358978443393859, 38.06907994841818], [13.358824856877911, 38.06912420658006], [13.358609740055417, 38.06912120459674], [13.358433800759025, 38.06911565755796], [13.358254778823936, 38.069072948978445], [13.358101219275033, 38.068940892377455], [13.357955765666539, 38.068796580921955], [13.357865839209534, 38.068619019060904], [13.35777199190754, 38.06844140143236], [13.357781468891977, 38.06836729836087], [13.357779493819603, 38.0682806673085], [13.35777436721964, 38.068159965982076], [13.35775949197785, 38.068037581967424], [13.35772857649877, 38.067845376673006]]]}, "properties": {"anno": 2017, "id": 15377, "data": "2017-06-15", "localita": "Serra Chiarando", "sup_ha": 10.7207, "sup_boscata_ha": 2.5866, "sup_non_boscata_ha": 8.1341, "luogo_inizio": "incolto e pascolo", "squadre_aib": 0, "fine_intervento": "2017-06-15"}}, {"type": "Feature", "geometry": {"type": "MultiPolygon", "coordinates": [[[[13.288214424704499, 38.15055558655061], [13.288214974955135, 38.150544253339554], [13.28830309628685, 38.150561632853], [13.28849351131411, 38.15059992267388], [13.28860982884669, 38.150620167722934], [13.288673583218337, 38.15063369707569], [13.28869091322437, 38.150638104942914], [13.288701927539018, 38.150656342949304], [13.28870810412445, 38.15068327974224], [13.288724531938264, 38.150707686753556], [13.288759766349122, 38.1507359716226], [13.28878299003852, 38.150760477664946], [13.28876561905337, 38.15077632843201], [13.288737799094104, 38.15080277878457], [13.288723454736063, 38.15083478478325], [13.2887279136139, 38.15083843912858], [13.288681092579003, 38.15089955453995], [13.288645037966228, 38.15094698396433], [13.288603942512278, 38.1509963206807], [13.288565508282991, 38.1510391158217], [13.288533814737438, 38.15107807108228], [13.28850567453093, 38.15110722833136], [13.288488815150242, 38.15112813577112], [13.288421669333145, 38.151109453551385], [13.288380308641258, 38.151098215941055], [13.28834685649751, 38.151087078279595], [13.288276444015011, 38.151070081310095], [13.288287783938003, 38.151034457529754], [13.288311045837196, 38.15102120156832], [13.288308196498527, 38.150984089478925], [13.28831973662604, 38.15095674226051], [13.288340269676745, 38.15093778265651], [13.288338378949758, 38.150895837144255], [13.288367516200228, 38.1508769957493], [13.288378582852129, 38.150833335841185], [13.288349000060578, 38.15076159138112], [13.288312804062555, 38.15071005658918], [13.288269813588174, 38.15065841552971], [13.288240422820827, 38.15060697271001], [13.288214424704499, 38.15055558655061]], [[13.288379021268415, 38.150831423639595], [13.288372168815393, 38.150875339630076], [13.288388204728356, 38.150936670946415], [13.28840265394017, 38.15099470157412], [13.288417310299607, 38.15104352976152], [13.288427497055055, 38.15107061153313], [13.288483264344379, 38.151069449936855], [13.28847156894509, 38.15103577484392], [13.288462273621366, 38.151006733406945], [13.288456169493232, 38.150982997715985], [13.288445080175304, 38.15095918124933], [13.288435835966775, 38.150927514543966], [13.288414630399265, 38.15087399222067], [13.288390911224196, 38.15082108570108], [13.288379021268415, 38.150831423639595]]], [[[13.2885818355233, 38.151127051210906], [13.288553608812432, 38.15113769446274], [13.28860017392741, 38.15108627017039], [13.28867465690149, 38.150996689848675], [13.288718363122701, 38.1509421400346], [13.288761321250032, 38.15088429273147], [13.28876948577039, 38.1508725108566], [13.288776831617277, 38.15087852147924], [13.288758895971824, 38.15091853161054], [13.28873088677542, 38.150953027557634], [13.288710864041516, 38.150989316970296], [13.288676185490514, 38.15101834743131], [13.288654972110558, 38.151052941501206], [13.288644029405162, 38.151085005175624], [13.288602672517152, 38.151108562797646], [13.2885818355233, 38.151127051210906]]], [[[13.288240183334283, 38.150489417815294], [13.28821780228676, 38.150485650876156], [13.28821902132911, 38.15046045208995], [13.288263206119442, 38.15046109620841], [13.288314259836937, 38.15045915134694], [13.28839922640039, 38.15046038899036], [13.288466886900643, 38.15047479816055], [13.288524545726913, 38.15048101405946], [13.288579630332125, 38.150506892903636], [13.288650756578393, 38.15051867239977], [13.288660442381898, 38.15054028485682], [13.288676755013627, 38.15057005756893], [13.28867864307875, 38.150580191715214], [13.288587058349648, 38.150562800754614], [13.288510192984123, 38.15054662636842], [13.28836730149039, 38.1505143264056], [13.288303149992421, 38.1505017310196], [13.288240183334283, 38.150489417815294]]]]}, "properties": {"anno": 2017, "id": 17373, "data": "2017-06-27", "localita": "Inserra - Santa Croce", "sup_ha": 0.1949, "sup_boscata_ha": 0.0, "sup_non_boscata_ha": 0.1949, "luogo_inizio": "incolto e pascolo", "squadre_aib": 1, "fine_intervento": "2017-06-27"}}, {"type": "Feature", "geometry": {"type": "Polygon", "coordinates": [[[13.315402935012154, 38.22287954694391], [13.315423191130204, 38.22274745769981], [13.315441043511399, 38.22266440590372], [13.315533055134985, 38.22262651163397], [13.31556904086594, 38.22268257858985], [13.315643051121112, 38.22270651781938], [13.315681452400083, 38.22265805019388], [13.315771954950224, 38.22268548826152], [13.315816229025847, 38.22274168220652], [13.315893553838503, 38.22280161355942], [13.315979835959425, 38.222832261224006], [13.316096769638422, 38.22279145292043], [13.316158885277432, 38.222792343308114], [13.316227537922515, 38.223048229689056], [13.31683463759928, 38.22294909205139], [13.316782540113698, 38.222693443460145], [13.316837282259012, 38.22265501358938], [13.31689187270529, 38.22262311405232], [13.31692537491231, 38.22260725735026], [13.316996985577545, 38.22255599524754], [13.317035915177815, 38.2224846578028], [13.317074994081624, 38.22240678814639], [13.317135982057332, 38.22227694443207], [13.317146382645094, 38.22218559030797], [13.317083366039597, 38.22204416635241], [13.316909661492975, 38.2219183860709], [13.316844246205365, 38.22181524867518], [13.316797043678065, 38.22170673208613], [13.3167458677529, 38.22158307300264], [13.316744268284783, 38.221480484998835], [13.316725981070071, 38.221375653443836], [13.31674066649279, 38.2212778201587], [13.316767775929156, 38.2211801722801], [13.316795638223976, 38.22104985358074], [13.3168432316558, 38.22096230324148], [13.31688772699874, 38.22082895274869], [13.316973192700454, 38.220715796439364], [13.317096604363279, 38.22057378104812], [13.317235138890645, 38.220494067165475], [13.31736554712987, 38.220407695050866], [13.317428867060961, 38.22035632098125], [13.317529379432536, 38.220308743211156], [13.317660892229243, 38.220156930538245], [13.317687400423072, 38.220003334031084], [13.317737062457455, 38.219841019029055], [13.317798419430746, 38.21966980682777], [13.317814493489008, 38.21947077900911], [13.317775503540574, 38.21931149084694], [13.317739403997544, 38.21912803702729], [13.317734462392167, 38.21890525604847], [13.317708636041797, 38.21871399489521], [13.317672721364179, 38.218522581904814], [13.317604027556447, 38.21837043403201], [13.31758118133738, 38.21819129567059], [13.317471171393196, 38.218082236646474], [13.31739258008599, 38.21794593430554], [13.317363751881983, 38.21779225994315], [13.317351497462196, 38.21762179480044], [13.317380826073514, 38.21752003767246], [13.31746330909405, 38.21745309942173], [13.317599841076051, 38.21738268515839], [13.317674871799923, 38.217287968761966], [13.317726374742897, 38.21716099490614], [13.31774668081858, 38.21698247420313], [13.317782777077644, 38.21682121634615], [13.31782465934974, 38.2166430120991], [13.317822702226575, 38.21649398007417], [13.317815154984048, 38.21635338122162], [13.317823199848815, 38.216238548470784], [13.317825753518873, 38.21612790222134], [13.317844782545386, 38.21600471270196], [13.31784723720848, 38.21589831402037], [13.31788784249448, 38.21577543374721], [13.317960625147242, 38.21566153515256], [13.318022904385206, 38.21553470835974], [13.3181014635997, 38.215403856837526], [13.318164046567375, 38.215264263004634], [13.318182388937446, 38.21517086238637], [13.318265948283766, 38.215057118917315], [13.318376093852489, 38.21496077663742], [13.318442196165481, 38.21490211622686], [13.318465439835927, 38.21483007940894], [13.318461714504814, 38.21475765617624], [13.318436086840157, 38.214658111267006], [13.318401474795188, 38.214586496292554], [13.318459122918357, 38.214478526439336], [13.318579097695933, 38.21445848494401], [13.318735156926513, 38.214467974173914], [13.318828146202357, 38.214422159114015], [13.318926651124409, 38.2143365329124], [13.318910605999822, 38.214234755291514], [13.31883926313993, 38.214139449847956], [13.318828314558132, 38.214015986588464], [13.318771013291292, 38.213909998873525], [13.318620628772354, 38.21385345195354], [13.31854920221939, 38.21376176511583], [13.318421122920101, 38.213734545115024], [13.31830809772481, 38.213653145461315], [13.318351704096013, 38.213555850594425], [13.318298738961047, 38.213460807252275], [13.31832814861833, 38.21338144040463], [13.31834352614478, 38.213312754955396], [13.318458641400301, 38.21330352730357], [13.318447703296746, 38.21337952354731], [13.318377069423809, 38.213452459297685], [13.318467484832166, 38.21351822324156], [13.318475555653729, 38.21361101560428], [13.318528236013725, 38.213674428396565], [13.318687970480854, 38.21372386130869], [13.31872280096432, 38.21380776852554], [13.318786213326398, 38.213848567008384], [13.31894494618116, 38.21394150249125], [13.318933588906456, 38.214035632325384], [13.319010030440944, 38.21410925120966], [13.319021721047442, 38.21420008307828], [13.319150303008477, 38.21420555099727], [13.319193741755747, 38.21411550869861], [13.319249716706512, 38.214080047454935], [13.319315387315088, 38.214022957387364], [13.319303519206388, 38.213939379182726], [13.319392579840997, 38.213864500695436], [13.319385140817719, 38.21378823309136], [13.319455406681382, 38.21373121685404], [13.319524995148626, 38.21370319758077], [13.31952199522621, 38.21363424972763], [13.319497517174906, 38.21349972473128], [13.319591080487731, 38.21342853053644], [13.319643878908298, 38.2133313658815], [13.319737032813553, 38.213278304359235], [13.319715647276418, 38.21320909327748], [13.319763347978068, 38.21313362322701], [13.31986895064134, 38.21310433232944], [13.319891640554772, 38.21299817635133], [13.319830224760318, 38.21293180313393], [13.319786498713794, 38.212813898572435], [13.319830682657354, 38.212605111993334], [13.319948647252886, 38.21247261718751], [13.320002362577144, 38.212335575381296], [13.320036616795969, 38.21224540035088], [13.320127737030884, 38.212115147085], [13.320316842674032, 38.21197126289315], [13.32056893096732, 38.21191622441901], [13.320783367571805, 38.21188264774782], [13.321144700436106, 38.21192445578896], [13.321364539577399, 38.212059535500444], [13.321545892777186, 38.2122526924441], [13.321638157502425, 38.21237166270787], [13.321652700329693, 38.21228735846042], [13.321524201168764, 38.21212147078384], [13.321444493681408, 38.21202587603273], [13.321345203626409, 38.2119598243159], [13.32125278382128, 38.211869020242034], [13.321210291134463, 38.21179881629883], [13.321350236741253, 38.211741163561165], [13.321477241290962, 38.2116982326564], [13.321560150842561, 38.21165468002004], [13.321668714113022, 38.211591598244205], [13.321835343204928, 38.21146970119348], [13.321925809465403, 38.21137156729367], [13.322142030370607, 38.21128516475496], [13.322300519231053, 38.21124269115709], [13.322409882189511, 38.21114482609514], [13.322494400723928, 38.21103169062615], [13.322647399789835, 38.21095433595552], [13.322880677083695, 38.21094772352322], [13.323081886958393, 38.21096551111118], [13.323264324852458, 38.21097805933631], [13.323388926392425, 38.21103949118982], [13.32349440361688, 38.21111059319551], [13.323676145213573, 38.21115296123623], [13.323971957923902, 38.21116712675592], [13.324154158269149, 38.211189612775506], [13.324375419204891, 38.21115796802604], [13.32458315726112, 38.2111659027823], [13.32468359236022, 38.21118225078985], [13.324649698641302, 38.211286166166005], [13.32451514150249, 38.21138367366983], [13.324468316176066, 38.211502319575004], [13.32439594165884, 38.21163550868423], [13.324318990833392, 38.21169407172772], [13.324221313946405, 38.211831871191144], [13.32413656908061, 38.21195494723868], [13.323951054823288, 38.21207658598917], [13.323829207886728, 38.212169302452814], [13.323745489369879, 38.2122476481703], [13.323761988213818, 38.212352282085014], [13.323684121725037, 38.21245059736317], [13.323737834845879, 38.212580621472], [13.32376613319369, 38.212720218825204], [13.32363947138476, 38.212748240996866], [13.323495511591425, 38.21270641258838], [13.3230856995661, 38.21275630839096], [13.322929387036156, 38.21280465637158], [13.322779438545297, 38.212869073659604], [13.322663598063027, 38.21291799965932], [13.32256848489946, 38.21294592004119], [13.322432642112114, 38.212983909042464], [13.322314772779608, 38.21297423983808], [13.322196045507223, 38.21300183046145], [13.322078727400882, 38.21296821051069], [13.321973923149208, 38.21297735665022], [13.321881440909065, 38.21303726491464], [13.321822575636428, 38.21310297518611], [13.321793627050203, 38.21318774932534], [13.321775296390099, 38.21325138164708], [13.321696368750128, 38.213308819737506], [13.321654853264375, 38.213353484383546], [13.321583341594907, 38.213381741469725], [13.321487920466065, 38.21342297218143], [13.321409910707587, 38.21344049345973], [13.321365142164169, 38.21347978288096], [13.321334235386164, 38.21350330640882], [13.321309765514519, 38.213540221399235], [13.321231448754991, 38.2135710456761], [13.32117656223262, 38.21361019750168], [13.321132048397942, 38.21363884050128], [13.321090952525118, 38.21366487484227], [13.321073415053378, 38.21376711981051], [13.32102380997287, 38.213870227125824], [13.320991115675309, 38.213970918813345], [13.320961807745567, 38.214071667047364], [13.32089606691738, 38.21414259984364], [13.320840443513637, 38.21421368456759], [13.32075151769047, 38.21426564945501], [13.320736736565078, 38.21432134715584], [13.32067835965129, 38.214365771075954], [13.320669768307773, 38.21444550670492], [13.320647079967967, 38.21455167004744], [13.320661682524703, 38.21465037365786], [13.320666525215454, 38.214732966258346], [13.320650578142345, 38.214839226959214], [13.320683739987729, 38.21489780771096], [13.320610205870148, 38.21495095606313], [13.320634461308657, 38.214996941759075], [13.320686039433774, 38.21495489158075], [13.320762726180163, 38.21492176081443], [13.320835143670587, 38.214917086287194], [13.32087017092732, 38.214966076441854], [13.320901050726256, 38.21503783196004], [13.320884818570047, 38.215114615102365], [13.320819240251957, 38.21513649252968], [13.32071883343992, 38.21510083051826], [13.320642934218057, 38.21509974446651], [13.320659889498424, 38.21514847698181], [13.320735394375346, 38.2151666705072], [13.320770552697736, 38.21520996089349], [13.320838166348274, 38.21525656692496], [13.320847568477094, 38.21531945408522], [13.320834883489145, 38.21539913835348], [13.320725083082174, 38.21545747044452], [13.32076339441639, 38.215520770360264], [13.320833897886432, 38.21559879360965], [13.320768123504932, 38.21562923016727], [13.320817209125032, 38.21573732073795], [13.320874330605939, 38.215802172109655], [13.320968336050932, 38.215831979459686], [13.321054799223843, 38.21579763663483], [13.32115765734326, 38.215834685178685], [13.32118814996856, 38.21588136646727], [13.321245117558968, 38.215953331059254], [13.3212476503865, 38.21603874907999], [13.321251094901461, 38.21608504254034], [13.321187745032681, 38.216094810642936], [13.321088984723557, 38.216075609744806], [13.320928435823387, 38.21614251512779], [13.320931305579016, 38.21621370587046], [13.321001706446513, 38.21628942056753], [13.321049239005584, 38.21637904016729], [13.321018680220478, 38.216441681833885], [13.320972380125594, 38.21649438823149], [13.3209069000166, 38.21659661587004], [13.32089088310683, 38.2167486926026], [13.320902360216234, 38.216837796386386], [13.320932033239602, 38.216920044903695], [13.320962284390715, 38.217063561975685], [13.321014909164697, 38.21712834894146], [13.321026795234003, 38.21719966866373], [13.320980320864322, 38.217259488158916], [13.320946674685837, 38.21733606899915], [13.320921676001685, 38.21744243359091], [13.320898171006794, 38.21752073564424], [13.320845440854175, 38.21757679963642], [13.320792587503938, 38.217638268829916], [13.32075680798587, 38.21770269210795], [13.320722656731844, 38.217845592278415], [13.32067783582416, 38.21800457514219], [13.320650857858332, 38.21813405234671], [13.32066232670181, 38.21823160803987], [13.320703959598028, 38.21835936263475], [13.320714992128238, 38.21847585095446], [13.32081909183501, 38.21857203578521], [13.320827000561787, 38.21867495471608], [13.320908534549698, 38.21878298952116], [13.32092268215662, 38.2189130551763], [13.320882230865607, 38.219031510350135], [13.320876313570956, 38.21913964654779], [13.320970687784706, 38.219211338117724], [13.3209922464735, 38.21931716302428], [13.32109809207311, 38.21933760807233], [13.321185854819849, 38.21939838370181], [13.321239021009543, 38.21947219625956], [13.321176128876132, 38.21952270080967], [13.321092050449638, 38.21959995158888], [13.321096907924865, 38.21968659866593], [13.321112560649887, 38.21975175060143], [13.32106686702123, 38.21979979673365], [13.32103813491495, 38.21985620320121], [13.321022117903162, 38.21995607720997], [13.321003609954921, 38.220015333435], [13.321005415812763, 38.220085701470204], [13.320961351604327, 38.22021222354605], [13.320940840159675, 38.22035802956882], [13.320934237702303, 38.220495915998654], [13.320908058358684, 38.22059022948305], [13.320868477492953, 38.220670827434404], [13.320819234199401, 38.22072422965381], [13.320733098338719, 38.22074193781031], [13.32065012923571, 38.22077051150036], [13.320583248835238, 38.220845311702085], [13.320560940314143, 38.22092074162274], [13.320541674035633, 38.22101245135329], [13.320543800608961, 38.22106929929653], [13.320504717739409, 38.22112826097678], [13.320449298405324, 38.2211518145944], [13.320390150115873, 38.22118884759962], [13.320310803085647, 38.22120935519435], [13.320214495168539, 38.22122151038359], [13.32015552423925, 38.22125042721842], [13.320085714899122, 38.22130353472559], [13.320012221660257, 38.221367411534004], [13.319945340050362, 38.221442211337], [13.319812834977824, 38.221461578169404], [13.31969438865935, 38.22146821894958], [13.31962037550117, 38.221472154336844], [13.319574416292204, 38.22154148245209], [13.319600220435325, 38.2216135062124], [13.319624405765406, 38.22166384189993], [13.319637914247565, 38.22171902706528], [13.319611424763025, 38.22176863714099], [13.31956612731041, 38.221809642124065], [13.319544444862622, 38.22191554104084], [13.319482392902072, 38.22203324385435], [13.319418810868457, 38.22211645789778], [13.319371877924082, 38.22221859237108], [13.319310910873837, 38.222334050501345], [13.319259702883416, 38.22242641275454], [13.319209007579623, 38.22256613128336], [13.319171757954136, 38.222637377279], [13.319100782139548, 38.22279864948957], [13.318989049062456, 38.22284073925447], [13.318922677940723, 38.22280233883602], [13.31895295005497, 38.22269041806767], [13.318935331377249, 38.22259654286123], [13.31901665848127, 38.22250095977531], [13.319011056377683, 38.22240100983557], [13.319084540136616, 38.22230219181354], [13.31915788912726, 38.222209617779654], [13.319171837446662, 38.222119309151516], [13.319237487973961, 38.222017256297214], [13.319247047295882, 38.22194561368852], [13.319257407748736, 38.22183965450885], [13.319303066211047, 38.22174668378288], [13.319371954044165, 38.22167588271728], [13.319457010563772, 38.22158972120955], [13.319466435249648, 38.22152431450597], [13.31940315923103, 38.22152340926185], [13.319330458416696, 38.22158791067444], [13.319221092118411, 38.22169869066954], [13.319151422312578, 38.22180380938882], [13.319094180327998, 38.22188413031168], [13.319040247602002, 38.2219925887902], [13.318909027992376, 38.22219357286771], [13.318802744709181, 38.2223418552952], [13.318776933439214, 38.222431986711776], [13.318763272967667, 38.222509816484774], [13.318769450450917, 38.22258480702735], [13.318779729702149, 38.222653610364716], [13.318769881374086, 38.22273773260558], [13.31881136759833, 38.22282571280657], [13.318865363030215, 38.22288578111371], [13.31890297356096, 38.2229705823265], [13.31882775147716, 38.223144277349164], [13.318778710104786, 38.2232122398575], [13.318733266577622, 38.22329585213364], [13.318723923109863, 38.22335813648222], [13.318554647464941, 38.22349302601299], [13.31850093839754, 38.223592127015415], [13.318461947788844, 38.223693931512045], [13.318386740642316, 38.22377387837031], [13.318343506945823, 38.223808170818565], [13.318263535953358, 38.223847886264664], [13.318188621821736, 38.22390487463834], [13.318100727318136, 38.2239337255332], [13.318042808656536, 38.22396299879], [13.317944503417417, 38.22397019047745], [13.31778535697522, 38.22399466478941], [13.317706314059373, 38.22401886520372], [13.317634139131805, 38.22405441234895], [13.317497510671796, 38.22410029991903], [13.317407637671732, 38.22412996901637], [13.317313876232431, 38.224173659363686], [13.317206489597421, 38.22418900100293], [13.317101962840162, 38.2242353484354], [13.317023179919497, 38.224248295679324], [13.316611361462382, 38.22378729413439], [13.316596683614758, 38.22365407454951], [13.31669154837161, 38.22362911505954], [13.316785113587422, 38.22360329065977], [13.316871662812854, 38.223582803178196], [13.317037701203683, 38.22354986788439], [13.317134711546597, 38.2235240917094], [13.317218138328863, 38.22348998045971], [13.317295362765416, 38.22342589492489], [13.317417714988192, 38.22334615793923], [13.317421952227171, 38.22329487759591], [13.317359098441976, 38.223306321429476], [13.317217065804641, 38.22335815187575], [13.31708815044953, 38.223396699666395], [13.316932523858918, 38.22342140264039], [13.31692078605249, 38.22331350379074], [13.316660169247672, 38.22332660213136], [13.31635175154525, 38.22337604651594], [13.316222702061367, 38.22336841670836], [13.316054194270246, 38.223314691071984], [13.315922305413608, 38.223255229423145], [13.315787062268283, 38.22320322347574], [13.315662100250885, 38.22311883023195], [13.315584010837252, 38.22306514993854], [13.315484254016171, 38.22298862317789], [13.315402935012154, 38.22287954694391]]]}, "properties": {"anno": 2017, "id": 17798, "data": "2017-06-28", "localita": "Monte Gallo, Palermo (PA)", "sup_ha": 35.8664, "sup_boscata_ha": 0.0, "sup_non_boscata_ha": 32.6003, "luogo_inizio": "altro", "squadre_aib": 7, "fine_intervento": "2017-06-28"}}, {"type": "Feature", "geometry": {"type": "Polygon", "coordinates": [[[13.29786989965005, 38.107160249717204], [13.29786903024918, 38.10711810164898], [13.297955961384579, 38.10709018115399], [13.298067307048708, 38.107059585474964], [13.298114204415983, 38.10704645980863], [13.29814552123378, 38.10707682182598], [13.298132281613112, 38.10714564491139], [13.298136604289889, 38.10721012283055], [13.298117323767034, 38.10728806482304], [13.298087152943058, 38.10733364002925], [13.298028405475657, 38.10735579951625], [13.297999827915877, 38.1073323765759], [13.29796036113313, 38.10727659496165], [13.297943965059954, 38.10723034504886], [13.297904071560348, 38.107192952975446], [13.29786989965005, 38.107160249717204]]]}, "properties": {"anno": 2017, "id": 18148, "data": "2017-07-14", "localita": "Madonna Del Ponticello", "sup_ha": 0.0525, "sup_boscata_ha": 0.0446, "sup_non_boscata_ha": 0.0079, "luogo_inizio": "strada provinciale", "squadre_aib": 1, "fine_intervento": "2017-07-14"}}, {"type": "Feature", "geometry": {"type": "Polygon", "coordinates": [[[13.303609203528843, 38.09665121560391], [13.303620768865926, 38.096587556541174], [13.303668031046376, 38.09650845664505], [13.30370088723594, 38.096397236127885], [13.303738415505899, 38.09630203935288], [13.303750441732312, 38.09621843840651], [13.303808164514079, 38.09612353319312], [13.30386380152513, 38.0960078085114], [13.303888640373048, 38.095917260594995], [13.303890850656684, 38.09582155474], [13.303882600036564, 38.09574165324427], [13.303874902551794, 38.09563782619195], [13.303867480441133, 38.09552203904623], [13.303895293766667, 38.095410745641935], [13.303928241151938, 38.095295541332476], [13.304032937072012, 38.09513349493164], [13.304104778660376, 38.09508267724252], [13.304246620648767, 38.09506078852721], [13.304337633576752, 38.095054123186465], [13.304385332496977, 38.09517448388924], [13.30446000548113, 38.09521943742262], [13.304580097943335, 38.095265053615975], [13.304756337087765, 38.09528355144218], [13.30488230921525, 38.09529334554769], [13.305019099077565, 38.09527138390363], [13.305175256643176, 38.09528559823032], [13.305209377394668, 38.09533795250457], [13.305315881789461, 38.09553494954515], [13.305455700323066, 38.09560079072742], [13.30559112179699, 38.095638640747175], [13.305758464762045, 38.0956051548498], [13.305900858687899, 38.09555933765325], [13.306012793005978, 38.09552106011813], [13.306165830001476, 38.09545146161614], [13.306323632539632, 38.095393901995884], [13.306536027453106, 38.09537701267833], [13.306645386374957, 38.095450391516046], [13.306734560074101, 38.0955234802149], [13.306894564245527, 38.09558960973912], [13.306982360415402, 38.095722510472235], [13.307091076075332, 38.095823808112364], [13.307175485853326, 38.09588485564707], [13.30728988714723, 38.09595830655107], [13.307251536610025, 38.09608939839371], [13.307153817347045, 38.096167773597244], [13.307121426645855, 38.09625905241127], [13.307078483417754, 38.09637012857486], [13.30703581602392, 38.09646924552564], [13.306975070840423, 38.09653938221318], [13.306987188582495, 38.09660815920139], [13.307000299628347, 38.09669610869505], [13.306982591864188, 38.096807548489146], [13.306990387074793, 38.09690738363854], [13.306918085323858, 38.096978146777936], [13.30682569183198, 38.09704463437044], [13.306788064912391, 38.09714381575164], [13.306796042622612, 38.09723568349928], [13.306778794671793, 38.097327180450684], [13.306842183521399, 38.09742383186246], [13.306909796635368, 38.09755644984357], [13.307074763595269, 38.09762663658828], [13.307301104457656, 38.09766180804159], [13.307543046942776, 38.09767726341806], [13.307745079818073, 38.097672193068114], [13.307859852325366, 38.09772969337768], [13.307824337732887, 38.097956555894314], [13.307849362540333, 38.09862309128301], [13.307907157928165, 38.09907269885746], [13.307952567967256, 38.0992927488276], [13.307904940501217, 38.099387801472396], [13.307867691744361, 38.09947103952895], [13.30784447425701, 38.099602342258535], [13.307812082730408, 38.09969362119647], [13.307734268507067, 38.09978425390288], [13.307635452075305, 38.099910482492454], [13.307601773250196, 38.10005758983912], [13.307614150621191, 38.10017744124174], [13.307597085556566, 38.100260969973235], [13.30775471109446, 38.10043078180211], [13.307834060124408, 38.10071115992117], [13.30774806282732, 38.100934989870304], [13.307630612716745, 38.10102447744063], [13.30771826373363, 38.10122632835913], [13.307965287480474, 38.10152165265408], [13.308028181830075, 38.10179609273757], [13.30802523503126, 38.101923694287706], [13.308113720022341, 38.10208908346936], [13.30824625217995, 38.102346285592425], [13.308336000343163, 38.10245699659892], [13.308376671700428, 38.10269463579235], [13.308439988951168, 38.102950841843246], [13.308320378890413, 38.10304773368218], [13.308193161717487, 38.10298946429084], [13.308058550919345, 38.10294237734759], [13.307944572454355, 38.102929449265766], [13.30791191892311, 38.10283383057585], [13.307798537854719, 38.10275804106921], [13.30777770362134, 38.10264954983085], [13.307624865565822, 38.102546716899234], [13.3075632075253, 38.102432953142134], [13.307429901026444, 38.10232945421642], [13.307303207745118, 38.102248616872195], [13.307194045166824, 38.10222858678008], [13.307135859872508, 38.10217178503797], [13.307082879490855, 38.10213520144301], [13.30700014260813, 38.10208754694496], [13.306932337387357, 38.10205097491962], [13.306868984497953, 38.10200768565187], [13.306814289036433, 38.10196112639263], [13.306815581056435, 38.101905204294546], [13.306775892238127, 38.10185886852665], [13.306772733143832, 38.10180966454747], [13.30676318546039, 38.101758674264765], [13.30677025704692, 38.10168744693018], [13.306790887066299, 38.101627693286595], [13.306756005956617, 38.10156858590076], [13.306766759096952, 38.10151123121973], [13.30675510835008, 38.101458517304295], [13.306670687199928, 38.101459903925615], [13.306588455090303, 38.10146319379237], [13.306526364147938, 38.10145334998845], [13.30644428695904, 38.101449930002076], [13.3063649361135, 38.10145102452306], [13.30632081061159, 38.10139889944332], [13.306233278716892, 38.1013864438413], [13.306123447612983, 38.10135799782427], [13.306045182261924, 38.101312092343825], [13.305952022442582, 38.10122546760434], [13.305979712426968, 38.101080573338976], [13.305883643397573, 38.10094710202862], [13.305728394798109, 38.100922484019634], [13.305603597506208, 38.10095417456344], [13.305552029894203, 38.10088335953165], [13.305552872819868, 38.100794586578196], [13.305415195133833, 38.10074558696015], [13.305298933248112, 38.10062750080514], [13.305282312335853, 38.10048846224667], [13.305250240559781, 38.100405173042745], [13.305251531960758, 38.10034922751933], [13.305230790192189, 38.10026609365352], [13.305237793561357, 38.100207993807466], [13.305233475373203, 38.10014972251515], [13.30522050299517, 38.10009804646488], [13.305208407341416, 38.10000832534406], [13.3051929650436, 38.099940944845585], [13.305174227967974, 38.09989365997736], [13.30515532546367, 38.09985309191484], [13.305131186535053, 38.09979454276077], [13.305106520446829, 38.09975836679278], [13.305079240635926, 38.09971320439429], [13.305049224574615, 38.099663520042], [13.305013381695613, 38.09962047080427], [13.304982962377917, 38.09958868615562], [13.304941408777214, 38.09954779212524], [13.304917001451035, 38.09950042539743], [13.304881272345822, 38.099452903404256], [13.304845803191126, 38.099394183487895], [13.304821653248977, 38.09933563411068], [13.30481466092654, 38.099270612223435], [13.304810127071264, 38.09922129462358], [13.304797112561456, 38.09917185554453], [13.304793146459893, 38.09909792049927], [13.304797681338812, 38.09902411533617], [13.304804902251583, 38.09895705370992], [13.304814477863632, 38.098910185452645], [13.304836055399031, 38.09883438137664], [13.30487416980936, 38.09877895909092], [13.304900529270327, 38.0987412898371], [13.304921333388057, 38.09869904983782], [13.304956358239474, 38.0986547855087], [13.304999761414619, 38.098615116415026], [13.304969538963539, 38.09857438498555], [13.304926342689562, 38.0986051002277], [13.304894259839424, 38.09864493264254], [13.304862126426071, 38.098687001046706], [13.304824022317352, 38.0987424234783], [13.304782922171434, 38.09880451464891], [13.304764432725655, 38.09886916882368], [13.30474295865732, 38.098940491910405], [13.304735799810157, 38.09900530958949], [13.304726163132278, 38.09905442269769], [13.304716587254367, 38.0991012990528], [13.304612160808416, 38.09908411598733], [13.30446531210159, 38.09906409192526], [13.304349667608292, 38.0990422723558], [13.304227690310961, 38.09904947026147], [13.304134335872265, 38.099043648263425], [13.304044329538037, 38.09901548652149], [13.30393980889146, 38.09900278486892], [13.303790131218609, 38.098982711010414], [13.30369152947518, 38.09895890735702], [13.303578250227702, 38.09895727246199], [13.303616821028045, 38.098881714018574], [13.303674489971257, 38.098837768961005], [13.303706934613441, 38.09878227330124], [13.30378453745706, 38.098734140768286], [13.303830005977655, 38.09872808529716], [13.30389267250349, 38.09871331318177], [13.303963674384745, 38.09870538778031], [13.304037610485935, 38.098693023130274], [13.304140549797891, 38.09865196812279], [13.304192660167743, 38.098603475412745], [13.304202391573407, 38.09854988214819], [13.304218050767965, 38.098485187206876], [13.304242935172034, 38.0983892869039], [13.304292153976967, 38.09834298282516], [13.304321663892358, 38.0982919189806], [13.30428743350721, 38.09822809717265], [13.30422811113423, 38.09818790976398], [13.30415687588873, 38.098152724027095], [13.304228777378423, 38.098102008109045], [13.304206166822196, 38.098060276111205], [13.304023032784754, 38.09793653181244], [13.303980874671558, 38.09789037754289], [13.303947213634029, 38.097816402152475], [13.30403015032939, 38.097658547597085], [13.304048056311117, 38.0975391330222], [13.304024386325924, 38.09747097301286], [13.304021739871061, 38.09736721891566], [13.303973027216625, 38.097290727319006], [13.303894037773288, 38.09721379046021], [13.303881380995403, 38.09710590681088], [13.303848548919852, 38.0969977228511], [13.303810390080715, 38.0969014341454], [13.303781218388789, 38.096853144067005], [13.303726902959324, 38.09680050590737], [13.303632320974852, 38.09674329404808], [13.303609203528843, 38.09665121560391]]]}, "properties": {"anno": 2017, "id": 18155, "data": "2017-07-14", "localita": "poggio ridente", "sup_ha": 19.178, "sup_boscata_ha": 0.6667, "sup_non_boscata_ha": 16.293, "luogo_inizio": "altro", "squadre_aib": 7, "fine_intervento": "2017-07-14"}}, {"type": "Feature", "geometry": {"type": "Polygon", "coordinates": [[[13.297056706694558, 38.10765623550724], [13.29706222780441, 38.10762260069072], [13.297115063758133, 38.10759339529757], [13.297172463163555, 38.10757174482079], [13.297206069441982, 38.107553501911916], [13.297249256827689, 38.107531645375815], [13.29726390352856, 38.10751312761368], [13.29727451879452, 38.10746458094458], [13.297284874459748, 38.107427263691214], [13.297292144282908, 38.10740127456882], [13.297293013718921, 38.10736382791733], [13.297289136912635, 38.107326304356114], [13.297299492360018, 38.107288995207846], [13.297309053877713, 38.10728538941171], [13.297352241073195, 38.1072635328323], [13.297385672218772, 38.107252776118024], [13.29746479135404, 38.10723486568806], [13.29753207741138, 38.10720659138303], [13.297523567399077, 38.10723604289594], [13.29751803741471, 38.107269677609786], [13.297512516357633, 38.107303320563126], [13.297492861311854, 38.10733300705962], [13.297482168434868, 38.10738529701961], [13.297476464431947, 38.10742642610583], [13.29749964883497, 38.1074492357059], [13.297610076374827, 38.1074996899027], [13.297746437665667, 38.107551071341696], [13.297858475653866, 38.10757244871401], [13.297946217187109, 38.107563837797116], [13.298140716195704, 38.10758510301572], [13.298178850279074, 38.107600865584104], [13.29821057064156, 38.107637587635], [13.29818456719967, 38.107673482407876], [13.298154311838301, 38.107701119360414], [13.298063494320303, 38.107658857635386], [13.297980656095188, 38.10765531971561], [13.297716832233776, 38.10766671129708], [13.297469157345173, 38.107684185893085], [13.297243893868592, 38.1076926225061], [13.297086757730046, 38.10770087303071], [13.297056706694558, 38.10765623550724]]]}, "properties": {"anno": 2017, "id": 17380, "data": "2017-07-15", "localita": "Gebbia,(Via Ruffo di Calabria) Palermo (PA)", "sup_ha": 0.2, "sup_boscata_ha": 0.1856, "sup_non_boscata_ha": 0.0144, "luogo_inizio": "strada provinciale", "squadre_aib": 1, "fine_intervento": "2017-07-15"}}, {"type": "Feature", "geometry": {"type": "MultiPolygon", "coordinates": [[[[13.291286602779353, 38.10208237708299], [13.291309224716546, 38.102062499929936], [13.291427156627153, 38.10186521719308], [13.291621065301596, 38.101649127758954], [13.291960701213887, 38.1016640129098], [13.29226535185835, 38.101558988711865], [13.292685831945828, 38.10134619555259], [13.293183930042213, 38.10104497316852], [13.293289023061913, 38.10085744552341], [13.293289255650542, 38.10084749809309], [13.293530965082386, 38.100741556075704], [13.2939766089462, 38.100529123731164], [13.294266116182563, 38.100533324238555], [13.294222809092933, 38.10077149773689], [13.293807968158836, 38.10128288016028], [13.29358680280479, 38.10158812471901], [13.293420153076346, 38.10171505799916], [13.293390149193014, 38.10203209542028], [13.29326427285643, 38.10226806856805], [13.293074918360645, 38.10264580179443], [13.292878563357991, 38.10287998975931], [13.29253404160807, 38.102800729047885], [13.292283907124013, 38.10273077710122], [13.29207768487391, 38.102696840622336], [13.291932840482776, 38.102670421723566], [13.291738318754698, 38.10261453717636], [13.291619570267798, 38.10254871398802], [13.29149050409983, 38.102445150691615], [13.291381324149148, 38.10232862198263], [13.29131688993316, 38.10221273592946], [13.291286602779353, 38.10208237708299]]], [[[13.29074707872581, 38.10294983551317], [13.290764076043127, 38.102761030188034], [13.290920462775537, 38.10253445332034], [13.291036308575945, 38.102426687982515], [13.29114210537557, 38.10220932650126], [13.291183798201915, 38.10217269814486], [13.291215081793885, 38.10225988707161], [13.291273975427035, 38.102373478391286], [13.291341931570054, 38.10245846654702], [13.291484766652916, 38.102571070818854], [13.291625583417938, 38.102650483126446], [13.291806275679864, 38.10269952417727], [13.291950666052626, 38.10274583193224], [13.292273763447284, 38.102805789667855], [13.292498893410736, 38.10286874371047], [13.292819630480762, 38.10295028579989], [13.292749897696307, 38.10303345137345], [13.292367476268026, 38.1033013705004], [13.291885863068044, 38.10330626119509], [13.291411917679467, 38.1030589965853], [13.290945704262068, 38.103072124301406], [13.29074707872581, 38.10294983551317]]]]}, "properties": {"anno": 2017, "id": 15380, "data": "2017-07-24", "localita": "Madonna Del Ponticello", "sup_ha": 3.9181, "sup_boscata_ha": 1.4036, "sup_non_boscata_ha": 2.5145, "luogo_inizio": "strada comunale", "squadre_aib": 4, "fine_intervento": "2017-07-24"}}, {"type": "Feature", "geometry": {"type": "Polygon", "coordinates": [[[13.374850418028911, 38.07518587843349], [13.374855922706978, 38.07511024192476], [13.374910806806776, 38.0750534662877], [13.374976515885951, 38.07502711493797], [13.375073201446087, 38.07498605733343], [13.375055994275252, 38.074897996521194], [13.375041939681571, 38.07484026111929], [13.375024197648811, 38.07477642232203], [13.375094206934206, 38.074728937066375], [13.375217826905196, 38.07468219219947], [13.375328757597234, 38.074689776676095], [13.375398230645928, 38.07466651414207], [13.37547502305605, 38.074658485559965], [13.375579036220987, 38.07463266974774], [13.37565925815618, 38.074642867281], [13.375732118154211, 38.07469891381839], [13.375785315370692, 38.0747989532108], [13.375888384701843, 38.07484792022542], [13.376029278890776, 38.07493603407602], [13.37609904660826, 38.0750244480813], [13.376142731545283, 38.07512801558566], [13.37625145691067, 38.07523551079506], [13.376391751522275, 38.07530104109689], [13.376577803750665, 38.07537629105449], [13.376711180986959, 38.0754084137822], [13.376828974113, 38.07545244029417], [13.37695475150281, 38.075495830790906], [13.377090350445377, 38.07558626380042], [13.377100463264128, 38.07582261374101], [13.377140251445184, 38.07592915595867], [13.37704075723992, 38.07609737054949], [13.3769241209996, 38.07617449560049], [13.37681463697653, 38.07627483758565], [13.376621333498601, 38.07636933884903], [13.376455263257743, 38.076467811838675], [13.37636654064674, 38.076442379893976], [13.376276561070936, 38.07635331455429], [13.376054416343836, 38.076177638548984], [13.375893080490536, 38.07602398605022], [13.375651780411216, 38.07584804451947], [13.375497162481107, 38.07573688537942], [13.375307680814668, 38.07564341558628], [13.375117043250787, 38.075428801353745], [13.374959208598408, 38.07529034501991], [13.374850418028911, 38.07518587843349]]]}, "properties": {"anno": 2017, "id": 18013, "data": "2017-07-24", "localita": "Scala dei Muli", "sup_ha": 2.0394, "sup_boscata_ha": 0.0, "sup_non_boscata_ha": 2.0394, "luogo_inizio": "strada comunale", "squadre_aib": 3, "fine_intervento": "2017-07-24"}}, {"type": "Feature", "geometry": {"type": "Polygon", "coordinates": [[[13.358757388248138, 38.06534142057224], [13.358712442184968, 38.065521962721895], [13.358676291428301, 38.065526415235865], [13.358622133059095, 38.065674131679096], [13.358614610401515, 38.065739545845446], [13.358537705014617, 38.065870079629406], [13.358344926188584, 38.065997216556944], [13.358198369495382, 38.066056993352625], [13.358036040178893, 38.066072393050455], [13.357892638086392, 38.06599090330457], [13.357745422324902, 38.0658298805136], [13.3576157527235, 38.06563377161322], [13.357412999800664, 38.06545871926774], [13.357208866656519, 38.06534546983453], [13.356947715702596, 38.06528441281064], [13.356679890275421, 38.06527184683726], [13.356439687303538, 38.06527290238266], [13.356161098072555, 38.06524251143679], [13.355949305217742, 38.06522189325879], [13.355753504420166, 38.06514962055773], [13.355525137403244, 38.065207130887266], [13.355295322537357, 38.0652436615267], [13.355048156478668, 38.06530643930635], [13.354763673691897, 38.065289215448516], [13.354633321984938, 38.065124004585094], [13.354602237485464, 38.064765883402515], [13.354539680743867, 38.06456628873236], [13.354493377099601, 38.06438900798777], [13.35453621689902, 38.06422180716947], [13.354650165637391, 38.06412183587164], [13.354807988432475, 38.06405780087019], [13.354961209139855, 38.06394954561139], [13.355329091078735, 38.06373390071671], [13.355532859987106, 38.063613105553365], [13.35576504744532, 38.063540111183485], [13.356088552184001, 38.06356396870742], [13.356263725203315, 38.06364981170206], [13.356432510288164, 38.063766958061144], [13.356648656787494, 38.06392014365545], [13.356808712418172, 38.06400628000031], [13.357048605989586, 38.064018464133056], [13.357271456151446, 38.064043655218335], [13.357415751434381, 38.06408541389081], [13.357554851171207, 38.06410944184278], [13.357551104714037, 38.064277190243295], [13.357677646813537, 38.06436285698972], [13.357815169286523, 38.0644575105195], [13.358030962800132, 38.06454884356632], [13.358391487654657, 38.06475142158396], [13.35861386661272, 38.06492370758801], [13.35870831199344, 38.06507487311977], [13.358757388248138, 38.06534142057224]]]}, "properties": {"anno": 2017, "id": 18097, "data": "2017-07-29", "localita": "Serra Chiarando", "sup_ha": 5.5964, "sup_boscata_ha": 0.03, "sup_non_boscata_ha": 5.5664, "luogo_inizio": "incolto e pascolo", "squadre_aib": 2, "fine_intervento": "2017-07-29"}}, {"type": "Feature", "geometry": {"type": "MultiPolygon", "coordinates": [[[[13.294291851261214, 38.19718871113747], [13.29429701290338, 38.19701761890355], [13.294414684461216, 38.19687361678814], [13.294487404478474, 38.196711716708656], [13.29451082393594, 38.19656259339208], [13.294558331615194, 38.19644922052261], [13.294641448912188, 38.196304903532656], [13.294769948627419, 38.19613764427975], [13.294903804126958, 38.1959547328422], [13.295064886462729, 38.19590539539789], [13.295216491880117, 38.19585047524908], [13.295316470460412, 38.19586072085497], [13.295435600892, 38.195765787456864], [13.295522163084385, 38.19563523105921], [13.29561305402177, 38.19555746822648], [13.295790229066922, 38.19559957938363], [13.29597286219937, 38.195646167198355], [13.296129794288479, 38.19557215089516], [13.296213210273992, 38.19550293297265], [13.296411803883961, 38.19549199339108], [13.296506387894581, 38.19549336521324], [13.296702729224055, 38.19555698460602], [13.29683461907506, 38.195641054948545], [13.296988485509807, 38.19575697577359], [13.29705641916636, 38.195855538665576], [13.297135590208857, 38.19596818574716], [13.29713285246415, 38.19608551739834], [13.297219454084612, 38.19619827222229], [13.297299584537518, 38.19626985349289], [13.29728995427001, 38.19636360980547], [13.29718245970373, 38.19650876461164], [13.297201482276915, 38.1966498800791], [13.297182506070627, 38.1968256591201], [13.297195595766693, 38.19690214165733], [13.2971547213325, 38.19705999964304], [13.297085351983101, 38.197164627818886], [13.297053159198004, 38.1972697953294], [13.297036236010374, 38.19735757290069], [13.297078916142446, 38.19744034953794], [13.297189332820823, 38.197488902136016], [13.29735921668214, 38.197538309157366], [13.297529921622296, 38.1975525211256], [13.297646546964563, 38.19762948696853], [13.297695668670052, 38.19763325974701], [13.297689356746137, 38.197693247981164], [13.297675669305793, 38.19781495818246], [13.297622697114535, 38.1978783492534], [13.297563863382466, 38.197960905068996], [13.297499258552815, 38.198058347298236], [13.297456920124171, 38.198130452694635], [13.297433305469433, 38.198213519288714], [13.297384597096478, 38.198326168490006], [13.297340472402766, 38.19847524075795], [13.297287816374723, 38.19867057310351], [13.29725887139035, 38.19867747877649], [13.297227446133231, 38.19875859904152], [13.297180706150549, 38.19886280124248], [13.297119668034972, 38.198947375881986], [13.297078855577642, 38.19900893890733], [13.297033293697, 38.1990626568576], [13.296941725015206, 38.199189522568716], [13.296929437176212, 38.19929422453868], [13.296840167019578, 38.19937623739702], [13.296686095042821, 38.19942730913507], [13.296438949089346, 38.199353584689234], [13.296342189907694, 38.199234351205575], [13.296408717815416, 38.199125899199586], [13.296446741287458, 38.19901983787274], [13.296485429766792, 38.19888572751537], [13.29651220595657, 38.19880474995721], [13.296581500269431, 38.19873000640875], [13.296696997166416, 38.19865593239971], [13.296751417232343, 38.19860902345463], [13.296788926260971, 38.19852539804762], [13.296784046476214, 38.19842993983581], [13.296832082216522, 38.19835208232106], [13.29686286774554, 38.19825152556317], [13.296883324666293, 38.198136787789316], [13.296903575075111, 38.19803046930055], [13.296866582634278, 38.19794015398268], [13.296770421420284, 38.19794718092284], [13.296737896955875, 38.198046306609875], [13.296743960532416, 38.19817280100466], [13.296731490525625, 38.19828526926867], [13.29669960221788, 38.19838580277741], [13.296653325560284, 38.19847059139022], [13.296568491852874, 38.198519855225484], [13.296483748352598, 38.19856524349606], [13.296369211139337, 38.198621853133105], [13.296279466040529, 38.198671045468735], [13.296243834466175, 38.19872103044067], [13.296197828782597, 38.19879416172378], [13.296166584457346, 38.19886751627819], [13.296145361481113, 38.19893324645433], [13.296056149810758, 38.198959141334115], [13.29596174613585, 38.198996621839804], [13.29590571838653, 38.199077383651115], [13.295839567094832, 38.19916965231201], [13.295797755343168, 38.19927392548789], [13.295756658760464, 38.19934712876262], [13.29566253635248, 38.199372959242176], [13.295645780252322, 38.19945817607867], [13.295614433325909, 38.19953540398882], [13.295534974835792, 38.199603537089324], [13.295368321142426, 38.199653352889214], [13.295337551549999, 38.19971095092641], [13.295324478389032, 38.19975687455073], [13.295251092890258, 38.19978924372307], [13.295177706165065, 38.199821613732084], [13.295038091103226, 38.19983868956595], [13.294972876584836, 38.199780428185534], [13.29500524705787, 38.199690148439586], [13.29499738318243, 38.199508535165165], [13.294891376923259, 38.199382811169095], [13.294773044024824, 38.199266463944944], [13.294720121221113, 38.199063509784494], [13.294651813621561, 38.19883904566147], [13.294522278515785, 38.19866542321971], [13.294474560189073, 38.198449617354676], [13.294435800631062, 38.19822701168816], [13.294395744297328, 38.19805989259591], [13.294390362426672, 38.19791409606073], [13.2943670699747, 38.197781921700546], [13.294353062314899, 38.19762906264714], [13.294313969558262, 38.197420326409976], [13.294291851261214, 38.19718871113747]]], [[[13.297640965302092, 38.19860367175187], [13.29762501204963, 38.19861191582811], [13.29762876157474, 38.19854785863096], [13.297630557706231, 38.19847088464013], [13.297635309165566, 38.19838327200256], [13.297640519216527, 38.19827640901967], [13.297653000315112, 38.19820601439972], [13.29767330957295, 38.198148558692104], [13.29769752259593, 38.19803983464268], [13.297748025895164, 38.19785022660137], [13.297768431667315, 38.197638858679824], [13.297803639661685, 38.19764156721556], [13.297814974064634, 38.197510997760034], [13.297876839425468, 38.19752169778689], [13.29787691555114, 38.19751842856253], [13.29792461783724, 38.197604098374626], [13.297955835847587, 38.197686257904095], [13.297995691912655, 38.19776904012396], [13.298038566111693, 38.19788404940287], [13.297977404990634, 38.19802042981401], [13.297848870639932, 38.19808125816533], [13.297942041066932, 38.198170848640814], [13.29798130611599, 38.198262936733194], [13.297948520139087, 38.19837580894855], [13.297877530524921, 38.19840092861757], [13.297778775074336, 38.198446954523426], [13.297815498662887, 38.1984703640718], [13.297855078321776, 38.19854938266296], [13.297788602640027, 38.19855822240495], [13.297718450924869, 38.19854740214961], [13.29771278304133, 38.19861268324662], [13.297713353970565, 38.198696240332936], [13.297719047992706, 38.19880744105728], [13.29765318179202, 38.19879014946788], [13.297646963412172, 38.19870181090005], [13.297640965302092, 38.19860367175187]]], [[[13.29735837674777, 38.19865375270606], [13.297327769194117, 38.198661046111305], [13.297342940629639, 38.198601457677135], [13.297371828564925, 38.1985248838963], [13.297389631764231, 38.19845883983551], [13.29743091055298, 38.19831614346275], [13.297480306835775, 38.19817356391332], [13.297536984147564, 38.19806745465771], [13.2976015391908, 38.19797214834767], [13.297660383164564, 38.19788959266157], [13.297630348347763, 38.19801533818395], [13.297589121004549, 38.19815589962369], [13.297570769250994, 38.19824545887405], [13.297558051162682, 38.19844203116795], [13.297543823637527, 38.1985872557106], [13.297549873324181, 38.19865071698151], [13.297543187819729, 38.19865417060228], [13.297443080224781, 38.19867796649577], [13.29735837674777, 38.19865375270606]]]]}, "properties": {"anno": 2017, "id": 18149, "data": "2017-08-03", "localita": "Spinasanta", "sup_ha": 9.8714, "sup_boscata_ha": 0.25, "sup_non_boscata_ha": 9.6214, "luogo_inizio": "strada comunale", "squadre_aib": 2, "fine_intervento": "2017-08-03"}}, {"type": "Feature", "geometry": {"type": "Polygon", "coordinates": [[[13.2916522631921, 38.1069835349332], [13.291646945900807, 38.10696366414661], [13.291667483549713, 38.10695356775532], [13.291686172547447, 38.106944346553504], [13.291709741683915, 38.10692352787853], [13.291730278830165, 38.106914333547024], [13.29176012847282, 38.10690288111275], [13.29179127001979, 38.10688962978362], [13.291824089055314, 38.10688706196373], [13.29186671724264, 38.10687702272979], [13.291891901011766, 38.10687129788275], [13.291915549040604, 38.106848802320734], [13.291944621893032, 38.10684161192571], [13.291965114915941, 38.106830490194085], [13.292007424015905, 38.106834149569266], [13.292031071997764, 38.10681165398271], [13.291988869262914, 38.1068034280955], [13.29195829614286, 38.10679232531881], [13.291921980268677, 38.10677961694], [13.291859046847406, 38.1067395889083], [13.291877939632597, 38.106721614800605], [13.291915831783147, 38.106720704994345], [13.291963626275164, 38.10669147548133], [13.291987559220429, 38.10669474419725], [13.291963014582473, 38.10671773950743], [13.291967232161195, 38.106734587963295], [13.292019685332287, 38.10674337474062], [13.292061705681501, 38.106737490936446], [13.292092101557609, 38.10675620425435], [13.292096379437618, 38.10673799508496], [13.29207582811343, 38.10671028877164], [13.292051140682334, 38.10669470442957], [13.292020886629574, 38.10666990300766], [13.292004047190563, 38.1066483417105], [13.291969905207672, 38.106625006732976], [13.291935515096048, 38.106612326360704], [13.291903129716724, 38.10659206919395], [13.291882231195261, 38.106577168933896], [13.29187969737085, 38.10656691724459], [13.291901962418391, 38.10656285858369], [13.291925598588083, 38.10657925945687], [13.291958565006373, 38.10659141447111], [13.291977406702017, 38.106575631266594], [13.291980740201064, 38.10655159667717], [13.292002606337391, 38.106544783606076], [13.292009496030516, 38.10657990353239], [13.292041604833413, 38.10660777700332], [13.292071610737482, 38.10664323303511], [13.292103684156773, 38.10667262806316], [13.292150849756732, 38.106715946713294], [13.292193061583054, 38.10672417267429], [13.292230701750691, 38.10676278473658], [13.29226270438085, 38.10679522467158], [13.292292710467256, 38.10683068065017], [13.292307588912276, 38.10685373548619], [13.292336022640196, 38.106873942304524], [13.29234876161307, 38.1069061021674], [13.292386153866198, 38.1069553687994], [13.292419282569666, 38.10698128431773], [13.292471987999386, 38.10699315839027], [13.292508057148874, 38.10701652123703], [13.292520760772826, 38.107050203557094], [13.292466168636576, 38.1071121093956], [13.292469214804171, 38.107147189643975], [13.292453013215587, 38.10718046710648], [13.292429071085014, 38.10721515503304], [13.292414796113704, 38.10724846860715], [13.292417654811842, 38.10729115837439], [13.29238985989348, 38.10732579839458], [13.292327041105201, 38.107373633446386], [13.292286101136993, 38.10740657467143], [13.29226375103767, 38.107418928402886], [13.292190557292168, 38.10746223102161], [13.292085430750804, 38.10749873042127], [13.291967905454834, 38.107550896637534], [13.291905059695374, 38.10758008661259], [13.291840514043235, 38.107587701986255], [13.291806619865916, 38.10755371234337], [13.29180768464168, 38.10750804896355], [13.291796694245926, 38.10748352761854], [13.29176818839516, 38.107466364699185], [13.291745959463523, 38.10742797661363], [13.29174488468698, 38.10739141825234], [13.291818964664442, 38.10735860047846], [13.291922257051441, 38.10730291021253], [13.291992664170465, 38.10724674168781], [13.292037884106739, 38.10722209685191], [13.292084648572107, 38.10719993737253], [13.292114005136035, 38.107180569850435], [13.29216203205353, 38.10718735738352], [13.29221043974982, 38.10717740205521], [13.2922359780296, 38.107156456900945], [13.292231499941252, 38.10714192700124], [13.29221273235917, 38.10712033770167], [13.292190077941667, 38.10710021487846], [13.29216942012067, 38.10707707600183], [13.292154470808871, 38.10705706429525], [13.292150372382753, 38.10702579153429], [13.29213734877964, 38.107005807823775], [13.292110592622906, 38.106996283571505], [13.292070139363759, 38.10699569629413], [13.29204295783688, 38.107004437209135], [13.292030690131845, 38.10703471141395], [13.292014711697357, 38.10705884060547], [13.292010361719052, 38.10708009470111], [13.291992457571613, 38.1071041958886], [13.29198218642093, 38.10713145404092], [13.29195332728928, 38.10712951231874], [13.291940268263735, 38.10711105106133], [13.29192699652737, 38.10710172284343], [13.291912047278139, 38.10708171110751], [13.291874088060583, 38.10705679760537], [13.291833847480614, 38.10704707810614], [13.291809160013187, 38.10703149281173], [13.291775124288442, 38.10700359125608], [13.291752433425621, 38.10698499080886], [13.291715993507038, 38.10697251306594], [13.291692940859365, 38.10697071790449], [13.2916522631921, 38.1069835349332]]]}, "properties": {"anno": 2017, "id": 18166, "data": "2017-08-08", "localita": "Madonna Del Ponticello", "sup_ha": 0.3676, "sup_boscata_ha": 0.0158, "sup_non_boscata_ha": 0.3518, "luogo_inizio": "bosco", "squadre_aib": 1, "fine_intervento": "2017-08-08"}}, {"type": "Feature", "geometry": {"type": "Polygon", "coordinates": [[[13.290825112233158, 38.10492689446118], [13.290791320404741, 38.10482036394325], [13.29084072679535, 38.10472364301868], [13.290947681002086, 38.104647815960604], [13.29105067446855, 38.10458626440708], [13.291195561702061, 38.104594103664354], [13.291293659019608, 38.10458692890977], [13.291374158017343, 38.104556574847], [13.291451345115457, 38.10450717032921], [13.291614728349735, 38.10450562107022], [13.291729055566238, 38.104550358208954], [13.291852992384404, 38.10454726439543], [13.291947121686816, 38.104494796787165], [13.292092271624254, 38.10447959744935], [13.29220051259704, 38.10451805364998], [13.292312305438301, 38.104531516761476], [13.292407442903249, 38.104495641499604], [13.292479419724401, 38.10451961103712], [13.2925541165242, 38.104504933414276], [13.292635521712947, 38.10451327830558], [13.292733017327103, 38.10453189341385], [13.292834006436484, 38.10455628439417], [13.2929448250286, 38.10454786386841], [13.293044696905183, 38.10454215171578], [13.29314608609735, 38.104549356476305], [13.293233371052162, 38.10453915724467], [13.293331657929194, 38.104523384501064], [13.293387046256774, 38.104481205743525], [13.293481849986218, 38.10445964897602], [13.293586789984868, 38.10446977158604], [13.293702685778849, 38.10447718659687], [13.29378487540587, 38.10452996203795], [13.293882905615762, 38.10452565889842], [13.293984085989374, 38.10454145173136], [13.294048019526095, 38.10459969514322], [13.29415790401996, 38.10463138484548], [13.29426244356594, 38.10465869190598], [13.294382022801365, 38.10466329308955], [13.294476293395382, 38.10466466095017], [13.29456693734809, 38.10466597518123], [13.294661006919458, 38.10467593991481], [13.29478394640639, 38.10469205515725], [13.294845121099726, 38.104713000697316], [13.294902859714211, 38.10472530450013], [13.295022116483757, 38.10474422547505], [13.295126789579037, 38.104765808525215], [13.295220660890294, 38.10478436086299], [13.295329093975466, 38.104800265909105], [13.295411694858883, 38.10483585442034], [13.295502529723105, 38.10482857166195], [13.295557488197057, 38.104827666792204], [13.295602869332278, 38.104834003581395], [13.29561928384044, 38.10484938964606], [13.295662707312196, 38.10483675885316], [13.295695845360957, 38.10485428272525], [13.29572912347791, 38.1048661230889], [13.295767179628198, 38.10487803997303], [13.295819974875378, 38.104875013764705], [13.295871969221961, 38.10490606386946], [13.295910464176403, 38.10489904791827], [13.295943831380585, 38.104907105467774], [13.295969872604374, 38.10492073595766], [13.296015209822063, 38.104928967128295], [13.296045685409796, 38.10495781072728], [13.296071373723821, 38.10498658397535], [13.296109263394692, 38.10500606462439], [13.296142620389201, 38.105014122870976], [13.296190488367074, 38.105016711459676], [13.296216089855065, 38.10504927467269], [13.29622975412006, 38.10507976235414], [13.29622182155496, 38.10511183917597], [13.296230567589335, 38.10514794195431], [13.296222767050695, 38.105174335159305], [13.296270415399366, 38.10518638289888], [13.296281681885755, 38.10521684300637], [13.296300318388537, 38.105239835604614], [13.29633603030136, 38.10524982312913], [13.296344864465139, 38.10528213502033], [13.296389982040862, 38.10529983334132], [13.296442063825866, 38.105327093209034], [13.296496853290831, 38.10534114049935], [13.296554073062948, 38.10535332692898], [13.296604163083616, 38.10536352197439], [13.296658423922246, 38.105400283824416], [13.296708944570529, 38.105391545914344], [13.296749144270553, 38.105414851110424], [13.296779487383429, 38.10544937092251], [13.296831526546805, 38.10547852607948], [13.296893586788787, 38.10548889455958], [13.296948287341198, 38.105506730706026], [13.296990700095385, 38.10553763419545], [13.29705808545771, 38.105525357490535], [13.297113005879094, 38.10553372717022], [13.297185000514277, 38.10552909071123], [13.297248669991903, 38.1055371059257], [13.297246226047882, 38.105575415621985], [13.297209371088965, 38.10561464766089], [13.297172648053532, 38.10564819606833], [13.29715473651853, 38.1056971659657], [13.297215269131971, 38.1057217128944], [13.29725746234102, 38.105762082683896], [13.297304468886376, 38.10577252021231], [13.297352441024014, 38.10579943353565], [13.297394809948184, 38.10583223953327], [13.297415273499206, 38.10587986870742], [13.2974701942317, 38.10588823822685], [13.297515356463082, 38.10590404068827], [13.297543268737826, 38.105940420251606], [13.29755937634731, 38.1059690552245], [13.297575526827725, 38.10599579473809], [13.29760622321146, 38.10601517155887], [13.297641495269197, 38.10604408336058], [13.297710663675822, 38.1060583375717], [13.297772373056615, 38.10608384930873], [13.29781234369327, 38.10611661229271], [13.297804148146426, 38.106160043857685], [13.29780796679774, 38.10620175344055], [13.297811928603076, 38.10623778677531], [13.297794194237891, 38.10627918403401], [13.297778979038256, 38.10631493947314], [13.297787902850473, 38.106343470312744], [13.297775140726104, 38.106377365220276], [13.297774260871027, 38.10641522357076], [13.297783139578746, 38.1064456489339], [13.297779993966026, 38.10647778801802], [13.297767222670325, 38.106511683692], [13.297751973692124, 38.10654933381339], [13.297744129554662, 38.10657762166268], [13.297726605481342, 38.106609560488785], [13.29770648236473, 38.10665092401477], [13.297698892805624, 38.10666784989438], [13.297658042194955, 38.106672937107504], [13.297624024049522, 38.106693272126016], [13.29758547404927, 38.10670218300939], [13.297541916998716, 38.10672048458026], [13.297497876427713, 38.1067596134571], [13.297442911060102, 38.1067531384758], [13.297371047037105, 38.10675209775183], [13.297306499002218, 38.10674547659915], [13.297256021463728, 38.10675232020468], [13.29720260854168, 38.1067818435337], [13.29713997458653, 38.10679608526657], [13.29709180691538, 38.10680674452947], [13.29702503679232, 38.106792524719445], [13.296982008001748, 38.10678811865219], [13.296956097937485, 38.106768803852894], [13.296891242103005, 38.106775437939135], [13.296831754146533, 38.10675754045781], [13.296776745018757, 38.106752952497985], [13.296726355268953, 38.106756014003956], [13.296661763299596, 38.106751287036936], [13.296616468717236, 38.106741168758326], [13.296547310169835, 38.10672691404293], [13.296475445065871, 38.10672587275527], [13.29641541953823, 38.10673068145238], [13.29634621720086, 38.10671831395115], [13.29629453366331, 38.10669836926657], [13.296233854162693, 38.10670722368547], [13.296168998311728, 38.10671385827351], [13.296114077135952, 38.10670548813558], [13.296064391271836, 38.10667825476453], [13.296002637818955, 38.10665464478065], [13.295960215933746, 38.10662373269441], [13.295931962595452, 38.10660249661228], [13.295877305356017, 38.10658277265112], [13.295834848642222, 38.10655375609263], [13.295792602839349, 38.10651527210271], [13.29574663044673, 38.10648947488056], [13.295719318197767, 38.106472555525], [13.295669095646511, 38.10646803649549], [13.295631391587083, 38.10644098399781], [13.295590398782965, 38.10645174764978], [13.29556871362174, 38.10645711943086], [13.295522411845548, 38.106460270378], [13.295480345104204, 38.10649231143338], [13.295445305360563, 38.10650834228769], [13.295396979299607, 38.10652375316974], [13.29535854457152, 38.10652980735879], [13.295315339104311, 38.10653296440608], [13.295281484166212, 38.10654036560579], [13.295252587044539, 38.106530741605546], [13.295224020802408, 38.10650732537106], [13.29517797996489, 38.10648364740557], [13.29511987395904, 38.10647820627063], [13.295067703398317, 38.106468243534806], [13.294992132880695, 38.106462548850665], [13.294933384271939, 38.10648469956339], [13.294868925392404, 38.10650217585652], [13.294805215274756, 38.10648744768774], [13.294765918109261, 38.10645873254657], [13.294771541735923, 38.106422838274014], [13.294847996762872, 38.10640064187671], [13.294782102278173, 38.10635561593835], [13.294744146183467, 38.10638331955554], [13.294689242346449, 38.10640463199266], [13.294626678595856, 38.10635458880269], [13.294478370583196, 38.10626964979483], [13.294427312534188, 38.10624442346355], [13.294407413637517, 38.10621148397157], [13.294324674762192, 38.1061247527235], [13.294183402963217, 38.10607376284478], [13.294048446162368, 38.10601797652269], [13.294001418338176, 38.10590962444352], [13.293979612756278, 38.10578206057937], [13.293856917851228, 38.1057313392113], [13.29371463070621, 38.105724380883096], [13.293555240503025, 38.10565355710051], [13.293432546120043, 38.105602835300076], [13.293334855486584, 38.10554268806253], [13.293160461195566, 38.10558420372769], [13.293043844171509, 38.10553846412532], [13.293039362522109, 38.10546498727854], [13.292891454601454, 38.105433474804535], [13.292837553431264, 38.105354394458445], [13.292808076427763, 38.1052903429294], [13.292659704254808, 38.10527840059945], [13.292523724029286, 38.1052666373087], [13.29242522697458, 38.105240736762845], [13.29237574038083, 38.10515576900511], [13.292271991141817, 38.105094081020894], [13.292168777079109, 38.10500946666121], [13.292066540982823, 38.10495167646105], [13.29194270830442, 38.10494987771316], [13.291828520351602, 38.1050656695413], [13.29167901837694, 38.10510265069053], [13.291564637425898, 38.10509812956153], [13.291466214794607, 38.10511963212949], [13.291270754294239, 38.10510245941295], [13.291111492835233, 38.10508867873806], [13.291039716284805, 38.10505611043985], [13.290936303193424, 38.10498010106102], [13.290825112233158, 38.10492689446118]]]}, "properties": {"anno": 2017, "id": 18187, "data": "2017-08-09", "localita": "Madonna Del Ponticello", "sup_ha": 7.6281, "sup_boscata_ha": 1.8772, "sup_non_boscata_ha": 5.7509, "luogo_inizio": "bosco", "squadre_aib": 5, "fine_intervento": "2017-08-09"}}]}