{"type": "FeatureCollection", "features": [{"type": "Feature", "geometry": {"type": "Polygon", "coordinates": [[[13.342044273960596, 38.06412532095818], [13.342024466783919, 38.06330945568482], [13.342445273359004, 38.06328518429673], [13.34270242896867, 38.06374190750843], [13.34295753599736, 38.064289221212974], [13.343025762965855, 38.064652661261164], [13.343282236334822, 38.065139585914324], [13.343653988287896, 38.06559792171758], [13.343950702091517, 38.06599478316675], [13.3440503262888, 38.06666073629282], [13.34415947235025, 38.06690392088473], [13.344376408114853, 38.06745070164757], [13.344699787936289, 38.06836145124052], [13.344858751073138, 38.06893761140704], [13.344178007681501, 38.068625963989604], [13.343693018821034, 38.0681056199499], [13.343093438461192, 38.06758365817881], [13.34249319522898, 38.06709189637127], [13.34238881850997, 38.066637326309774], [13.342096868747156, 38.066029076955395], [13.342087985632595, 38.065575852946274], [13.342144559474644, 38.06476107269746], [13.342044273960596, 38.06412532095818]]]}, "properties": {"anno": 2011, "id": 2124, "data": "2011-03-11", "localita": "Monte Starrabba", "sup_ha": 6.3652, "sup_boscata_ha": 0.3036, "sup_non_boscata_ha": 6.0616, "luogo_inizio": "colture agrarie", "squadre_aib": 0, "fine_intervento": "2011-03-11"}}, {"type": "Feature", "geometry": {"type": "Polygon", "coordinates": [[[13.316426386119394, 38.223661638934445], [13.316318590142902, 38.22368237366589], [13.316171158565574, 38.2237069985457], [13.316016456450791, 38.2237304077732], [13.315874160573836, 38.2237773782288], [13.315743153898769, 38.223824517745236], [13.315584532844632, 38.22384452233129], [13.315474818239787, 38.223843025879276], [13.315333746877522, 38.22383654362359], [13.315176052814145, 38.22381646099672], [13.315024626045446, 38.223769729729426], [13.314846005817078, 38.22367686021904], [13.314694374018003, 38.22363903538627], [13.314735545777358, 38.223568328413684], [13.314651259358028, 38.223549298356986], [13.314566757127649, 38.223539175843456], [13.314499038313429, 38.22350588751181], [13.31441506049213, 38.22347349296086], [13.314321235123717, 38.22337856845957], [13.314197518231246, 38.223354513625026], [13.314126892661799, 38.223233183825066], [13.314027623149595, 38.22312927198024], [13.314028933816198, 38.22298615092753], [13.314063950373958, 38.22293763611826], [13.3141595276108, 38.22295682879197], [13.31419402864716, 38.22293059320827], [13.314217331736133, 38.222899737797846], [13.314178735248825, 38.222859075268204], [13.314157596112954, 38.22279638495262], [13.314142715124165, 38.22270705332648], [13.313996932613867, 38.222660400933066], [13.313906893174778, 38.22264573944283], [13.313848432281931, 38.222541775744716], [13.313962341545434, 38.222472525052645], [13.314275078249054, 38.22254790062694], [13.314498000001018, 38.22262197820826], [13.314832363340566, 38.222733101174505], [13.315075283762871, 38.2229137895176], [13.315298606808582, 38.222970158983266], [13.315592986633591, 38.22286805643321], [13.31581753791793, 38.222871276596614], [13.316088644344278, 38.22280427884082], [13.316290332611484, 38.222824897719704], [13.31644874950627, 38.22277400184186], [13.316651254587608, 38.22275918454576], [13.31681130752044, 38.22263743421645], [13.316880305559039, 38.22256754460698], [13.31697135877812, 38.22251568363763], [13.317045477879288, 38.22248712535136], [13.317026723395688, 38.222601275348744], [13.317015883331567, 38.22272190196072], [13.316955827850201, 38.22287995818594], [13.316904706061306, 38.22300000796163], [13.316861353566239, 38.223132877353365], [13.31685871169366, 38.223247259306156], [13.316843274886216, 38.223288908664784], [13.316471292241216, 38.22334219708842], [13.316470468836954, 38.2233433270501], [13.316469698507872, 38.22334339349901], [13.31634008701825, 38.22337332346431], [13.316337884981175, 38.22346864038043], [13.316344323217022, 38.223538655830794], [13.316341748366403, 38.223551637998455], [13.31634156316858, 38.22358226588928], [13.316343658576168, 38.22358274653411], [13.316358368397438, 38.22362165173561], [13.316536615302653, 38.22359907635828], [13.316720119915443, 38.2235666561167], [13.316978566156791, 38.22352009064864], [13.316967240812255, 38.223460415379655], [13.317039525098622, 38.2234440037134], [13.317107590609808, 38.22343161016914], [13.317170014800144, 38.22341913478731], [13.317171682783897, 38.22341600463357], [13.317348187363232, 38.22336648617302], [13.317357122427603, 38.22336164256846], [13.317387552133464, 38.2233577280612], [13.317347307981759, 38.22338834120115], [13.317256033947029, 38.223427141420714], [13.317187248850653, 38.22347071490679], [13.317090128032767, 38.223518341858224], [13.316976569174859, 38.22354344450018], [13.316845770014103, 38.22358167843216], [13.316715805794288, 38.223603407667596], [13.316627939805343, 38.223626750856575], [13.31648897499131, 38.22365397579069], [13.316426386119394, 38.223661638934445]]]}, "properties": {"anno": 2011, "id": 2160, "data": "2011-06-03", "localita": "Capo Gallo", "sup_ha": 2.3875, "sup_boscata_ha": 0.0, "sup_non_boscata_ha": 2.3875, "luogo_inizio": "altro", "squadre_aib": 0, "fine_intervento": "2011-06-03"}}, {"type": "Feature", "geometry": {"type": "Polygon", "coordinates": [[[13.31601494257049, 38.22386710065449], [13.315987275326851, 38.223814120740926], [13.31605884466233, 38.22379411009146], [13.316297877562079, 38.223737945926466], [13.316670877386956, 38.22365390333818], [13.316791466110166, 38.22362757981994], [13.316923208496505, 38.223599675998315], [13.317028212091463, 38.22357488507695], [13.31712868446409, 38.223553540915844], [13.317194024873906, 38.223514158945406], [13.317293131767073, 38.22345598883499], [13.317369424065797, 38.22342377846114], [13.317484156034244, 38.22336232038801], [13.317596470613863, 38.22330958955825], [13.317674897338538, 38.223280914208], [13.317722064472898, 38.22325880535066], [13.317773558430178, 38.22324201769008], [13.317828927458457, 38.22324981703247], [13.317890191716835, 38.22329101236767], [13.317917852159418, 38.22334399265071], [13.317942946210744, 38.22337200725004], [13.317874614498225, 38.223422003927894], [13.317801282055285, 38.22351199822311], [13.317656283607219, 38.22360866463504], [13.317651278511278, 38.2236919937754], [13.317607943712979, 38.22378699319095], [13.31752460892368, 38.22391865338918], [13.317244616989349, 38.22406198353292], [13.316959625008534, 38.22415698488083], [13.316827967617643, 38.22403365579285], [13.316757965463625, 38.22405699125293], [13.316637977406431, 38.22402699431935], [13.316507975734957, 38.224033660731955], [13.31634631905765, 38.22408533293658], [13.316144812697873, 38.22401619629596], [13.316112340507408, 38.22397892413446], [13.316069492276807, 38.22390994883584], [13.31601494257049, 38.22386710065449]]]}, "properties": {"anno": 2011, "id": 2240, "data": "2011-06-11", "localita": "Capo  Gallo", "sup_ha": 0.7518, "sup_boscata_ha": 0.0, "sup_non_boscata_ha": 0.7518, "luogo_inizio": "altro", "squadre_aib": 1, "fine_intervento": "2011-06-11"}}, {"type": "Feature", "geometry": {"type": "Polygon", "coordinates": [[[13.390324139248357, 38.07122181344394], [13.390518188239888, 38.07070443355551], [13.391178982348512, 38.07056901778956], [13.39191852088051, 38.07017466093683], [13.392581194219282, 38.06995258884133], [13.392516964766484, 38.06954723294648], [13.392268799921949, 38.06919715317275], [13.392385665818532, 38.06886650454527], [13.392136883010517, 38.06854530018225], [13.392188574490456, 38.067852623671556], [13.39273909907199, 38.06774458226905], [13.393392911498768, 38.067926862422695], [13.393653381403835, 38.06771373850492], [13.393989125974295, 38.067400518931905], [13.394248635833142, 38.067230722548196], [13.394613971524734, 38.06723570886223], [13.39479096501651, 38.06749813838666], [13.394894892579664, 38.06775957863538], [13.394780245834045, 38.067989144483114], [13.394698350574856, 38.068392496873294], [13.395132338228672, 38.06860065820442], [13.39512035986419, 38.06914942170281], [13.395040986201025, 38.069437252231], [13.39496035070307, 38.0697828391785], [13.394663036248401, 38.07000991227986], [13.394725386271103, 38.070501907388106], [13.394746156093648, 38.07122446530769], [13.394593706604688, 38.07151129708134], [13.394221409218252, 38.07182401131593], [13.39402989686724, 38.07222587479522], [13.393875559871633, 38.07259934570003], [13.393541684753753, 38.07282591688977], [13.392991122867707, 38.072933960236576], [13.392445603131128, 38.07281094099813], [13.392196797070703, 38.07248973562342], [13.391837131815583, 38.07222480516122], [13.391440290289966, 38.07198824883179], [13.391007558482839, 38.07172230838534], [13.390574819398857, 38.07145637437137], [13.390324139248357, 38.07122181344394]]]}, "properties": {"anno": 2011, "id": 2202, "data": "2011-06-27", "localita": "Ciaculli - Monte", "sup_ha": 14.7377, "sup_boscata_ha": 0.0, "sup_non_boscata_ha": 6.8989, "luogo_inizio": "incolto e pascolo", "squadre_aib": 2, "fine_intervento": "2011-06-27"}}, {"type": "Feature", "geometry": {"type": "Polygon", "coordinates": [[[13.381815833664366, 38.08358396206268], [13.381879148368272, 38.0832724598444], [13.382086021818056, 38.08285138515413], [13.382486497735997, 38.082611462611624], [13.382885006694448, 38.082460756507786], [13.38341333305484, 38.082825007471], [13.383271257114567, 38.082867684926335], [13.383098006851494, 38.08304379244412], [13.383434191988774, 38.0831599777366], [13.383799097208957, 38.08325423825762], [13.383709034141992, 38.083498432283804], [13.383363524157915, 38.08380605570492], [13.383018010286165, 38.084113670806055], [13.38318144829618, 38.0843836600792], [13.38309089032713, 38.08465015751678], [13.38278340936124, 38.08451206275866], [13.38219716304054, 38.08421393745982], [13.382004046611177, 38.084010472250746], [13.381815833664366, 38.08358396206268]]]}, "properties": {"anno": 2011, "id": 2291, "data": "2011-07-08", "localita": "S. Maria Di Gesù", "sup_ha": 2.4107, "sup_boscata_ha": 0.2809, "sup_non_boscata_ha": -0.0001, "luogo_inizio": "incolto e pascolo", "squadre_aib": 1, "fine_intervento": "2011-07-08"}}, {"type": "Feature", "geometry": {"type": "Polygon", "coordinates": [[[13.385243219845712, 38.084657317555575], [13.385230191493712, 38.0844665691321], [13.385435901243982, 38.08451023272411], [13.385691162619128, 38.08464985697991], [13.385552528124592, 38.08468878593084], [13.385344135947685, 38.084767602534235], [13.385243219845712, 38.084657317555575]]]}, "properties": {"anno": 2011, "id": 2290, "data": "2011-07-10", "localita": "Sferrovecchio", "sup_ha": 0.0732, "sup_boscata_ha": 0.0, "sup_non_boscata_ha": 0.0732, "luogo_inizio": "incolto e pascolo", "squadre_aib": 1, "fine_intervento": "2011-07-10"}}, {"type": "Feature", "geometry": {"type": "Polygon", "coordinates": [[[13.349657735973793, 38.07333876062728], [13.349651477646194, 38.07323755759421], [13.349693141838863, 38.07290109832926], [13.349697982652316, 38.07268545786273], [13.34981762637093, 38.07267365100252], [13.349971370162953, 38.072662330087915], [13.350092537068653, 38.072583136340015], [13.350213391687216, 38.07251742436494], [13.350402444373156, 38.07245266069638], [13.350383575279523, 38.07253328917857], [13.350428981983393, 38.07279008496255], [13.3505428813472, 38.07303435594049], [13.350623587921206, 38.07323771734447], [13.350584044698474, 38.07347983518381], [13.350527759161743, 38.0737082406993], [13.35049003087574, 38.07386949059407], [13.350326396107636, 38.07394134580091], [13.350157419515874, 38.073871568916616], [13.350109289951558, 38.073736070836084], [13.350025860721836, 38.07365401497675], [13.34994333928902, 38.07353152016673], [13.349756402783997, 38.073501932228005], [13.349657735973793, 38.07333876062728]]]}, "properties": {"anno": 2011, "id": 2300, "data": "2011-07-13", "localita": "Casuzze\\Vallegiorgia", "sup_ha": 0.9289, "sup_boscata_ha": 0.6964, "sup_non_boscata_ha": 0.2325, "luogo_inizio": "incolto e pascolo", "squadre_aib": 1, "fine_intervento": "2011-07-13"}}, {"type": "Feature", "geometry": {"type": "Polygon", "coordinates": [[[13.366423762201755, 38.153839913045026], [13.36645682236697, 38.15378952846773], [13.366540863110952, 38.15381089390852], [13.36662662641843, 38.15388104693631], [13.366769908809957, 38.15398265264974], [13.36689345443568, 38.15409930373101], [13.36705768240067, 38.15413223139179], [13.367183102071348, 38.15416462818959], [13.367357378748672, 38.15418237602716], [13.367492848527805, 38.15419957777394], [13.367571312093343, 38.15416236131329], [13.367639383498537, 38.15415563860977], [13.367746264103548, 38.15414946346239], [13.367842934613776, 38.15416613356875], [13.368017849930963, 38.15416148509537], [13.368009296874904, 38.154243625829494], [13.368013525443635, 38.1543551306884], [13.368024649022896, 38.1544587766698], [13.368035842097436, 38.154559766939414], [13.368051668620204, 38.15475369258701], [13.368043885238858, 38.154801353196476], [13.368046418598581, 38.15483853679864], [13.368113365637088, 38.1548500777101], [13.368164945270353, 38.15479772051431], [13.368265614041679, 38.15479265443867], [13.368283981882897, 38.15483889053247], [13.3682819298138, 38.154930809291386], [13.36825128820521, 38.15499934438754], [13.368258257822232, 38.155122043011424], [13.36839150566581, 38.15523882735888], [13.368447998651641, 38.15531623957125], [13.368483890712199, 38.155446999169875], [13.36854889510013, 38.15557816234867], [13.368604704656772, 38.155686211375084], [13.368651330701194, 38.1557711464199], [13.368747822697342, 38.155795472434875], [13.36883530066433, 38.15578901955585], [13.368931460500963, 38.15582866805452], [13.368996679802251, 38.15592641375877], [13.369018478493503, 38.1560036709049], [13.369029782149633, 38.15609935646482], [13.369051699275714, 38.15617130099757], [13.36906295295379, 38.15626964253305], [13.369071671789587, 38.15633079235891], [13.369086566274728, 38.156415916406125], [13.369091043105742, 38.156516812371756], [13.36911589982793, 38.15660738002339], [13.369127331135505, 38.15669775399042], [13.369138142880374, 38.15678550863552], [13.369146653262543, 38.15683926769421], [13.369165262232078, 38.15688005396165], [13.369281443536869, 38.15688711156909], [13.369343085218615, 38.15689313319066], [13.369417431644672, 38.15688133917789], [13.369972097701975, 38.156867358986105], [13.36996425519571, 38.156917667459545], [13.369435800877016, 38.15692756699579], [13.369281847405478, 38.156926775346534], [13.369167559858298, 38.15692784653844], [13.369160072422831, 38.15696224236642], [13.36913888301933, 38.15700972404757], [13.369163769787795, 38.15709762010679], [13.36915497990893, 38.157190377094025], [13.36914690045679, 38.157251294493065], [13.369138633401501, 38.15732017119783], [13.369126903980021, 38.157394305950326], [13.369111623345635, 38.15747635418951], [13.369023823375882, 38.157482570278766], [13.368954188910916, 38.157481603915826], [13.368875676323993, 38.15748738927188], [13.368834916699356, 38.15736305699426], [13.368846691342727, 38.15722569531336], [13.368796450196555, 38.15713561396913], [13.368692909553234, 38.157092918661476], [13.368668945279149, 38.15699632723525], [13.368601756535414, 38.156885377865805], [13.368534414822253, 38.156781301423706], [13.368404291771117, 38.15675886990009], [13.368299677099957, 38.156764293074644], [13.368213535720042, 38.156721839134015], [13.368119161122479, 38.156658645432984], [13.368032108511597, 38.15665743645246], [13.367996053790304, 38.15671194417392], [13.367891284799844, 38.15672423993075], [13.367783661507403, 38.156693939563986], [13.367698821837637, 38.156597217250685], [13.367590184669599, 38.1564687255227], [13.36742668861435, 38.15620687245389], [13.367365057506678, 38.15610399311078], [13.367237595272785, 38.15592425513084], [13.36717561013338, 38.15584034147514], [13.367093893435674, 38.15572725529749], [13.366982235407225, 38.15556892893705], [13.366917246287617, 38.15545393857924], [13.366777261105037, 38.155252282293155], [13.36674442062762, 38.15520521474444], [13.36671501669512, 38.15516765826458], [13.366723934015614, 38.155132287579335], [13.36672675856151, 38.15509351580793], [13.366804675528694, 38.155065412201715], [13.366813171957803, 38.15498592746565], [13.366838525499817, 38.15490401961229], [13.366846606698305, 38.15484309517904], [13.36681804998401, 38.15461714918937], [13.366946667086273, 38.154576481691436], [13.367085109236996, 38.154546562062905], [13.367154020736404, 38.154470565100276], [13.36682847004641, 38.15430152199476], [13.36669858284891, 38.15413490960273], [13.366622516949661, 38.154064891521976], [13.366517690613405, 38.153979147856454], [13.366471069282607, 38.153894212036924], [13.366423762201755, 38.153839913045026]]]}, "properties": {"anno": 2011, "id": 2522, "data": "2011-07-15", "localita": "Arenella", "sup_ha": 4.0347, "sup_boscata_ha": 0.0001, "sup_non_boscata_ha": 4.0346, "luogo_inizio": "altro", "squadre_aib": 2, "fine_intervento": "2011-07-16"}}, {"type": "Feature", "geometry": {"type": "Polygon", "coordinates": [[[13.320466464219276, 38.214699909833044], [13.320703001279304, 38.214854968873404], [13.320691137648856, 38.2148728837007], [13.32065600647585, 38.21490493920078], [13.32061595576795, 38.21495140331429], [13.320582826354855, 38.21499614880679], [13.320577447312429, 38.2150304467787], [13.320592658733178, 38.215066841729254], [13.320599087285292, 38.215072448851735], [13.320564871520315, 38.215130610658996], [13.320558201297848, 38.2151572771089], [13.320524862054198, 38.21524060566897], [13.320613188640857, 38.21543059974532], [13.320638471479711, 38.215459774486185], [13.32061220657979, 38.21551212221125], [13.320691790055626, 38.215521300299024], [13.320743180573384, 38.21558059334886], [13.320799331732351, 38.21574996061872], [13.320906241806712, 38.21572481306941], [13.320923155018388, 38.21586558363859], [13.320956484683096, 38.215978910687866], [13.320871485689336, 38.21606890420676], [13.320836478247985, 38.21614390383797], [13.320689814503414, 38.21622390232756], [13.32068421968034, 38.216244082262094], [13.32067000109078, 38.21624840805944], [13.320669293445546, 38.216297921456864], [13.320664160636744, 38.21631643724128], [13.320698138504417, 38.2164772307805], [13.320623135524617, 38.2166188930477], [13.320491465282124, 38.21684388518048], [13.320404793350038, 38.21693721663981], [13.320358119721572, 38.21711720967969], [13.320361447134554, 38.21726553947247], [13.320173580936086, 38.217259302674485], [13.320152585114153, 38.217157734648275], [13.320131377551958, 38.21706537619459], [13.320156402585685, 38.21699208219809], [13.320099767997156, 38.21691762112543], [13.319949829144369, 38.21684183246955], [13.319824058904201, 38.21672955993296], [13.319745580602076, 38.21659034726606], [13.319594997421607, 38.21654216603512], [13.319397121915648, 38.21652091547046], [13.319200519078281, 38.21644445851819], [13.319110166440936, 38.21631428076834], [13.31897337992399, 38.216174233350266], [13.319087025478165, 38.21602609474168], [13.319327867370646, 38.215904338882176], [13.319450456650753, 38.21574959177747], [13.319060342766681, 38.21546230606543], [13.318745228013759, 38.215363892674425], [13.318431566007105, 38.215202901639536], [13.318197933366573, 38.21501174927482], [13.31800180332743, 38.214915037127724], [13.317928252747677, 38.21466358709822], [13.317936193844426, 38.21431939281536], [13.31798307882394, 38.21400706223524], [13.318029231753053, 38.21372601228144], [13.318035727820513, 38.21344440206953], [13.317965788585493, 38.21303649571629], [13.317968675925048, 38.21291133461409], [13.318324888297683, 38.21294773407092], [13.318761125217947, 38.21295397867381], [13.319040902330535, 38.212864087492896], [13.319401432624698, 38.21271274627039], [13.319716537188077, 38.21281115049013], [13.320028038038137, 38.21306601038381], [13.320302047626756, 38.21322643054926], [13.320497455980089, 38.21335442690968], [13.320610660291845, 38.21360645008896], [13.320406601418798, 38.21385393673492], [13.320434004631332, 38.21438643637292], [13.320349645787964, 38.214604335681095], [13.320466464219276, 38.214699909833044]]]}, "properties": {"anno": 2011, "id": 2490, "data": "2011-07-25", "localita": "Fossa del Gallo", "sup_ha": 7.9092, "sup_boscata_ha": 0.0, "sup_non_boscata_ha": 7.9092, "luogo_inizio": "incolto e pascolo", "squadre_aib": 1, "fine_intervento": "2011-07-25"}}, {"type": "Feature", "geometry": {"type": "Polygon", "coordinates": [[[13.302655328599887, 38.2141936616937], [13.3026076282825, 38.21444598692425], [13.302559918489829, 38.21469831108431], [13.30246715228199, 38.21482712882745], [13.302598325655428, 38.215066386179224], [13.302699656112345, 38.21541310534781], [13.302695136148891, 38.21560724784577], [13.30247088163312, 38.21584136799872], [13.302245129681456, 38.21614019928176], [13.301858572765532, 38.21635916193435], [13.301720480774305, 38.21624614042275], [13.301578159137195, 38.21602731597966], [13.301369698721208, 38.215770533249284], [13.301196265859456, 38.215736299240085], [13.30096439246864, 38.21562192019537], [13.300740076100407, 38.21547064205816], [13.300575195576512, 38.21535723133396], [13.300430527951308, 38.21523882327488], [13.300271355878193, 38.215167785472], [13.300091838405748, 38.215107033314325], [13.300001752062094, 38.21494712373516], [13.299897038100495, 38.214839866207605], [13.299886845915987, 38.2147022578684], [13.299723436584994, 38.2145254235983], [13.299366757585359, 38.21430349165378], [13.299147795274976, 38.21421044103557], [13.299033914231654, 38.21420879234923], [13.298901176976209, 38.214154006219516], [13.298762478516618, 38.21406739997725], [13.298569445026716, 38.214011740314284], [13.298343534914274, 38.213929159924085], [13.298038111992046, 38.21380841887789], [13.29776079369385, 38.2137753235586], [13.297586873542212, 38.213762229284306], [13.297467155371821, 38.21372348545555], [13.297355866456837, 38.213610847688855], [13.297218403763294, 38.21347139445437], [13.297074733304044, 38.21331069708846], [13.296990000619717, 38.213209016753005], [13.296954370145352, 38.21301288610013], [13.296889083140679, 38.21265242877096], [13.296881611934506, 38.212398544760795], [13.296736709750778, 38.21229070123626], [13.296528558554645, 38.212308835867795], [13.296359863391022, 38.21235925210394], [13.296191281833867, 38.212404395237975], [13.295913895929973, 38.21223118452136], [13.295610204692455, 38.21203644535297], [13.294966851908072, 38.211466692567015], [13.294795410712803, 38.21134788866804], [13.294717251892342, 38.21125159204812], [13.29470682302716, 38.211124553179], [13.294670829572372, 38.21094427161882], [13.294674289296138, 38.21079628875938], [13.294738404921407, 38.2106333231558], [13.294775975681704, 38.21045940028877], [13.29472634978525, 38.210289493100646], [13.294708229738783, 38.21020464125149], [13.294670011588872, 38.21011949646805], [13.294638372290903, 38.21003973078519], [13.294573250108963, 38.209959485764465], [13.294393750510377, 38.20989871804249], [13.294294260638061, 38.2098549823741], [13.294203450691134, 38.209726775199215], [13.294173296166955, 38.20958358729227], [13.294116104006779, 38.20945058604256], [13.294078638791191, 38.20933372656447], [13.294230815608294, 38.209129742363515], [13.294348025150201, 38.20898870157874], [13.294464987705874, 38.2088582223175], [13.294541877518265, 38.20872187891687], [13.294606742897228, 38.20852720597147], [13.294680142919095, 38.2082533510169], [13.294710526340758, 38.20810046856051], [13.29467255583384, 38.20800475581124], [13.294641041939746, 38.20791970120329], [13.2945279224601, 38.20788634014794], [13.294413804849519, 38.20789525607309], [13.29431357635772, 38.20788322794254], [13.294268420345032, 38.207808555533006], [13.294237152599816, 38.207712931047226], [13.294206380470975, 38.20759617697006], [13.294155397044939, 38.20748440363601], [13.29411073603783, 38.20738859346284], [13.294065703997262, 38.207308632045994], [13.293959391578172, 38.20727007956226], [13.293866361657408, 38.207237009897405], [13.29377431913703, 38.2071616566105], [13.29371601648315, 38.20707622041973], [13.293609096802484, 38.20706408630918], [13.29349547520528, 38.20705186276668], [13.293381853650184, 38.207039639115024], [13.293275304283405, 38.207011655018704], [13.293162919667921, 38.20694657789276], [13.29307744733957, 38.206876609442325], [13.292938026346933, 38.20682171224602], [13.292798728943591, 38.2067615340639], [13.292768949840708, 38.20660248714765], [13.29266524716712, 38.20645294634234], [13.29258138478055, 38.20631426652469], [13.292472104045705, 38.20611706387861], [13.292394821797389, 38.20598376227776], [13.292316796389578, 38.205882176169915], [13.292238646495177, 38.20578587712688], [13.292146608615333, 38.20571052264456], [13.292014253694209, 38.205639864008], [13.291787015604537, 38.205615413836455], [13.291659754287567, 38.20561356246601], [13.291504961128114, 38.20564302933289], [13.29136877939978, 38.20573621784485], [13.291272769718155, 38.20582998294474], [13.291156684508023, 38.20592345566978], [13.291119602226697, 38.20607623966273], [13.291149378714593, 38.2062352860373], [13.291180011481584, 38.20635732959202], [13.291110934449126, 38.206446204048056], [13.290954519777527, 38.20654438006993], [13.290800715508968, 38.206531569699834], [13.290580053345161, 38.206512494652365], [13.290420785174204, 38.206446732968224], [13.290275161133817, 38.20637059648261], [13.290123339641028, 38.20627321652972], [13.289991366934249, 38.20618670613042], [13.289912973644064, 38.20610097536678], [13.289820679088187, 38.20603618778583], [13.289715001938733, 38.20597120512224], [13.289623833572804, 38.205858852389916], [13.289511329327075, 38.20579905267267], [13.289082041807967, 38.20553374182992], [13.288902061557897, 38.20549411179259], [13.28876153136641, 38.20548678121564], [13.288648904560489, 38.2054322696202], [13.28854992068713, 38.20536738261154], [13.288437552059712, 38.20530230123446], [13.288367589489313, 38.20514266816134], [13.288296892163894, 38.20501475788448], [13.28827890458243, 38.204924616255056], [13.288295151650058, 38.20480324755869], [13.288278662014, 38.2046496922008], [13.288322193058665, 38.204507575612034], [13.288352082302161, 38.20437584151597], [13.288402190661524, 38.20423911063607], [13.288438532634913, 38.204118034945964], [13.288474379231273, 38.204018105922074], [13.288518290933022, 38.20386013972506], [13.288527712016304, 38.20374396126234], [13.28862271973492, 38.203692474466834], [13.288734722779363, 38.20377341350835], [13.28874476934963, 38.20391631055331], [13.28875444367249, 38.204075057232735], [13.288847974643954, 38.204086993323116], [13.288910235889796, 38.2040033106355], [13.288979943262909, 38.20388801101023], [13.289056095104758, 38.20378338584128], [13.289139691779187, 38.20364714278478], [13.28921584215916, 38.20354251027322], [13.289311717433664, 38.203454026580026], [13.289387753859453, 38.203354682117784], [13.289457698069254, 38.20322881318725], [13.289586317931004, 38.20317253282978], [13.289768398923158, 38.203122313054656], [13.289948373899612, 38.20316194165167], [13.290094230602119, 38.20322750945995], [13.290219876750223, 38.20329807250455], [13.290311415123579, 38.20339456700683], [13.290403952974724, 38.20344878529588], [13.290525128305253, 38.20342411372312], [13.290639486443679, 38.20340463256988], [13.290767239564456, 38.203385338262535], [13.290900817260846, 38.20340314482439], [13.29109480638837, 38.203416541008174], [13.291223054634514, 38.203376115719536], [13.291325133363697, 38.20330886647307], [13.291334796965403, 38.2031821197141], [13.291277119221375, 38.203070255774584], [13.291166474749591, 38.20293118502493], [13.291102230003345, 38.20281393555757], [13.291044666098125, 38.202696790539285], [13.291012786584307, 38.20262759190403], [13.291055578519789, 38.20251718980387], [13.290991818321045, 38.20237880152239], [13.29098908900058, 38.20220957550499], [13.29097627104077, 38.202034788393156], [13.290909938889465, 38.2018700585434], [13.290872111434892, 38.20176905589542], [13.290821498225105, 38.20164143951917], [13.290864526879808, 38.201520460352164], [13.29090719466899, 38.201415346307144], [13.290938315036017, 38.20123074996848], [13.290974899256494, 38.20109911166637], [13.290960127993557, 38.20087155726836], [13.291019407390687, 38.20062921609075], [13.291021511468642, 38.2005393754483], [13.291011089887386, 38.20041233531528], [13.290972880929399, 38.20032718310786], [13.290942621455327, 38.20018928165609], [13.290904907945286, 38.20008299803543], [13.290841769083535, 38.199918183042534], [13.2908857976933, 38.19975492765919], [13.290960449882666, 38.19942822164035], [13.290990826387176, 38.199275340775166], [13.291021202605325, 38.1991224662013], [13.291028258649469, 38.19882121242763], [13.290991422234189, 38.19867792536674], [13.291001580870562, 38.19853003993266], [13.291066434264492, 38.19833536215739], [13.291076354716362, 38.19819804569875], [13.291080440248248, 38.19802363616817], [13.29102536608319, 38.19780078471377], [13.290941763267728, 38.197651534973716], [13.2908834711462, 38.197566097499966], [13.290811910177462, 38.197475176946966], [13.290699170424865, 38.1974259474299], [13.2906267422418, 38.19737202946238], [13.290541903723188, 38.19727562554723], [13.29047158163261, 38.197131858727566], [13.290393196126521, 38.19704612024964], [13.290394930019461, 38.196972129268794], [13.290410056444342, 38.196898332448946], [13.290445276158046, 38.19682482828041], [13.290520427254064, 38.19676247813026], [13.290602280170496, 38.19670022553134], [13.290724185572659, 38.19664384597187], [13.29081249186596, 38.19659225965982], [13.290914561057114, 38.19652501858916], [13.29096317384539, 38.19645170115526], [13.29102542585367, 38.19636801793131], [13.291155765395876, 38.196237743558676], [13.291197305152627, 38.19618018624741], [13.291212439688136, 38.196106390325426], [13.291280888636688, 38.196043942097965], [13.291396844196399, 38.19595575691237], [13.291352440540374, 38.195849368784955], [13.29136818454417, 38.19574914514236], [13.291423621600968, 38.195670645112344], [13.291510677279307, 38.19567191138025], [13.291603949777983, 38.19569442110661], [13.291729709503127, 38.19575969342768], [13.29183115166819, 38.19581459167975], [13.291982555481699, 38.195777190538074], [13.29215481548412, 38.195801695379764], [13.292222317129971, 38.19577627969009], [13.292312519119806, 38.19573359177112], [13.292408094106856, 38.19569978272239], [13.292503453386795, 38.19567476492427], [13.292626998796646, 38.19563696489368], [13.292728142968079, 38.19560323749133], [13.292867686815804, 38.19559646360651], [13.292956961482622, 38.195593364289685], [13.293039638658891, 38.195634161126975], [13.29309383052651, 38.19570094870902], [13.29319168160667, 38.19580796561043], [13.293318224594586, 38.195880208228566], [13.293398732291264, 38.19601336970448], [13.293518882630543, 38.19612071866249], [13.293634380132215, 38.196188388256246], [13.293729029930839, 38.196194168175985], [13.293828117994545, 38.1962484005811], [13.293938755575851, 38.19628521364077], [13.294059319159343, 38.196374956593054], [13.294154174567876, 38.196371937482844], [13.294151470811844, 38.19646573198242], [13.294160481658, 38.19657882215118], [13.294184236341843, 38.19675516667325], [13.294188445406654, 38.19678942434479], [13.294193370767033, 38.19682464766049], [13.294195025052723, 38.19687682841846], [13.294192643264157, 38.19695217714265], [13.294254364991883, 38.196968548015036], [13.294291337309708, 38.196925232817286], [13.294299618587388, 38.19685055197294], [13.294321632403154, 38.19674769210179], [13.294358401487708, 38.196572817372555], [13.294381750144005, 38.196413229625925], [13.29441803633327, 38.196258988130786], [13.294484676554214, 38.19613485492434], [13.294745046302266, 38.19599223278671], [13.294936155521599, 38.19595875248207], [13.295101514399345, 38.19590417195095], [13.295266509529842, 38.19586513009763], [13.295461882414811, 38.19593011988536], [13.295624700934098, 38.19598428226367], [13.295733701067652, 38.19609463557217], [13.295946458319927, 38.196258286003726], [13.296029820140413, 38.19634236824322], [13.296139062865437, 38.196442362203385], [13.296250472291423, 38.19644916018059], [13.296401625680446, 38.1964409897994], [13.296550472744535, 38.196531201997274], [13.29658753821111, 38.196630148942894], [13.296624370357625, 38.19673945588902], [13.296576390473469, 38.19682681423885], [13.296535205480945, 38.196903907781476], [13.296850742918027, 38.19688258359642], [13.296993994855345, 38.19693127847989], [13.297156936317952, 38.1969802588372], [13.29730007732692, 38.19703412532942], [13.297528627248443, 38.197084055989556], [13.297710889144806, 38.197148851898774], [13.29769341251698, 38.197335062125404], [13.297676309073287, 38.19750573355839], [13.297666227226348, 38.197781293395124], [13.297656480916995, 38.197814237416175], [13.297616184293153, 38.19787272434361], [13.297557276283593, 38.19795930278056], [13.297498744062485, 38.19802934845564], [13.297448148247362, 38.198144401654915], [13.297400710395685, 38.19825241657905], [13.297345855561042, 38.198421755404134], [13.297300415561907, 38.198572331542366], [13.29725825287723, 38.19871113822593], [13.29719557091025, 38.19883074707926], [13.297075002913601, 38.198990495643734], [13.296975685173056, 38.199066039365036], [13.296872131308167, 38.19897472043128], [13.296883254620688, 38.1988465802907], [13.296943287408727, 38.198712724504524], [13.296954409586846, 38.19858457622355], [13.296950772259272, 38.198392062560856], [13.29693735997052, 38.19826997548671], [13.296915828959344, 38.19814776970803], [13.296911443478226, 38.19798732124263], [13.296806543922743, 38.19795372486973], [13.296714905694664, 38.19804863051217], [13.296694306993606, 38.198234375290426], [13.296707569386394, 38.19836287740932], [13.296565663763044, 38.1985212046796], [13.296180965597626, 38.198728461735755], [13.29605379279649, 38.19902551845198], [13.296124607088974, 38.199339672353226], [13.29569423777675, 38.19948999151254], [13.29546175276337, 38.19966215879258], [13.295410467222, 38.19979900740783], [13.295479589383573, 38.199928101857466], [13.295567746262721, 38.20001478631712], [13.295674163089991, 38.20009223487887], [13.295823084253009, 38.200151330069495], [13.29599158392548, 38.20014428987898], [13.296108324894082, 38.20003686172443], [13.296271043011272, 38.20002024433176], [13.296450128667605, 38.20007502924129], [13.2966087558283, 38.20015775496977], [13.296676203653838, 38.20040251143713], [13.296846520857505, 38.20059424104444], [13.297039472407738, 38.20068684898834], [13.297118430779532, 38.20070423715586], [13.297210682573011, 38.20071091133016], [13.297303111511546, 38.200710472405916], [13.297379754391617, 38.20070980441648], [13.29747918215883, 38.200698793484506], [13.297556001962288, 38.20069101955922], [13.297614834036983, 38.20068119858164], [13.297678255972755, 38.200667886345414], [13.297777933115395, 38.200646212590705], [13.297844065041598, 38.20061337888516], [13.297920336674538, 38.20056489836946], [13.298059690064447, 38.20051559237091], [13.298173770782073, 38.20050441212401], [13.298384764896442, 38.20052030287791], [13.298622353289016, 38.20058374661841], [13.298710897352525, 38.20048011826562], [13.298788883107969, 38.200331909383515], [13.298895474666375, 38.2001436806655], [13.29895178241827, 38.20004960586228], [13.298984268789301, 38.199945701044705], [13.299476873435244, 38.20005496439766], [13.299914082476027, 38.20013186093195], [13.299816467783643, 38.20048330175002], [13.299764268578562, 38.20063009785865], [13.299802360970764, 38.20073970862551], [13.299995764245821, 38.20081307570968], [13.30036632561511, 38.200959580899266], [13.300560327619461, 38.20100729686063], [13.300672315539618, 38.20108590119501], [13.300467794459237, 38.201140676690045], [13.300159412402826, 38.20111697201134], [13.299915094495042, 38.20118294750071], [13.299955677080753, 38.201276987909395], [13.300075234110396, 38.201369576774496], [13.300489324603033, 38.201518832462156], [13.300469522875538, 38.201676258600095], [13.300276941653237, 38.201978534911376], [13.300009533843962, 38.2021396717106], [13.299531629936542, 38.20230121799897], [13.299491142049558, 38.202493231918154], [13.299675238922724, 38.202663242587114], [13.300050212473067, 38.202712879855746], [13.30056324035173, 38.202676094442914], [13.30091781331772, 38.20257071167983], [13.301144675542105, 38.20245085678102], [13.301344597323183, 38.20225512006223], [13.301410420042316, 38.202098148921], [13.301474142434007, 38.201976454983445], [13.301590191301443, 38.20193275073712], [13.301887939914963, 38.20200195266314], [13.302050502571186, 38.202084774897806], [13.302348080490448, 38.20216176466656], [13.302485355334921, 38.20220008868956], [13.30264099033183, 38.20228454195936], [13.302992341954187, 38.20291835717249], [13.303364994921758, 38.203066196227574], [13.303709965693882, 38.20311075073403], [13.303902253238094, 38.20325202152909], [13.304124708825618, 38.20338977269741], [13.304427740154365, 38.203512855830894], [13.304574999216062, 38.20364952162034], [13.304669553842615, 38.2038962178905], [13.304738591958586, 38.204162332409], [13.304762875698932, 38.20441196881079], [13.304812685806173, 38.204642195116186], [13.304870409615141, 38.204963549738316], [13.304854323060917, 38.20522447317506], [13.304543145818165, 38.20566712741357], [13.304456775014922, 38.20593099875746], [13.30463140477309, 38.20596912911117], [13.304825724748312, 38.20602337616082], [13.305060655996174, 38.20591316195184], [13.305207789525296, 38.20565553580581], [13.305344917536281, 38.20556284126755], [13.305513406443307, 38.20541142794814], [13.305680519594494, 38.20531917401658], [13.306045890626772, 38.20516369357542], [13.306293473550312, 38.20505712441747], [13.306644636515802, 38.204882940636715], [13.307113358901761, 38.204857023275494], [13.307430591820353, 38.20486411272972], [13.307432767939861, 38.20499900167471], [13.30683984436229, 38.20502480031467], [13.306566659098808, 38.20504095863164], [13.306481234704794, 38.20510841467658], [13.306424619724856, 38.20513881141857], [13.30631499854009, 38.20516757451995], [13.306344216098168, 38.20528937585343], [13.306329406628112, 38.20537513418934], [13.306258390169665, 38.205449968542894], [13.306365335700914, 38.20558733179568], [13.306175811229307, 38.205636506600314], [13.305989838883807, 38.20587607280585], [13.305738430200044, 38.20598362689934], [13.30554279638187, 38.20612747085235], [13.305488251842831, 38.20626829330621], [13.305441054437926, 38.206368764017334], [13.305380915008937, 38.20647410427873], [13.305268471635062, 38.206624205300315], [13.305194930998164, 38.20675463953163], [13.305087014273173, 38.20698572760988], [13.304960806526532, 38.207176087321756], [13.30492188625283, 38.207292680217876], [13.304817858427537, 38.207411051551624], [13.304781943757156, 38.20750376909693], [13.304710725098005, 38.20766257454726], [13.304623563909786, 38.207781197431906], [13.304553591940426, 38.207886737634354], [13.30454039916212, 38.20801212251272], [13.304436369474955, 38.20813050156369], [13.304417633081709, 38.20821014433547], [13.304364219153477, 38.20832924643754], [13.304238831870203, 38.20845532628464], [13.304190834701851, 38.208526536686655], [13.304236807722274, 38.20872699356652], [13.304285329119676, 38.20893645292692], [13.304095514084008, 38.20910567225067], [13.304168765679254, 38.20926350984008], [13.304251407392814, 38.20934608445167], [13.304316738362939, 38.20944026281551], [13.304295843915176, 38.20961311782355], [13.304359007612673, 38.2098005001926], [13.304335939376433, 38.20992966509416], [13.30428025872202, 38.21013013110906], [13.304123040313687, 38.21030900334234], [13.303865486392779, 38.210452695686364], [13.30361847029794, 38.210600851836716], [13.303305252750441, 38.21083908779276], [13.303299488320286, 38.211086821814064], [13.3032349603277, 38.211201902052586], [13.303097602841442, 38.21136315294837], [13.302917904604977, 38.211233031844216], [13.302775756003323, 38.211281549584], [13.302681923634362, 38.21145721090085], [13.302540951281193, 38.211455173855704], [13.302411577270222, 38.21148524705337], [13.302326843219815, 38.21149973768541], [13.30220165788551, 38.21148692808794], [13.302116490741035, 38.211551704442996], [13.302017387117239, 38.21161627189513], [13.301959590685854, 38.211703443329874], [13.30197173462188, 38.21178062616474], [13.301969429920378, 38.211879592848916], [13.301995256032836, 38.211967973238856], [13.302026665459213, 38.21206980406347], [13.302101916007834, 38.2121416998742], [13.302157131503785, 38.212201327531595], [13.302054356267034, 38.21225733580201], [13.302000486599548, 38.21234207864589], [13.301901390933441, 38.21240664519546], [13.30181219793012, 38.21247130087808], [13.301794434641089, 38.2125635419696], [13.30183445303222, 38.212641128144064], [13.301860031621295, 38.212740504573716], [13.301954774758826, 38.212862881828464], [13.302036870719922, 38.21293007622391], [13.302118188932162, 38.21303025090411], [13.302171387174935, 38.21314102734095], [13.302189768592115, 38.21322987491865], [13.30224372475513, 38.21330765447278], [13.302297425295249, 38.21339643891653], [13.30232273892324, 38.21350681191023], [13.302347295172282, 38.2136501736432], [13.302346527256985, 38.213683170347], [13.302497030351887, 38.21380635283332], [13.30255021942045, 38.213917128962414], [13.302616843771254, 38.21405009858195], [13.302655328599887, 38.2141936616937]], [[13.298915001743413, 38.21254130049914], [13.29922948216303, 38.21245502824008], [13.299561598581896, 38.21231710996178], [13.299826152150906, 38.21225605898465], [13.300092518254967, 38.2121171875662], [13.300326604872689, 38.21195189364756], [13.300429165607834, 38.211784704556585], [13.30067818584252, 38.21168449912525], [13.300909550250047, 38.211635946370436], [13.300648325436752, 38.21155431274288], [13.300569154162643, 38.21142342044301], [13.300638236664685, 38.211281685460385], [13.300886035574477, 38.21123336979948], [13.300970344034347, 38.211143762063294], [13.301038528406504, 38.211040948600555], [13.301269889425889, 38.21099239415932], [13.301551166040184, 38.21091860812031], [13.30184889720426, 38.21084505858447], [13.302146617330147, 38.210771516237294], [13.302347511023509, 38.21061871203119], [13.302529550515205, 38.21056944254207], [13.302760607868231, 38.210533854797994], [13.303037061079532, 38.21066760374005], [13.303220307436037, 38.21056645079484], [13.30338892722079, 38.21038723186019], [13.30347837228718, 38.2100771150147], [13.303533112370037, 38.20984435069984], [13.30337023761264, 38.20977711697787], [13.303106601784473, 38.20979926266992], [13.30295653166657, 38.20988792202929], [13.302773286697798, 38.20998907460504], [13.302622923480026, 38.210090709654025], [13.302390055938126, 38.21020411799837], [13.302352945016983, 38.21038523600743], [13.302056434486627, 38.210406903782705], [13.301625692600034, 38.21054340391827], [13.301195543285875, 38.210653956617016], [13.300731914422318, 38.21078998461128], [13.300252453117128, 38.210899820738476], [13.29993737570568, 38.211012041594216], [13.29963753491213, 38.211176374937345], [13.299353221442132, 38.21137986635935], [13.299004964849408, 38.211504577028904], [13.298837248232509, 38.2116448750512], [13.298783389817906, 38.21183872309596], [13.298845515796195, 38.21199533111059], [13.298941130555157, 38.21212647008463], [13.299156051372083, 38.21207767526987], [13.299003862485126, 38.21225712518579], [13.298736888565381, 38.21242193969424], [13.298570067526045, 38.21252332363138], [13.298733559242214, 38.21256461855113], [13.298915001743413, 38.21254130049914]], [[13.300735680069874, 38.2134998636254], [13.300819193304607, 38.21349269737156], [13.300897265370233, 38.21345914913054], [13.300942712963531, 38.2134275220195], [13.300990259520072, 38.21343598558794], [13.30103002582835, 38.21342041873294], [13.301040857229756, 38.21337812894086], [13.300941090980883, 38.21330194667048], [13.300910990118322, 38.213293144490386], [13.300890386331575, 38.213234257969454], [13.300882699888357, 38.21320663867888], [13.30084052878262, 38.21319527004373], [13.300736385876071, 38.21320930727701], [13.300679997916747, 38.21322284004775], [13.300636754116818, 38.21325748992942], [13.30064749233931, 38.21331683201515], [13.300617856596268, 38.21332059059984], [13.300599215493122, 38.213405221064946], [13.300600000336184, 38.21340403568484], [13.300735680069874, 38.2134998636254]], [[13.30051834174753, 38.21308283845245], [13.300565675476655, 38.21302899718734], [13.300554583167262, 38.213010659201814], [13.300603298898631, 38.21302045284995], [13.300665128232687, 38.21296227687299], [13.300511705544386, 38.21287372834986], [13.300449807183952, 38.21281148620576], [13.300389936184851, 38.21278562901944], [13.300357637898648, 38.212812427773265], [13.3003058797289, 38.21280940275631], [13.300288128695398, 38.21282960027813], [13.300227527171355, 38.21283553628293], [13.300203595457036, 38.21287381352853], [13.300245769663752, 38.21291758466127], [13.300216027086082, 38.212958046878356], [13.300323183653493, 38.21305502389199], [13.300441470841998, 38.213045370548436], [13.30051834174753, 38.21308283845245]], [[13.301876727952731, 38.21393162993746], [13.301846793069002, 38.2139588138463], [13.301918650980104, 38.2140145803218], [13.301873719427586, 38.21406715200154], [13.301911276735616, 38.2140864315108], [13.301972545257797, 38.21401807891324], [13.30201792681941, 38.214059021111], [13.302287732838916, 38.21396284209014], [13.302122017867587, 38.213844729995934], [13.30206320859495, 38.21390173836554], [13.302043650221982, 38.21389050986945], [13.302110491531641, 38.21382892535442], [13.30205999376155, 38.2137844135595], [13.30198374831774, 38.21373952831782], [13.301827691705913, 38.213887387912145], [13.301876727952731, 38.21393162993746]], [[13.299834526901455, 38.21264809981335], [13.299897853968547, 38.2126490162868], [13.299888191075112, 38.21256936036811], [13.299666547197914, 38.212566151206055], [13.299649802883758, 38.21254318668381], [13.299580612145284, 38.21254672968643], [13.299499439881123, 38.212570544634445], [13.299495548991974, 38.21261365667869], [13.299474978183227, 38.212631529671896], [13.29948212648259, 38.21269524725889], [13.299539325512308, 38.21271197796034], [13.299543229984694, 38.21279155046872], [13.2997677586961, 38.21279480166293], [13.299772009113177, 38.21273579289194], [13.299832462367746, 38.212736667768105], [13.299834526901455, 38.21264809981335]], [[13.301420540258963, 38.213043632054195], [13.301499527302559, 38.212990248522445], [13.301534382326277, 38.212977119252784], [13.301577826702896, 38.212966389713415], [13.301573285193886, 38.212914074536656], [13.30145418736973, 38.212835104095554], [13.301434621251397, 38.21280983075591], [13.301370261437372, 38.21272938330853], [13.301326510580967, 38.21275374113617], [13.30125742532161, 38.21275274208676], [13.301205032192335, 38.21277697477607], [13.301200403010027, 38.21285188005498], [13.301150936411034, 38.21287388685213], [13.30123757657336, 38.21298645987479], [13.301269292418063, 38.212984650717935], [13.301305973250798, 38.213016984599975], [13.30136669190624, 38.2130065051671], [13.301420540258963, 38.213043632054195]], [[13.30172487646865, 38.213510411547496], [13.301765464977318, 38.21347263815801], [13.301817889464061, 38.213482989622946], [13.301856375047631, 38.213431117711416], [13.301908784694186, 38.213442106944534], [13.301935129372845, 38.21338942221657], [13.301793011285778, 38.21333367274527], [13.301713115376344, 38.2134239351432], [13.301653650824251, 38.21340261372448], [13.301700027132455, 38.213359812714266], [13.301722734058627, 38.21335886705328], [13.301766155620117, 38.2133038737748], [13.301685895728358, 38.21327074630626], [13.301656878601982, 38.213299093336374], [13.301630443761656, 38.21328593139462], [13.301566281727686, 38.21332719353203], [13.301529043911641, 38.213290851405745], [13.301492090025167, 38.21331205986478], [13.301529673534084, 38.213368217278855], [13.301575938517548, 38.213399578646296], [13.301535943563701, 38.213446946234264], [13.301657680278806, 38.213508157708006], [13.30167915106913, 38.21349057040787], [13.30172487646865, 38.213510411547496]], [[13.301367739526416, 38.21389436172448], [13.301421469940031, 38.21383725767219], [13.301436311210068, 38.213788492446724], [13.301428109285261, 38.21375974738772], [13.301368465953983, 38.21372454171756], [13.301318908816615, 38.2137060120433], [13.301274409809274, 38.21371300441191], [13.301223371830114, 38.21375806096907], [13.301201454056892, 38.213799086375744], [13.301210729322076, 38.21381639680636], [13.301318352590895, 38.21390318752021], [13.301367739526416, 38.21389436172448]], [[13.306213955900994, 38.205222080537], [13.306171066310101, 38.20522230867232], [13.306170751624999, 38.205235836024194], [13.306129997884343, 38.20523694206333], [13.306128552271725, 38.20525299437865], [13.30608673469848, 38.20525323795436], [13.306074738272713, 38.20526236303692], [13.306072821141433, 38.205298707286836], [13.30608030121565, 38.20529966143664], [13.306085066451073, 38.205325109719126], [13.306092525757737, 38.205326910663494], [13.306096600728559, 38.20533626769476], [13.30613518032937, 38.20533682448075], [13.306135821086473, 38.205355446389134], [13.306204377562468, 38.20535728196779], [13.306211788477302, 38.20536161447981], [13.306265405563694, 38.20536069494392], [13.306265640646554, 38.20535055212], [13.306293502177125, 38.20535095418253], [13.306295582994647, 38.205261321899215], [13.306233598458096, 38.20520713791909], [13.306216453901056, 38.205206890502765], [13.306213955900994, 38.205222080537]], [[13.305420857454813, 38.20553799047982], [13.305422060433608, 38.20557860532489], [13.305414179383558, 38.20564108915067], [13.30543652054438, 38.20564817765922], [13.305485660458649, 38.20565565217371], [13.30551488933122, 38.20564338846574], [13.305574223197304, 38.20562732479998], [13.305578354988294, 38.205587634067804], [13.3056047299431, 38.20556009494352], [13.305605947814033, 38.2055076683345], [13.305582857654668, 38.20548619005848], [13.305420857454813, 38.20553799047982]], [[13.29446173040054, 38.19966378440096], [13.294629958176104, 38.19966708126648], [13.29463325818096, 38.19959538931109], [13.294632834458282, 38.19956719923521], [13.294632180554949, 38.19954882580434], [13.294532120332413, 38.199546517649225], [13.294531900122697, 38.1995559063858], [13.294463743959126, 38.19955448979313], [13.29446173040054, 38.19966378440096]], [[13.298662048591662, 38.212110557287424], [13.298628885462104, 38.2120984091739], [13.29863698072327, 38.21208229027178], [13.298594775470733, 38.21207203868448], [13.298601533323039, 38.212057928013465], [13.298547786529832, 38.21204649888712], [13.298498075046231, 38.21213761662549], [13.298545846367883, 38.21215707682355], [13.29853706449682, 38.212175212480666], [13.298608528960976, 38.21219908669805], [13.298662048591662, 38.212110557287424]], [[13.298447103959248, 38.21264816515156], [13.298369570665802, 38.212693193183135], [13.29842776024575, 38.21275393807328], [13.298524759497697, 38.212694105846786], [13.298487889592135, 38.212659406416], [13.298471393184759, 38.21266759582745], [13.298447103959248, 38.21264816515156]], [[13.301270322835284, 38.213475071497506], [13.301229921352514, 38.21343548255347], [13.301181574481069, 38.21345843826986], [13.30122267466427, 38.21350314874191], [13.301270322835284, 38.213475071497506]]]}, "properties": {"anno": 2011, "id": 2954, "data": "2011-07-25", "localita": "Pizzo Sella", "sup_ha": 166.1112, "sup_boscata_ha": 0.0, "sup_non_boscata_ha": 165.9171, "luogo_inizio": "strada comunale", "squadre_aib": 1, "fine_intervento": "2011-07-25"}}, {"type": "Feature", "geometry": {"type": "Polygon", "coordinates": [[[13.343006786981427, 38.06279909771835], [13.343113958784715, 38.062696960407244], [13.343536573541048, 38.06255781345432], [13.343932979742839, 38.06241830372511], [13.34417026873112, 38.06235945827922], [13.344589148307916, 38.06238608271032], [13.344983686653606, 38.06232944890796], [13.345432502729448, 38.062190664084156], [13.345801764771398, 38.062092219610996], [13.346176618747856, 38.06174510362076], [13.346677851204683, 38.06160705885619], [13.346777097111936, 38.06185719519223], [13.346799576350417, 38.06202333753755], [13.346873081542144, 38.062252385193446], [13.346868889047443, 38.06243887966366], [13.346865629127732, 38.06258393433155], [13.346782805186242, 38.06276933069727], [13.346828241863355, 38.0630808974094], [13.346951833093799, 38.06341428818678], [13.347319236840319, 38.0633987258923], [13.34758133638199, 38.0634024090821], [13.34784063381663, 38.06353041914678], [13.347967033462341, 38.063739482415], [13.347911350518324, 38.06388380009473], [13.34774990651599, 38.06406808545297], [13.347276729025893, 38.06412362337588], [13.346935529132951, 38.064139553225495], [13.346619147465278, 38.064218018747525], [13.346329905639537, 38.06425541243904], [13.346071064910717, 38.064106671820944], [13.345840307262595, 38.06387541204444], [13.345766803877833, 38.06364636383992], [13.345639021945315, 38.06349946626412], [13.34553791326343, 38.06333221673893], [13.345461614113646, 38.063227503010644], [13.345126946172536, 38.06295331954348], [13.344655650206365, 38.06292595954189], [13.344365478636353, 38.063004788242345], [13.343971869546753, 38.06301997201122], [13.343523502793193, 38.06313803105006], [13.343262805769285, 38.06307217113397], [13.343006786981427, 38.06279909771835]]]}, "properties": {"anno": 2011, "id": 2600, "data": "2011-08-19", "localita": "Pizzo Orecchiuta", "sup_ha": 4.9413, "sup_boscata_ha": 0.0, "sup_non_boscata_ha": 4.9413, "luogo_inizio": "incolto e pascolo", "squadre_aib": 2, "fine_intervento": "2011-08-19"}}, {"type": "Feature", "geometry": {"type": "Polygon", "coordinates": [[[13.281108140452416, 38.13898726613305], [13.281147835513176, 38.13877335391804], [13.281124957599383, 38.13851745582439], [13.281165081467893, 38.13828530203845], [13.28122648069863, 38.138131034272234], [13.281268850324436, 38.138049503586046], [13.281334422931502, 38.137963758843796], [13.281470589212551, 38.137824273034745], [13.28149787302283, 38.1376466899925], [13.281552642155756, 38.137528836879575], [13.281543445608214, 38.13742830366274], [13.281598223616717, 38.13731045065225], [13.28166411741936, 38.13721101529874], [13.281740812902672, 38.13714368178808], [13.281732259322919, 38.137015774979], [13.28173108341877, 38.13681952039838], [13.281757830015302, 38.136664746168975], [13.281719756887254, 38.136563790443375], [13.281756129156026, 38.13649130697589], [13.281795650033745, 38.13640745802324], [13.281936201924818, 38.136327369833], [13.282024021438033, 38.136278446690035], [13.282164572836848, 38.13619835821286], [13.28225431953605, 38.13606732756455], [13.282348347839285, 38.13600024715593], [13.282420330589355, 38.13588720438291], [13.28252986346116, 38.13589793339107], [13.28262323933431, 38.135858226229324], [13.282700147532495, 38.135781767194935], [13.282823800755018, 38.13568317485431], [13.28289739888505, 38.135501701455745], [13.283015377763432, 38.135398466003224], [13.283053673898417, 38.135243859372814], [13.28303335143443, 38.13512490851185], [13.283048220880332, 38.13498365538311], [13.283039236287657, 38.13487399825397], [13.283116250002719, 38.134792972422055], [13.283187374829323, 38.13471643660067], [13.283259258418035, 38.13460795174931], [13.283320083003261, 38.13452773808094], [13.283415631211199, 38.13446870393151], [13.283475773594835, 38.13441379684198], [13.283559770846038, 38.13434530264955], [13.28362611914639, 38.13427654234315], [13.283738235165726, 38.13426423524104], [13.283854913238384, 38.134307771864705], [13.283965930560688, 38.13434193456913], [13.2840999405738, 38.13439966805036], [13.284193200370929, 38.134438216626314], [13.284327745545715, 38.13447272273906], [13.284514919612212, 38.13452194043413], [13.284648930405872, 38.13457967330517], [13.284758641985528, 38.13466959336307], [13.284898313929805, 38.134736715044795], [13.284996147834976, 38.13483110696066], [13.285135930341768, 38.13489357632255], [13.285257847660759, 38.13496507665461], [13.285376378821711, 38.134929618623744], [13.285512240614286, 38.1349083654394], [13.285540243527878, 38.13496919607177], [13.285697893468095, 38.13502262731571], [13.285832984127923, 38.13503389663601], [13.285943024005572, 38.13510987564759], [13.286035306242159, 38.13519024093464], [13.28606276592545, 38.135274314669275], [13.28612508719041, 38.135377486559655], [13.286192971160235, 38.13549469154922], [13.286362599535003, 38.13553899751714], [13.286500970520326, 38.13566187550081], [13.286634985017294, 38.13571960618091], [13.28683992075752, 38.13576443379304], [13.287058257568209, 38.13573972017985], [13.287223746555542, 38.1357095979672], [13.287331932038821, 38.13561355714475], [13.287464732538146, 38.13547138818], [13.287544260947866, 38.135342395117085], [13.287535536147615, 38.13521210881386], [13.28749053525066, 38.135123134071584], [13.287528007112881, 38.13503071551342], [13.287432561718877, 38.1348340900188], [13.287403679043646, 38.13455941401138], [13.287376209643346, 38.13422433585953], [13.28732205054923, 38.13402366589505], [13.287260164403795, 38.133901903455055], [13.287215056003285, 38.13381757347896], [13.287147606294152, 38.13368178508755], [13.287073298263726, 38.133587738081275], [13.286981451504433, 38.13348878154436], [13.28683622612144, 38.13340764558397], [13.286648182709026, 38.13339560581068], [13.286520388356726, 38.1333240130586], [13.286446191244607, 38.133225321732844], [13.286424076988116, 38.133164569111514], [13.286466775413246, 38.1331001157266], [13.286591736100696, 38.13304150718472], [13.286729117729251, 38.13295519111273], [13.286819315913144, 38.13287283212969], [13.287007791542523, 38.13286628041507], [13.287248243428278, 38.132902326098495], [13.287424082113015, 38.1329327772223], [13.287543695108008, 38.13285084661657], [13.287716262766498, 38.132769695192955], [13.287871290117472, 38.132683634137656], [13.287967593615514, 38.132592064957194], [13.288153548823676, 38.13244137886415], [13.288263140587707, 38.1322849267043], [13.28829451216495, 38.13220171813064], [13.288395932849639, 38.13214276453082], [13.288548133849236, 38.13217751500524], [13.288647815459653, 38.132192910573515], [13.288693141701133, 38.13226794489465], [13.288756333522418, 38.13233394842659], [13.28886550325612, 38.13244709985689], [13.289057360401873, 38.13254750299698], [13.289207390201133, 38.13267519233619], [13.289363409539376, 38.132798324083254], [13.28946626642993, 38.132929972409606], [13.28966411340641, 38.13302582347368], [13.289777329167768, 38.133218053268855], [13.289855200102814, 38.13335086037634], [13.289958968208449, 38.133504250632896], [13.290037638716166, 38.133663442997445], [13.29013010544086, 38.13380593197093], [13.290251753904721, 38.13407096460399], [13.29035778158348, 38.13431887360878], [13.290539847515637, 38.134601261619075], [13.290753633716498, 38.134756926657175], [13.290963069567445, 38.135113255305285], [13.291157994676636, 38.13533456053986], [13.29165663808296, 38.135688792197364], [13.291866787829841, 38.13586099563308], [13.292185025244514, 38.13596307417387], [13.292571205286, 38.13626591898193], [13.292852721426254, 38.13643915736008], [13.29306023814237, 38.136724086906156], [13.293479226606722, 38.137124859393005], [13.293686746503356, 38.13740978788686], [13.293779285810114, 38.13750625485764], [13.29386537526405, 38.137600468840006], [13.293968572390403, 38.137718182459295], [13.29403436917793, 38.137809522358566], [13.294167562794941, 38.138018569281456], [13.294009141323574, 38.13799767226797], [13.29392110220632, 38.13798709587431], [13.293778922486732, 38.13802687257936], [13.29364872828498, 38.138057515948674], [13.293493695818626, 38.13814358444875], [13.293414608594555, 38.13825399767023], [13.293272428099458, 38.138293773741424], [13.293113356726032, 38.1383007546693], [13.293020340873438, 38.13850393736846], [13.292876642685922, 38.138608759176066], [13.29273139810019, 38.13857997296674], [13.292565137484422, 38.13859029020568], [13.292412063733634, 38.138592719042165], [13.292185119133752, 38.13873351818468], [13.291976050688918, 38.13886528488812], [13.291791279409303, 38.13896486239651], [13.291559862389137, 38.139045172519445], [13.291364406092399, 38.139098107807946], [13.291215257942623, 38.1391842579537], [13.29109061529123, 38.13922893208645], [13.29102426917534, 38.13929769661547], [13.290919229229738, 38.13925898196487], [13.290832392047678, 38.13919728911032], [13.29068050084727, 38.13914859404973], [13.290521102012676, 38.139169518629586], [13.290371292960648, 38.13928354665497], [13.290279135902892, 38.13944955269138], [13.290166045769391, 38.139503684211235], [13.289996288256557, 38.13946402732725], [13.28983786488868, 38.139443132751985], [13.289736761765743, 38.139488140123596], [13.289652536551902, 38.13956594176866], [13.289492377100732, 38.13961938798407], [13.289354452309622, 38.1397289422409], [13.28923514502872, 38.13979693513574], [13.289157362354228, 38.139851580024526], [13.289137529795562, 38.139944263226084], [13.289053205379492, 38.14002670131297], [13.288946654846614, 38.14005304645021], [13.288780929177138, 38.140092465834755], [13.288667511296529, 38.14016053584778], [13.288571524021483, 38.14023816618401], [13.288528161350111, 38.14033049913493], [13.288490253393508, 38.14044150815467], [13.2884125688693, 38.14049150842133], [13.288233668842699, 38.14059116669617], [13.288259610328662, 38.14074029319233], [13.288395434582199, 38.140846864782866], [13.2885452533145, 38.140983851066615], [13.288660434172929, 38.141092437505804], [13.288802960168228, 38.14128974707817], [13.288918250369345, 38.1413936893186], [13.289021544037217, 38.141506754949965], [13.289189132728525, 38.141639345677085], [13.28934015974979, 38.14172521696186], [13.289480067715699, 38.14178303031244], [13.28954914718374, 38.1418491200631], [13.289645703308876, 38.14199927387796], [13.289773516992193, 38.142070855467075], [13.289884873253335, 38.14209107286347], [13.289996013856431, 38.142120578999126], [13.29050180535206, 38.142137235158756], [13.290923040615727, 38.1420891313138], [13.291002046505339, 38.14216535328079], [13.290866134007572, 38.14228723592806], [13.29070847909608, 38.14232247235329], [13.290317352457519, 38.14237597832927], [13.289974282079555, 38.14244608398446], [13.289628580591046, 38.14262878418207], [13.28947889224205, 38.142746067720324], [13.2893077592335, 38.142856210482144], [13.289200947951366, 38.14280346245911], [13.289160613538932, 38.14267999464271], [13.288741798676478, 38.14269171013218], [13.288578953720041, 38.14274563674871], [13.288397539436714, 38.14278053188603], [13.288164916510594, 38.142769638791655], [13.2878549657399, 38.142813917608954], [13.287424300952686, 38.14273632883449], [13.287177449047352, 38.1427643254042], [13.286679294445046, 38.14274612617508], [13.286134336439613, 38.14265614653116], [13.285665912674622, 38.14255087317049], [13.285338116831172, 38.14235467846626], [13.285082688084476, 38.1421732113805], [13.284648496571814, 38.14208484063256], [13.284348277737836, 38.14189451432612], [13.283972223796427, 38.14183706976607], [13.283578286543717, 38.14180397180295], [13.28325344675625, 38.14177735190373], [13.282880534802805, 38.14173362146024], [13.282529802833142, 38.14163005564077], [13.282174844064233, 38.1414115789824], [13.281999097727143, 38.14122853580286], [13.28194334242377, 38.14094881209378], [13.281866178552356, 38.14069611305723], [13.281800825812784, 38.1404942596443], [13.281595443086454, 38.140381730553266], [13.281490082510395, 38.14019308124131], [13.28140632878267, 38.14006864199813], [13.281346003721772, 38.13993085048197], [13.281326218182938, 38.13978909142652], [13.281299910699055, 38.139679179833905], [13.281315107100736, 38.13952423674713], [13.281294786549593, 38.139405285707156], [13.281246550862518, 38.13924485430794], [13.28116301286053, 38.13911128286881], [13.281108140452416, 38.13898726613305]]]}, "properties": {"anno": 2011, "id": 3271, "data": "2011-08-27", "localita": "Costa della Castellana", "sup_ha": 74.098, "sup_boscata_ha": 0.0, "sup_non_boscata_ha": 71.8142, "luogo_inizio": "incolto e pascolo", "squadre_aib": 1, "fine_intervento": "2011-08-28"}}, {"type": "Feature", "geometry": {"type": "Polygon", "coordinates": [[[13.33827237501707, 38.194474039847854], [13.338287052774646, 38.19438452354521], [13.338297130442612, 38.19431155789108], [13.338283018155204, 38.19419172508453], [13.338301821113898, 38.19410559068931], [13.338295223776571, 38.19402574013946], [13.338314178906419, 38.1939329581597], [13.33834997023114, 38.19384041450921], [13.338342767535805, 38.193787146215364], [13.338352390982951, 38.19373410800142], [13.338361722512063, 38.19369436512238], [13.338431187176685, 38.193602298112175], [13.33846773417402, 38.1934765398724], [13.338478577950434, 38.193370351680116], [13.338493699110941, 38.19326089961307], [13.338503635762276, 38.193194573553555], [13.338523346314384, 38.19306857787265], [13.338534342137892, 38.1929557420841], [13.338561709513383, 38.19286307911284], [13.338571796915819, 38.192790113551254], [13.338598871347633, 38.192710738683346], [13.338601745614529, 38.19258450467998], [13.338653464853929, 38.19253206133004], [13.33872111286808, 38.192519726486964], [13.338787861983263, 38.1925472538681], [13.33887925713875, 38.19260172082117], [13.338945855361189, 38.19263589571379], [13.339028827800593, 38.192690235252854], [13.339087306031374, 38.192711003806025], [13.33915405660566, 38.19273853100134], [13.339235301022415, 38.19275544917912], [13.339216498258963, 38.192841590967014], [13.339189575427195, 38.192914319291674], [13.339179952899027, 38.192967349489884], [13.339144615961077, 38.19303995785099], [13.339109421792994, 38.19310592659513], [13.339091374829415, 38.19315883848367], [13.339056492687034, 38.19321152026461], [13.339029720429583, 38.19327760724933], [13.338994837226302, 38.193330280884524], [13.338968367865869, 38.193383081680736], [13.338925515433894, 38.19341570052771], [13.338899509214812, 38.193448565865296], [13.338900834485584, 38.19350060196633], [13.338882939282033, 38.193546873439395], [13.338856469941721, 38.193599666096915], [13.338846382681062, 38.19367263167723], [13.338828789304726, 38.19370561605273], [13.338810742953285, 38.193758535108046], [13.338801270861895, 38.19380492667094], [13.338797416519077, 38.1938475127916], [13.338787330297862, 38.19392047837792], [13.338786118997975, 38.19397363567993], [13.338776496010539, 38.194026665825916], [13.338774983897949, 38.194093111128765], [13.338756624225056, 38.194159309885514], [13.338755110966174, 38.19422575426914], [13.338745336839416, 38.19428543290618], [13.338752690736703, 38.19433206169066], [13.338717807947095, 38.19438473523448], [13.338716445700783, 38.194444532018345], [13.338707124342214, 38.194484283176244], [13.338680957596697, 38.194523788708096], [13.338671475052944, 38.19457017920422], [13.338661699660209, 38.19462985781217], [13.33861869527392, 38.1946691241159], [13.338558551078558, 38.194721448170334], [13.338523666813455, 38.19477412162943], [13.338446989117847, 38.19481292024201], [13.338387904260339, 38.194818726388775], [13.338345504792985, 38.19483141753949], [13.338337534339413, 38.19481137173009], [13.338341487695395, 38.19476745871089], [13.338334739205964, 38.19469425486297], [13.338319264205142, 38.194634219736066], [13.338287405947497, 38.19455401068602], [13.33827237501707, 38.194474039847854]]]}, "properties": {"anno": 2011, "id": 3146, "data": "2011-09-08", "localita": "Monte Pellegrino (Via Monte Ercta)", "sup_ha": 1.027, "sup_boscata_ha": 0.0066, "sup_non_boscata_ha": 1.0204, "luogo_inizio": "strada comunale", "squadre_aib": 1, "fine_intervento": "2011-09-08"}}, {"type": "Feature", "geometry": {"type": "Polygon", "coordinates": [[[13.286417057462247, 38.185546023982326], [13.28651185938609, 38.18543817665162], [13.286729057695267, 38.18535638226378], [13.286943616362194, 38.18525199727745], [13.286988211028547, 38.18521469094787], [13.28701637400649, 38.18513228389427], [13.287096178604822, 38.18508513602276], [13.287115037558172, 38.18502675253052], [13.287164243538962, 38.184979158122125], [13.287204307306496, 38.184948684919576], [13.287276168146432, 38.18487556837213], [13.287330226525048, 38.18480734220801], [13.287392870582124, 38.18474613970015], [13.287442733897587, 38.18467094664469], [13.287477777453356, 38.184617009446384], [13.287540410948683, 38.18455580670125], [13.28759399449907, 38.18450827686458], [13.287625796325491, 38.18445697960673], [13.287657285254207, 38.18441948273475], [13.287713854636834, 38.184403193855495], [13.287846605334469, 38.18439561203062], [13.287868692890605, 38.18448155665502], [13.287902164163947, 38.18459620091949], [13.28788832719505, 38.18467209715591], [13.287922690201205, 38.184748704493664], [13.287981148455016, 38.18482565512401], [13.288112115535963, 38.184894154052195], [13.288220771880031, 38.184886229450136], [13.288349321171744, 38.18474891704251], [13.288425387964732, 38.184652921024906], [13.288527426466189, 38.184499025213285], [13.28861534570931, 38.184422614783756], [13.288668181291456, 38.18426800961978], [13.288695963087982, 38.18413246112285], [13.288724211802482, 38.18397749028282], [13.288859502252997, 38.183979460640465], [13.288957206113373, 38.18401002309798], [13.289062960978045, 38.18402713846641], [13.289147788247922, 38.18405908292147], [13.289224699600357, 38.18409704799266], [13.289309537508041, 38.18412898347516], [13.289386593638143, 38.18416081451126], [13.289463648906088, 38.18419263647294], [13.289556546499044, 38.184212416239106], [13.289539985108647, 38.18425515694343], [13.289507868182026, 38.1842976790942], [13.289444641857575, 38.184339740713234], [13.289366003617772, 38.18437544076919], [13.289327111248404, 38.18437487490936], [13.289256255725912, 38.18441068830578], [13.289185677083578, 38.18443422370223], [13.28913123960653, 38.18443343122291], [13.289064218013296, 38.18450554707712], [13.289016258073575, 38.18456012016652], [13.288945113818931, 38.184608211153424], [13.288858117665166, 38.18466835301851], [13.288817652067955, 38.18473530914587], [13.288777751659914, 38.184777717626915], [13.288722018912479, 38.1848321700728], [13.28868990125242, 38.184874691978486], [13.28864222827203, 38.18491697989134], [13.288602184094238, 38.18496552315326], [13.288825292372886, 38.185073172092665], [13.288816214503955, 38.18512830466194], [13.288768686140395, 38.18516445689113], [13.288690622428682, 38.18517560177635], [13.288620485173041, 38.18518072432764], [13.28858822256208, 38.1852293819285], [13.288477897209036, 38.18528918337475], [13.288406599189777, 38.1853434078159], [13.288375056966741, 38.18536137494269], [13.288288355952567, 38.18540923868089], [13.288240394996034, 38.185463804210606], [13.288230894618067, 38.18553735580063], [13.28819820155565, 38.18560443314661], [13.288145950661326, 38.185666859125234], [13.288067781631474, 38.18571437310145], [13.288003938187863, 38.185750761990946], [13.287930969667382, 38.18579139922551], [13.287837407574496, 38.1858355344593], [13.287769791436315, 38.18587285496797], [13.287696727761206, 38.185912083946235], [13.28762547623574, 38.185946181941766], [13.287555145645124, 38.18597756640071], [13.287487579532849, 38.186005230582616], [13.287421608568545, 38.18603659295015], [13.28735261749256, 38.186067911217286], [13.28727601264494, 38.186100322312555], [13.287187304325368, 38.18613135279663], [13.287067850352614, 38.18617989570056], [13.287023477450148, 38.18619601257642], [13.286963198110687, 38.18619119573813], [13.286916128676072, 38.18618127189387], [13.286883271123457, 38.186159243713384], [13.286870297854257, 38.186130319820364], [13.286902905836264, 38.186098470885355], [13.28695070256219, 38.18606564774723], [13.287013299889201, 38.18602200129196], [13.287137130051306, 38.185987396640996], [13.2873227386398, 38.18594155902644], [13.287401023456697, 38.18588201397997], [13.287556169825194, 38.185823589258845], [13.287634454327922, 38.185764044048014], [13.28756072383922, 38.185629454495796], [13.28740842503136, 38.1855665481787], [13.287255271563, 38.18554004710154], [13.287070234670441, 38.185561617364], [13.28682285866006, 38.18561869636463], [13.286616049661191, 38.18558533662461], [13.286417057462247, 38.185546023982326]]]}, "properties": {"anno": 2011, "id": 3268, "data": "2011-09-08", "localita": "Crocette", "sup_ha": 2.0577, "sup_boscata_ha": 0.0, "sup_non_boscata_ha": 1.6495, "luogo_inizio": "strada comunale", "squadre_aib": 1, "fine_intervento": "2011-09-08"}}]}