{"type": "FeatureCollection", "features": [{"type": "Feature", "geometry": {"type": "Polygon", "coordinates": [[[13.308174443666433, 38.1003464004026], [13.308198583003131, 38.10034640019672], [13.308439981287394, 38.10023664322799], [13.308762441645857, 38.100174245506864], [13.30878598641902, 38.10016065763927], [13.309193682995579, 38.10021553617688], [13.309381437014697, 38.10048992887555], [13.30940289474568, 38.100468822042615], [13.309681844623153, 38.1014946202295], [13.308791350762657, 38.1016170398189], [13.308174443666433, 38.1003464004026]]]}, "properties": {"anno": 2020, "id": 24648, "data": "2020-05-06", "localita": "poggio ridente", "sup_ha": 1.3775, "sup_boscata_ha": 0.095, "sup_non_boscata_ha": 1.2825, "squadre_aib": 0}}, {"type": "Feature", "geometry": {"type": "Polygon", "coordinates": [[[13.260445753350659, 38.111578761055696], [13.260223050097947, 38.10992435503104], [13.260990138425393, 38.10887329942978], [13.262002120595804, 38.107485827715166], [13.262549291762603, 38.10754914364841], [13.262865792223982, 38.10756602750693], [13.26298917313752, 38.10758713270188], [13.263144741855207, 38.10762934248213], [13.263321766861733, 38.10774753094027], [13.26347197095712, 38.10782350816292], [13.263627538714982, 38.10788260258881], [13.26374555690282, 38.10790792812272], [13.263949403816245, 38.10793325412745], [13.2641532524796, 38.10794169631256], [13.26437319283855, 38.10797968569496], [13.264684329821124, 38.10795013804332], [13.264984736531915, 38.10791214928215], [13.265236864449882, 38.10789526507442], [13.265515814871168, 38.10786571838123], [13.265698205012638, 38.10786993983784], [13.265982518342815, 38.10791214970067], [13.266304384129269, 38.1079543598174], [13.266583333593028, 38.107983905967785], [13.266814003142695, 38.108005011521215], [13.266803275234661, 38.107933254039], [13.266470681017953, 38.1078066244707], [13.266030798254372, 38.10765466881486], [13.26554263597509, 38.107498491272914], [13.265124212070777, 38.10746472267246], [13.264630685797894, 38.10735919733542], [13.264040599933605, 38.10722412452111], [13.263734827447857, 38.107063725548954], [13.263541708946464, 38.1068822203299], [13.263588342975105, 38.106654358466784], [13.26621129332062, 38.10657649897348], [13.2695518410464, 38.10704365189247], [13.27363473294463, 38.10760812194394], [13.276381406153982, 38.10772490796636], [13.277866094048889, 38.10762758676409], [13.280668205925858, 38.10769451943028], [13.281359563453654, 38.10806714115266], [13.281935694917161, 38.10840954774142], [13.282511825655774, 38.109033932147156], [13.28320318378495, 38.10937633392698], [13.283984161346089, 38.10976908746633], [13.284048177093968, 38.11022226154601], [13.284969986546972, 38.1112494461952], [13.285853388396754, 38.11211549258833], [13.285968613429008, 38.112810336809844], [13.286199066347166, 38.113756925785786], [13.285904600359599, 38.11464308224114], [13.285354074613693, 38.11544867035793], [13.284585899446615, 38.11636501542478], [13.283894541990787, 38.11703967941888], [13.28352325648978, 38.11759350420995], [13.283666748202046, 38.118257910448385], [13.283926684702898, 38.118809268600614], [13.28400545255978, 38.11929247844231], [13.284438677380418, 38.119744710078464], [13.28507669952485, 38.1202712783643], [13.285848629373852, 38.12055624258165], [13.287164057850624, 38.12066155586023], [13.287999001560229, 38.120853596451106], [13.288990181257097, 38.12092908284771], [13.28997271812796, 38.12076186127404], [13.290597335747378, 38.12056704840762], [13.29053078220592, 38.12041070365343], [13.290073757419574, 38.120179129342816], [13.290075679396642, 38.11997604867084], [13.290061541956325, 38.11981537780039], [13.290131669315102, 38.11966552758871], [13.2902443227489, 38.11956001960707], [13.290340882445633, 38.11944185094552], [13.290426712773503, 38.11936166466848], [13.290560822780147, 38.11917174918615], [13.290652018023044, 38.11897339309553], [13.29073353523527, 38.118731682018755], [13.2907376448559, 38.11863850081093], [13.290783156363215, 38.11851229383767], [13.291290384198073, 38.11869907015222], [13.291687350709118, 38.118859443893136], [13.29183219040515, 38.11899027434568], [13.291944843323058, 38.11923927540072], [13.292498379037792, 38.11931114601258], [13.292819242562574, 38.119154868361925], [13.29325376033627, 38.119049359991244], [13.293613176998898, 38.11901559646307], [13.29390285576049, 38.11891008827849], [13.294106702930012, 38.11877925697293], [13.29427299998304, 38.11877503679241], [13.294503670412658, 38.11877925702668], [13.294863086004327, 38.11891008760175], [13.295195680220164, 38.11933212214785], [13.295131307354954, 38.11987232309303], [13.295066934080305, 38.12020150555173], [13.294922094648987, 38.12062775248046], [13.294240426392138, 38.120817138698094], [13.29402612750709, 38.12105635500426], [13.293500661420433, 38.12138821224369], [13.292950846527843, 38.121766567985375], [13.292462885998042, 38.12183142919084], [13.29096444445834, 38.12210038804264], [13.289383829318188, 38.122643579404944], [13.288321230783747, 38.12284205144143], [13.287293892540271, 38.12355233179278], [13.286339026562331, 38.12343416916107], [13.2853412438573, 38.12345104941624], [13.284332734088865, 38.12364517320225], [13.283249120896707, 38.12360719260369], [13.282385450408713, 38.123404628302495], [13.281280881301333, 38.122827733927366], [13.280266344067396, 38.121932549911605], [13.27910333707235, 38.12047298736509], [13.278410482898902, 38.11907178075776], [13.277816608878718, 38.11739808334793], [13.277717629367991, 38.11656121832647], [13.276925793886633, 38.11531563586613], [13.275391617150518, 38.1145565989481], [13.273362541974373, 38.11443982363142], [13.271580913570723, 38.11405057028735], [13.270195205997481, 38.11383647904591], [13.268710517446864, 38.11381701608877], [13.267003127011202, 38.11356399986278], [13.265122520947475, 38.11348614800007], [13.26311819172306, 38.11288279646098], [13.261336565858526, 38.11251299702128], [13.260445753350659, 38.111578761055696]]]}, "properties": {"anno": 2020, "id": 23110, "data": "2020-05-13", "localita": "Manche di Bellolampo", "sup_ha": 227.6993, "sup_boscata_ha": 32.7266, "sup_non_boscata_ha": 121.1387, "squadre_aib": 6}}, {"type": "Feature", "geometry": {"type": "Polygon", "coordinates": [[[13.332247383472955, 38.07270008530399], [13.332602929637158, 38.07279348444639], [13.333108897524752, 38.07315408523068], [13.333348705987577, 38.07342255476344], [13.3337246033568, 38.07360459604128], [13.333867094795064, 38.07323551611424], [13.333250189208048, 38.072838004031006], [13.332922998192238, 38.0724799377239], [13.332485679741055, 38.07204962493128], [13.332269426892902, 38.071728472972595], [13.332505314877208, 38.07118400647498], [13.333053245277155, 38.07067930664551], [13.333891668117376, 38.07017871986102], [13.33475362633874, 38.06962544634946], [13.335525787553276, 38.06908856667408], [13.336427614854324, 38.06874790193051], [13.337616731917144, 38.06855266239715], [13.338649024378189, 38.06837286679436], [13.339348921650714, 38.068064668805135], [13.340137796216263, 38.06777539307426], [13.340593078781463, 38.06741072043067], [13.341003666090451, 38.06704541494865], [13.34167322732867, 38.06709020168813], [13.34213451191797, 38.06745013424081], [13.342524383116183, 38.06800344312277], [13.343184001072665, 38.068489867019366], [13.343752255196701, 38.069063356509076], [13.344098648394787, 38.069563034072466], [13.34408671176529, 38.070093006941306], [13.343854096498806, 38.0704961725543], [13.343360486521082, 38.0705775767563], [13.343073966132078, 38.070396825608995], [13.342540442239336, 38.07026560679193], [13.34231180129134, 38.07049211138202], [13.341993774064095, 38.07071735517507], [13.341458656299013, 38.07065679452189], [13.341372858069718, 38.070496541839475], [13.340968631501909, 38.070579196723074], [13.34078348149586, 38.070859326484296], [13.340687317335622, 38.07115838215901], [13.340520921803165, 38.07159781878195], [13.340536887791602, 38.071880785550945], [13.3403234033417, 38.0724255850866], [13.33989163160625, 38.07273757413425], [13.339146198836108, 38.073080474787716], [13.338420710211915, 38.0735296809233], [13.337922281650787, 38.073823049450986], [13.337604226586794, 38.074048280592905], [13.33695855104111, 38.07393312182901], [13.336378721274697, 38.07387190594003], [13.335701103396218, 38.074180400908425], [13.334737365419976, 38.07429045487168], [13.333847073391876, 38.07411880054886], [13.332770086143826, 38.07330832327629], [13.332247383472955, 38.07270008530399]]]}, "properties": {"anno": 2020, "id": 22905, "data": "2020-06-04", "localita": "Valle Orecchiuta", "sup_ha": 44.8918, "sup_boscata_ha": 28.2016, "sup_non_boscata_ha": 9.1065, "squadre_aib": 2}}, {"type": "Feature", "geometry": {"type": "Polygon", "coordinates": [[[13.268080304384336, 38.20255817550835], [13.268056164767154, 38.2025033738499], [13.268133948970593, 38.20244435650685], [13.268313657411808, 38.20227573518587], [13.268469224932522, 38.2020270181864], [13.268718670379531, 38.20200383249036], [13.268758903827678, 38.20199329390389], [13.268946658477088, 38.20209868291279], [13.269016395823328, 38.202140837718275], [13.269088815585327, 38.2021302987873], [13.269145142356084, 38.202128191661906], [13.269233654250575, 38.20211870640171], [13.269276570456844, 38.20211659881211], [13.269320826512272, 38.202101844240154], [13.269336919276656, 38.20205652692831], [13.26933557885233, 38.2020154259224], [13.269335578629809, 38.2019637848695], [13.269336919670273, 38.20193006065753], [13.269339601933174, 38.20189949767046], [13.26935837735592, 38.20185523461779], [13.269357036043221, 38.201829940868926], [13.269373129106283, 38.20182994115598], [13.269449572209117, 38.201836264376986], [13.269450913077593, 38.20183731868038], [13.269469689669204, 38.20188579774609], [13.269461641989546, 38.20196378544716], [13.269383858132, 38.201972216102504], [13.26935435443854, 38.201993293593745], [13.269354353650966, 38.20210289822851], [13.269196103333012, 38.20243381774028], [13.269037854013192, 38.20272890324983], [13.26870525987704, 38.20273944270884], [13.268587242637023, 38.20273733503373], [13.268439720940101, 38.20273944285644], [13.268386076927982, 38.20272258012587], [13.268310974386962, 38.20269728761797], [13.268209050919735, 38.20264248551155], [13.268133949610968, 38.2026087616462], [13.268080304384336, 38.20255817550835]], [[13.269365083100796, 38.2019406004791], [13.269362400736444, 38.20194903184405], [13.269442866819896, 38.20193849238179], [13.269445549685322, 38.20188369086401], [13.269442866955758, 38.201854181530386], [13.269381176080458, 38.20185418119373], [13.269365083100796, 38.2019406004791]]]}, "properties": {"anno": 2020, "id": 24673, "data": "2020-06-26", "localita": "Sferracavallo", "sup_ha": 0.6341, "sup_boscata_ha": 0.0, "sup_non_boscata_ha": 0.6341, "squadre_aib": 2}}, {"type": "Feature", "geometry": {"type": "Polygon", "coordinates": [[[13.387737377230847, 38.08426234259748], [13.387727190051466, 38.0840514268681], [13.38787889093628, 38.08388957012457], [13.387853122199724, 38.08371356991955], [13.388108753523642, 38.083541426997364], [13.388008674950918, 38.083376119204786], [13.388116456437448, 38.08319023938639], [13.388267641699786, 38.08305179427561], [13.38876862958705, 38.083175757379706], [13.388928978739253, 38.08329505158398], [13.389193001474979, 38.08341576606726], [13.389442727871282, 38.0835128638358], [13.389721818915955, 38.083622073613405], [13.390074707891424, 38.08374400314204], [13.390297636258957, 38.08371192464296], [13.390377329705942, 38.08345540101733], [13.390569097409275, 38.08349315467225], [13.390698803944822, 38.083658866150856], [13.390751380670412, 38.08396404024241], [13.390684960148269, 38.08429100458048], [13.390560577696526, 38.08455862720449], [13.390260002364538, 38.08475357984467], [13.390037841143396, 38.084750538521256], [13.38975669311504, 38.084734979189975], [13.389474005169804, 38.08478965763252], [13.389309803144595, 38.08484595797581], [13.389128994643201, 38.084983998226], [13.38885752248481, 38.08520276548078], [13.38848673774798, 38.08522110410183], [13.388192318376237, 38.085135101243935], [13.388002601156115, 38.085003693939385], [13.387933683770079, 38.08476855319573], [13.387895158118846, 38.084498700996896], [13.387737377230847, 38.08426234259748]]]}, "properties": {"anno": 2020, "id": 23119, "data": "2020-06-28", "localita": "Monte Grifone", "sup_ha": 4.0949, "sup_boscata_ha": 0.0, "sup_non_boscata_ha": 4.0949, "squadre_aib": 1}}, {"type": "Feature", "geometry": {"type": "Polygon", "coordinates": [[[13.386950490319668, 38.0756132428186], [13.387161920486287, 38.07513940011809], [13.388271327268056, 38.074969207918635], [13.389108126136415, 38.07500715741237], [13.390144738332259, 38.07510080810891], [13.39137189575843, 38.075673798323976], [13.391798069747857, 38.07610339710096], [13.392097214388148, 38.076213429847186], [13.392488162299673, 38.07672200223631], [13.392480634839757, 38.077066214245086], [13.39233912095407, 38.07740859395874], [13.39229462123792, 38.077911213581196], [13.392054352737787, 38.07817278618402], [13.391417915077458, 38.078164082989545], [13.390648071677505, 38.07812706585049], [13.389810075804322, 38.078142081794006], [13.389173059289147, 38.07815984453362], [13.388500804128935, 38.07825657769896], [13.38797008404043, 38.078010933261396], [13.387743157945806, 38.07766350945276], [13.387922254374669, 38.07713625071127], [13.38800318306129, 38.07650170345832], [13.38761110721414, 38.076046072088054], [13.387382446229338, 38.075778080037644], [13.386950490319668, 38.0756132428186]]]}, "properties": {"anno": 2020, "id": 23260, "data": "2020-07-15", "localita": "Sferro Vecchio", "sup_ha": 12.8404, "sup_boscata_ha": 0.0, "sup_non_boscata_ha": 12.8404, "squadre_aib": 1}}, {"type": "Feature", "geometry": {"type": "Polygon", "coordinates": [[[13.293952297627898, 38.20596125464455], [13.29391729676062, 38.20523242277033], [13.294169658864396, 38.20476970621786], [13.294598812578036, 38.203876038718924], [13.294963593050687, 38.203538802442544], [13.29528545761138, 38.203235288638496], [13.295693153618531, 38.20272943017224], [13.296336883449447, 38.20234160206648], [13.296808952733466, 38.201936910423534], [13.297366852926446, 38.201532215614414], [13.297946208877502, 38.20117810698559], [13.298687137637295, 38.20095088570014], [13.29869638278416, 38.200957477454175], [13.299649308889894, 38.20117249459433], [13.300185750994405, 38.20115563133441], [13.300496887315624, 38.201155631932465], [13.300627136291686, 38.20117788323093], [13.300743650313104, 38.20119778806321], [13.300844075938704, 38.20118463494295], [13.301387380144085, 38.201113475709654], [13.30235297547944, 38.20092798908734], [13.30237443413029, 38.20095328245823], [13.302395891168478, 38.20102073320894], [13.30242707963841, 38.20109426067694], [13.302460264707843, 38.20117249405989], [13.302535366274867, 38.20192286654665], [13.302599739545725, 38.20226011049534], [13.302631925598389, 38.202487748836404], [13.302717756364483, 38.2029514543796], [13.302945408762504, 38.20316119226883], [13.303340028161454, 38.203524758972975], [13.30375845321627, 38.203828272335244], [13.304198335358729, 38.204123352942936], [13.304353985786062, 38.20425307781575], [13.303911442530401, 38.20470226021977], [13.303160423956996, 38.20529241330943], [13.302087540944846, 38.206000590127665], [13.30144380906963, 38.20625350828941], [13.30075716411109, 38.20648956440509], [13.300199265180096, 38.206759342676236], [13.300070519391962, 38.20691109314506], [13.299941772669994, 38.20714714734516], [13.299534076984928, 38.20729889620031], [13.299169296885198, 38.20748436619393], [13.298797568237926, 38.20757326472573], [13.298675770933153, 38.20760239293359], [13.298573777122543, 38.20740203205491], [13.29846119340742, 38.20718086919113], [13.297538512910798, 38.207164007700875], [13.296851868478122, 38.20709656395871], [13.296336883780475, 38.2071471471847], [13.294985050571764, 38.206877369798576], [13.29434434404992, 38.206462757593954], [13.293952297627898, 38.20596125464455]]]}, "properties": {"anno": 2020, "id": 24495, "data": "2020-08-10", "localita": "Capo Gallo", "sup_ha": 44.2242, "sup_boscata_ha": 0.0, "sup_non_boscata_ha": 44.2242, "squadre_aib": 5}}, {"type": "Feature", "geometry": {"type": "Polygon", "coordinates": [[[13.355399961980996, 38.06939045132298], [13.355373139023731, 38.06926375437037], [13.35541069006769, 38.069149727031046], [13.355410689744156, 38.06911594143059], [13.35548579214956, 38.06906526244591], [13.355566258162725, 38.06903992332281], [13.355646725163158, 38.06900613730781], [13.355652088592334, 38.0689174496937], [13.35568427524704, 38.0688625472341], [13.355711097177421, 38.068799198544525], [13.35571109740126, 38.068731626448276], [13.355657453225266, 38.068655607520505], [13.355657453655894, 38.0686007052513], [13.355700368833565, 38.068516239790114], [13.355727191137959, 38.068490900574105], [13.355786199785786, 38.0684866769065], [13.355855937207249, 38.06846556092843], [13.355904216612645, 38.06845289162625], [13.355952496947562, 38.068427551589885], [13.356016869841973, 38.06834730910181], [13.356102700388249, 38.06831352300238], [13.356242175411863, 38.06830507622906], [13.356381650302508, 38.06834308652133], [13.356505031588242, 38.068372649102294], [13.356596226909435, 38.06835575567824], [13.356660599226814, 38.068368425489076], [13.356762524020185, 38.06849090049022], [13.356832261139715, 38.06862604482624], [13.356869812355681, 38.06872318017126], [13.35690199837187, 38.068832984205805], [13.356746429834073, 38.06896390547895], [13.35664987088404, 38.06908637857809], [13.356596226798162, 38.06919618268129], [13.356580133641103, 38.06931021042919], [13.35659622702912, 38.06942845980982], [13.356682056974646, 38.069462245393396], [13.356773252299101, 38.06952137079742], [13.356869811751984, 38.06959738824051], [13.356918091729352, 38.069698745160025], [13.356955642984868, 38.06985078003777], [13.356918092192451, 38.069943690304655], [13.356864447870244, 38.070053492707956], [13.356800074327989, 38.07009150137667], [13.356703514749011, 38.0700746091195], [13.356580133183362, 38.069969029584335], [13.356531853200755, 38.069901458129166], [13.356376285436408, 38.06984233422359], [13.356252904385642, 38.06977476292585], [13.356022233484078, 38.06977476305914], [13.355780834653137, 38.069707191936395], [13.35559844540621, 38.06959738820141], [13.355485792279405, 38.069517147715004], [13.355399961980996, 38.06939045132298]]]}, "properties": {"anno": 2020, "id": 24479, "data": "2020-08-12", "localita": "Balzo Cavallo", "sup_ha": 1.7011, "sup_boscata_ha": 0.0, "sup_non_boscata_ha": 1.7011, "squadre_aib": 2}}, {"type": "Feature", "geometry": {"type": "Polygon", "coordinates": [[[13.356637213654428, 38.06777121518175], [13.35663721464538, 38.06763606915684], [13.35669085887026, 38.06753470914879], [13.356744502585592, 38.06742067927701], [13.356803511543713, 38.06734043611728], [13.35691079908973, 38.067293979530156], [13.35700735862821, 38.067243299465865], [13.357114646920023, 38.06719261882224], [13.357195113315795, 38.06718839614312], [13.357216571631092, 38.06717150233336], [13.357221935487235, 38.06715460881444], [13.357297038129062, 38.06723485261565], [13.357345317187855, 38.06733621298035], [13.3573828687131, 38.06747135947818], [13.357393596952976, 38.06757694236626], [13.357415055261848, 38.06771208828188], [13.357484792183708, 38.067889467416194], [13.357538436266484, 38.06804572928279], [13.357581351207786, 38.06819354480521], [13.357554529349414, 38.0683582525749], [13.357457970209225, 38.068510290801], [13.357280944066957, 38.068641211153526], [13.35713610519499, 38.06872145314811], [13.357023451741467, 38.06875101598232], [13.356959079214054, 38.06863276477315], [13.356926892451048, 38.06853562966652], [13.35686788363914, 38.06841737860762], [13.356803510571682, 38.06834135976226], [13.356749866800792, 38.06826956340138], [13.35668549421537, 38.06815975799114], [13.356653307108026, 38.06802883629461], [13.356631849212011, 38.067902137116334], [13.356637213654428, 38.06777121518175]]]}, "properties": {"anno": 2020, "id": 24481, "data": "2020-08-13", "localita": "SERRO CHIARANDA", "sup_ha": 0.9977, "sup_boscata_ha": 0.0, "sup_non_boscata_ha": 0.9977, "squadre_aib": 2}}, {"type": "Feature", "geometry": {"type": "Polygon", "coordinates": [[[13.354283888224803, 38.06576671449596], [13.354283888637214, 38.06568646984953], [13.354337532416638, 38.06557243656056], [13.354369719689988, 38.06551330875729], [13.354434092802128, 38.065445733320864], [13.354482371647554, 38.06540772311221], [13.354546745650985, 38.06537393503836], [13.354573567239957, 38.06531902981565], [13.354584295893163, 38.06525567859169], [13.354627211429229, 38.06515853914072], [13.354616482911194, 38.06508673980634], [13.354627211505035, 38.06498537728005], [13.354573567726236, 38.0649093542477], [13.354578932083617, 38.06481643826384], [13.354654034043474, 38.06475308539955], [13.354707677742391, 38.06474041507047], [13.354777415278935, 38.06470240418135], [13.35484178852232, 38.064668615924674], [13.354932982859852, 38.064613710630645], [13.355088551347219, 38.064550358349095], [13.35535140811152, 38.06452501741155], [13.355383594699157, 38.064525017289476], [13.355383594524902, 38.06450812357572], [13.355362136314607, 38.064495452616875], [13.355329950687024, 38.06447433515692], [13.355329950524697, 38.06445744144334], [13.355356772736421, 38.064444770313116], [13.355405051815689, 38.0644278764012], [13.35547478988217, 38.06439408897612], [13.355576713328373, 38.06436452429376], [13.355694730642488, 38.064343406281125], [13.35582884115734, 38.064288500598785], [13.355914671272165, 38.06423781905238], [13.35593076526152, 38.06418291300459], [13.355914671516759, 38.0641195603592], [13.355893213660323, 38.064060431339094], [13.355941493680442, 38.06398863129386], [13.356016595534788, 38.06396751361807], [13.35616143510544, 38.0639337247391], [13.356343824910287, 38.063845030493724], [13.356520850889439, 38.063832360165165], [13.356520851320418, 38.06376056052836], [13.356553037776665, 38.063680312677825], [13.356542309202911, 38.06367186537275], [13.35664423214284, 38.0636760889753], [13.356719334313562, 38.06368453620405], [13.356810529658684, 38.063714101621194], [13.356864174040881, 38.063760560114176], [13.356944639515616, 38.06377323037354], [13.357084114496967, 38.06378590101368], [13.357169945915025, 38.06378167762448], [13.357287962589476, 38.063781678287874], [13.35738452186432, 38.063794348828125], [13.357481082314807, 38.06380701930565], [13.357502539568564, 38.06381968986674], [13.357529361383211, 38.06387037192158], [13.357572276795278, 38.06391683063239], [13.357609828329274, 38.06394217246222], [13.357674200918332, 38.06396751333696], [13.35774393853117, 38.063984407497486], [13.35780831124053, 38.06398440772452], [13.35785659058751, 38.06399285427732], [13.357872684537194, 38.063971737185476], [13.35789950615368, 38.063933724882716], [13.35796387939036, 38.063971737248885], [13.358033616751362, 38.06403086643083], [13.358108719025335, 38.0641026664723], [13.3581730918784, 38.064174466155606], [13.358242829293781, 38.06425048893329], [13.358328659730688, 38.064330735981194], [13.35838230360019, 38.06440675913941], [13.358301837593622, 38.06456302882683], [13.35817309159924, 38.06471507411417], [13.357942422069465, 38.064926247824474], [13.357781489156363, 38.06508251645629], [13.357593734081458, 38.06523878486778], [13.357427438050586, 38.06540349878873], [13.357250412005513, 38.06555132014829], [13.357073385968006, 38.06572025701903], [13.356831987518968, 38.065868077086975], [13.356526215183278, 38.06603279033054], [13.356215079060787, 38.06618060881949], [13.356005867191131, 38.06627352359889], [13.355882485041072, 38.06631153443426], [13.355710823943882, 38.06630731120727], [13.355694730827539, 38.06630731131327], [13.355394323029671, 38.06623128966361], [13.355249483580252, 38.06617638603378], [13.355142195026534, 38.06614682212693], [13.355040272041938, 38.066113034557546], [13.354932983650906, 38.06608347136429], [13.354804236814303, 38.06604545998533], [13.354670126883555, 38.06600322609748], [13.354568203197603, 38.0659567682827], [13.35443945684959, 38.065889193880345], [13.35432143945733, 38.065813172243345], [13.354283888224803, 38.06576671449596]]]}, "properties": {"anno": 2020, "id": 24325, "data": "2020-08-18", "localita": "Valle Giorgia", "sup_ha": 6.2293, "sup_boscata_ha": 0.9091, "sup_non_boscata_ha": 5.3202, "squadre_aib": 3}}, {"type": "Feature", "geometry": {"type": "Polygon", "coordinates": [[[13.3481482962789, 38.16699636571773], [13.34815634275003, 38.16694153699259], [13.34816438888859, 38.16684242362274], [13.348177799869353, 38.16678548592036], [13.34819389394602, 38.16671167811881], [13.348242172840768, 38.166604129825984], [13.34848089013566, 38.16648814625798], [13.348727653449624, 38.166456513599954], [13.348907360688104, 38.16643964312565], [13.34911389134323, 38.16642488160129], [13.349261413079143, 38.16641644630858], [13.349406252326183, 38.16642066436809], [13.349508175434948, 38.166433316842536], [13.34959132427889, 38.16647971026552], [13.349475989908692, 38.16734853218594], [13.349371383512558, 38.16765852207972], [13.349301646278834, 38.16771756708847], [13.34921045055186, 38.16779137438281], [13.349044153414086, 38.16783354960489], [13.348920771895564, 38.1678398755871], [13.348783979200524, 38.16779980868739], [13.348655233590208, 38.16773654592374], [13.348582813526717, 38.16765430441486], [13.348491619172616, 38.16756151817231], [13.348427245210704, 38.16753832208069], [13.348411152046117, 38.16750668975198], [13.348392377102813, 38.16747927594474], [13.348344097110626, 38.1674434266137], [13.348341415394502, 38.16742023049545], [13.34829581699915, 38.167371728523634], [13.348218033700944, 38.1672810511414], [13.348169753159098, 38.16716295960754], [13.348161706529053, 38.167103913162585], [13.3481482962789, 38.16699636571773]]]}, "properties": {"anno": 2020, "id": 24603, "data": "2020-08-29", "localita": "Monte Pellegrino", "sup_ha": 1.5557, "sup_boscata_ha": 0.2012, "sup_non_boscata_ha": 0.0, "squadre_aib": 4}}, {"type": "Feature", "geometry": {"type": "Polygon", "coordinates": [[[13.389873708225242, 38.079532850333194], [13.389895165932568, 38.07935549964808], [13.38997026764562, 38.07925415608521], [13.389991725779678, 38.079195039046375], [13.390056099061242, 38.07912747648757], [13.390109742342801, 38.07908524987741], [13.390206302955784, 38.079034577700924], [13.390442336427405, 38.07900924170808], [13.390528167668649, 38.0789923512598], [13.390764201766647, 38.07901768684792], [13.39092513442127, 38.0790345775932], [13.391107524341402, 38.078967015642874], [13.391289915415479, 38.078865671336764], [13.391558135706624, 38.07877277252254], [13.391815628203313, 38.078772772541065], [13.392073119909819, 38.07883189018785], [13.392223323272209, 38.07884033504846], [13.392480815778024, 38.0788910076458], [13.39282413799288, 38.07888256216769], [13.392985070817563, 38.0787896632525], [13.393231834504565, 38.07868831944887], [13.393607343798843, 38.07870520996399], [13.393897022589519, 38.07880655376152], [13.393982853180825, 38.07890789810394], [13.394047226029334, 38.079026133036145], [13.394175971678704, 38.079152812337675], [13.394293989251702, 38.07932171805108], [13.394347633334856, 38.079465288311845], [13.394347633092773, 38.079600412176234], [13.394336904460028, 38.07968486498599], [13.394261802636565, 38.07977776180378], [13.394079412512482, 38.079819988026884], [13.39388629296344, 38.079811542861094], [13.39374681824048, 38.07979465300992], [13.393596614297953, 38.07975242618164], [13.39347859706047, 38.07971020037323], [13.393339122436183, 38.07963419273792], [13.393178190040057, 38.07955818618491], [13.393049443961782, 38.07950751414775], [13.39292069846388, 38.07949062406653], [13.392791951509931, 38.07949062396722], [13.392663205589743, 38.07954129506868], [13.392545189094859, 38.079634193077744], [13.39249154494652, 38.079786207613346], [13.392513001691468, 38.079921331211715], [13.392502273409718, 38.08003956411673], [13.39253446016044, 38.08020846789265], [13.392534459496577, 38.08027602934479], [13.392480816227884, 38.0803773716471], [13.392405713452051, 38.080436486949615], [13.39229842578097, 38.080461823124466], [13.392191136918946, 38.08048715828308], [13.39206239106189, 38.080470268146364], [13.391922916452563, 38.080428041818486], [13.391815627694895, 38.08038581608239], [13.391622509137104, 38.08029291921064], [13.391525949643855, 38.080242248119305], [13.391375745667425, 38.08018313192245], [13.391236271214778, 38.08013246152081], [13.39106460913411, 38.080081789978145], [13.39094659255202, 38.08002267330886], [13.390807116733749, 38.079988892519935], [13.390635455523803, 38.07995511230548], [13.390335048193633, 38.07983687836981], [13.390088285299079, 38.07971864513996], [13.389959538733322, 38.07965108319366], [13.389873708225242, 38.079532850333194]]]}, "properties": {"anno": 2020, "id": 24625, "data": "2020-09-03", "localita": "Ciaculli", "sup_ha": 0.0, "sup_boscata_ha": 0.0, "sup_non_boscata_ha": 0.0, "squadre_aib": 1}}, {"type": "Feature", "geometry": {"type": "Polygon", "coordinates": [[[13.395708074526475, 38.06678729501203], [13.395686617201422, 38.06656768022657], [13.395965566821967, 38.066466318914436], [13.396244516576925, 38.06639874451118], [13.396609297357125, 38.066331169961394], [13.396931162467244, 38.06633116976356], [13.39742468824966, 38.06638185085348], [13.397746553915193, 38.06653389255635], [13.397875299932188, 38.06665214715981], [13.398046961227614, 38.0667366151185], [13.39845465670284, 38.06653389276091], [13.39834736882279, 38.06631427651282], [13.398325910651375, 38.066179127478726], [13.398390283558278, 38.06606087235121], [13.398626318150674, 38.06584125526152], [13.39879798009683, 38.06565542410591], [13.398883809882646, 38.06538512399842], [13.398862353078927, 38.065283760847024], [13.398647775877535, 38.06509792955515], [13.39826153820662, 38.064962778173474], [13.398046960988623, 38.064861414779166], [13.397939673235289, 38.0647093697172], [13.39819716545442, 38.06455732374851], [13.398411741728859, 38.06427012588595], [13.398497571727024, 38.064067396696025], [13.398712148911653, 38.06376330264894], [13.399034013763949, 38.063492994854755], [13.399205675923488, 38.06335784168636], [13.399484625702849, 38.06327337012747], [13.400128355632676, 38.06318889824437], [13.400514593354993, 38.063138215213144], [13.401415815601268, 38.06305374408444], [13.401437273394475, 38.06305374399475], [13.401651850123633, 38.06315511022283], [13.401844968777356, 38.06339162939603], [13.40184496899536, 38.06349299495047], [13.401995173143145, 38.063729514212845], [13.402338495707436, 38.06403360816421], [13.4028749369393, 38.06432080789787], [13.40311097211535, 38.06464179334715], [13.40336846420576, 38.06465868753883], [13.403497210178177, 38.064557323768106], [13.403668870864792, 38.064320807481835], [13.403690329436813, 38.064084290955826], [13.403797617374709, 38.06391534938414], [13.403926363825887, 38.06378019659761], [13.404119482484315, 38.06381398454728], [13.40405510929745, 38.06398292618579], [13.403990736833322, 38.06420254922268], [13.403883447852198, 38.06435459533723], [13.403883447437616, 38.06445595999083], [13.403947821428563, 38.0646586876914], [13.404033652023042, 38.06476005102418], [13.40472029699027, 38.064912096898745], [13.404827585733974, 38.06496277844701], [13.404956331612683, 38.06509792911204], [13.405149450953873, 38.06531754911446], [13.40525673937526, 38.065520274555666], [13.405299653915868, 38.06580746771896], [13.40512799277816, 38.06587504195654], [13.404956331483277, 38.0659595106463], [13.404784670672958, 38.06629738348214], [13.404376973905835, 38.0663142762869], [13.404098024941893, 38.066314276845446], [13.403861990871679, 38.06614534034458], [13.403904905110867, 38.06636495692205], [13.403861989890913, 38.0666014667363], [13.403583040996157, 38.066736614683485], [13.403304091369383, 38.06712516356059], [13.40285348024969, 38.06766574975482], [13.402660360264075, 38.06810497336573], [13.402252664909541, 38.068442836335095], [13.401780596452321, 38.06851040838966], [13.401802054037443, 38.06835837040102], [13.401608934488582, 38.068206332809645], [13.401329985398919, 38.06808808008079], [13.401072492695565, 38.06800361425382], [13.40075062841692, 38.067851576198855], [13.400257101222639, 38.067682643408816], [13.399999609551765, 38.067547497485656], [13.399763574953145, 38.06747992368977], [13.399398794336138, 38.0673785637714], [13.399012555891778, 38.0672265236933], [13.39871214869942, 38.06729409703839], [13.397982587674026, 38.06747992404919], [13.397510519295167, 38.06764885701826], [13.396544924448328, 38.067598177325294], [13.39605139735182, 38.06732788406268], [13.395708074526475, 38.06678729501203]]]}, "properties": {"anno": 2020, "id": 24348, "data": "2020-09-05", "localita": "valle del porco", "sup_ha": 25.7891, "sup_boscata_ha": 0.0, "sup_non_boscata_ha": 25.1375, "squadre_aib": 6}}, {"type": "Feature", "geometry": {"type": "Polygon", "coordinates": [[[13.289559583357024, 38.10480480788574], [13.289516668049242, 38.10436580441997], [13.289623956038373, 38.10383393183371], [13.290010195017135, 38.10342869285595], [13.290364245871759, 38.103192302726654], [13.290739755640203, 38.1029559119368], [13.291147451170291, 38.10311631975669], [13.293754557953056, 38.10381704692166], [13.293636540667796, 38.10415474503666], [13.294258813307351, 38.104348919706986], [13.294602136496653, 38.104205399472086], [13.294870357119494, 38.10420539919481], [13.295363883325896, 38.104188514094766], [13.295878868235906, 38.10373262293828], [13.296715717057879, 38.10455997938793], [13.296790818452628, 38.1045853064199], [13.29698393755138, 38.104610634016396], [13.297048310644678, 38.10471194227899], [13.297155599300442, 38.10493144302367], [13.297659854866751, 38.10549707665588], [13.297863702882042, 38.10592763061963], [13.29781005857841, 38.106079590330026], [13.297724227421238, 38.106223107249065], [13.29706976882032, 38.10661144621249], [13.295996885183161, 38.1066620996821], [13.295396070147941, 38.106611446187536], [13.294258813677429, 38.10634129826782], [13.293722372033944, 38.10629064458575], [13.29229543713435, 38.1067127516831], [13.291437129505312, 38.10681405766626], [13.290975790336393, 38.106721193936174], [13.29017112679007, 38.10645104624715], [13.289838532755851, 38.1061640117673], [13.289677600580488, 38.10570813239641], [13.289602498522033, 38.1053451153352], [13.289559583357024, 38.10480480788574]]]}, "properties": {"anno": 2020, "id": 24677, "data": "2020-10-03", "localita": "Madonna Del Ponticello", "sup_ha": 21.0821, "sup_boscata_ha": 8.6296, "sup_non_boscata_ha": 12.4525, "squadre_aib": 13}}]}