{"type": "FeatureCollection", "features": [{"type": "Feature", "geometry": {"type": "Polygon", "coordinates": [[[13.394637967405803, 38.065791399041856], [13.394653129186059, 38.065874582731595], [13.39464318131823, 38.06633023481055], [13.394457426415814, 38.06671336570733], [13.393858145440092, 38.06674024520772], [13.393010810844691, 38.066956565342764], [13.392442506843048, 38.066580663472], [13.392272450245114, 38.06624526377657], [13.39213688441781, 38.06556653656677], [13.392527539678783, 38.06554815360708], [13.393433255141074, 38.06583090340261], [13.394637967405803, 38.065791399041856]]]}, "properties": {"anno": 2007, "id": 162, "data": "2007-06-14", "localita": "PURTIDUZZI MONTE GRIFONE", "sup_ha": 2.3672}}, {"type": "Feature", "geometry": {"type": "Polygon", "coordinates": [[[13.376316130993127, 38.067634755214996], [13.376374268463673, 38.068261491330475], [13.376437948010537, 38.06871708649472], [13.376358052256242, 38.06899580804461], [13.376048502546562, 38.06965611970753], [13.375100821301992, 38.07009424897765], [13.374741554139844, 38.07033413229562], [13.374002290794845, 38.070417189047554], [13.373296640092446, 38.07031415715464], [13.372558924356005, 38.07032727036101], [13.372198357290157, 38.070625424956845], [13.371880988154663, 38.070970812693496], [13.371781423205906, 38.071470787292405], [13.371728155036795, 38.071878127347034], [13.371841205342081, 38.072101221005425], [13.372469536073297, 38.072366422634275], [13.37278462559397, 38.07279051979657], [13.372201812975321, 38.07246765237484], [13.371639201300091, 38.07256479888364], [13.371017868724467, 38.072649469922105], [13.37019616132806, 38.07259144870595], [13.369931794763767, 38.0725411476356], [13.369432034631725, 38.072464264081965], [13.368677224479896, 38.07258205010367], [13.368676706841564, 38.071940778256945], [13.368000279263276, 38.071849778904735], [13.367715480358388, 38.072055695838365], [13.367663223299955, 38.07241641034997], [13.367655977409166, 38.07274277131524], [13.368262567258796, 38.073322497138136], [13.367672681710298, 38.07318605917925], [13.367298384515493, 38.07277278639266], [13.367003509688345, 38.07210410950958], [13.36702498567301, 38.071801263738486], [13.366868768936163, 38.07086634608401], [13.366518657980093, 38.070029006564525], [13.366494866560464, 38.06977216993687], [13.366279407156025, 38.06951267132763], [13.365559552330947, 38.06938607730202], [13.365119313001335, 38.06928668336272], [13.364165157800699, 38.068422283741036], [13.364066880180937, 38.068199389387324], [13.363812131769643, 38.06771781223646], [13.361877908013012, 38.065832388119404], [13.361574017552996, 38.065571649069255], [13.361014110529386, 38.064887606398294], [13.360523508496986, 38.06440273502125], [13.360497921437442, 38.06422748844592], [13.360545788202563, 38.064064924481734], [13.360859021404712, 38.06390605874176], [13.361556339588546, 38.0637175646994], [13.361871127698217, 38.06348876204275], [13.36193554986919, 38.06324481187573], [13.36219396124215, 38.06289862992051], [13.362538486865152, 38.06265857934114], [13.362995241725441, 38.06267659636037], [13.363374040198126, 38.06275182397602], [13.363750858817783, 38.06304855005478], [13.364424346970678, 38.06326778538553], [13.365144658804518, 38.06337107487545], [13.36558900808181, 38.06328397452305], [13.365739282663762, 38.063157809649496], [13.366347350993003, 38.06300302456288], [13.366704018488521, 38.062879724820114], [13.36702818631799, 38.06277817862908], [13.367506578169548, 38.063040044777495], [13.3679503976398, 38.06358691646713], [13.367938438738136, 38.06412745004584], [13.368494222596468, 38.06476599291248], [13.368366324947473, 38.06539503226169], [13.368354367188122, 38.06593556576987], [13.368458353091306, 38.06638759537266], [13.369124124571844, 38.06720789695381], [13.369228116775847, 38.06765992502874], [13.368754374908805, 38.068464392662875], [13.368288595989556, 38.06890850230168], [13.368162680816452, 38.06944745118503], [13.368936455437511, 38.070539605329216], [13.369260395501563, 38.07135515603537], [13.370863766829274, 38.07101695485522], [13.37224517597603, 38.07040530332148], [13.373512606361771, 38.06979205495523], [13.374092315716874, 38.06934950361883], [13.375605479492735, 38.06792858562908], [13.376316130993127, 38.067634755214996]]]}, "properties": {"anno": 2007, "id": 150, "data": "2007-06-25", "localita": "CHIARANDA-SCALA DEI MULI", "sup_ha": 51.5551}}, {"type": "Feature", "geometry": {"type": "MultiPolygon", "coordinates": [[[[13.269107262949218, 38.18377552957415], [13.269374617119231, 38.18343281618221], [13.269785493524164, 38.181795014415464], [13.271331144218104, 38.183559471984346], [13.271880600776246, 38.18444819400376], [13.272731066319562, 38.18414758618212], [13.27302954024223, 38.18411283462288], [13.27536378557336, 38.18234419723489], [13.27609701653246, 38.18280506387065], [13.27519081657235, 38.18441604940228], [13.275115802094943, 38.185491280761916], [13.277795053605054, 38.186528646141234], [13.28017128966891, 38.18779635248868], [13.279191182095241, 38.189386716281255], [13.27711866578748, 38.18996299613281], [13.27431911587184, 38.19086124708652], [13.274015776716743, 38.1910974149203], [13.27389045134055, 38.19092538015024], [13.273442397125205, 38.19055832616985], [13.272772450522266, 38.18991765935281], [13.271880623617434, 38.189003376115046], [13.272459804043894, 38.18865145489562], [13.272700827454212, 38.18811432165307], [13.272726334783375, 38.18703332755603], [13.274115036275834, 38.18624275090001], [13.274814683642754, 38.18562224936362], [13.274597038122888, 38.1851684756091], [13.273912261322922, 38.18515839589171], [13.272213076966349, 38.1845926828835], [13.270283536784186, 38.18411366237059], [13.269148650153353, 38.18382657165325], [13.269107262949218, 38.18377552957415]]], [[[13.269059416327691, 38.19881754157762], [13.26904305839109, 38.19883950767043], [13.268736167242785, 38.19922637846646], [13.268724170089795, 38.199226511506744], [13.268312290754878, 38.19999293099621], [13.268294741250436, 38.20073229220964], [13.268024674402637, 38.20105374372165], [13.267411207222382, 38.20083760182548], [13.267006328933123, 38.2005209879062], [13.266732829235085, 38.20016526848893], [13.267175864762486, 38.2000382552552], [13.268355483266573, 38.19943274478017], [13.269059416327691, 38.19881754157762]]], [[[13.271391202251175, 38.19637876269833], [13.271406063753558, 38.19648681014291], [13.270910994845961, 38.19690854445924], [13.271391202251175, 38.19637876269833]]], [[[13.25672877243387, 38.16666034613631], [13.256220487342043, 38.16765586983778], [13.256177687309501, 38.16759406667733], [13.256302508889993, 38.16714535178605], [13.256655528812168, 38.166700029062916], [13.25672877243387, 38.16666034613631]]], [[[13.258835923548082, 38.14436614364268], [13.259538213190572, 38.144639172396246], [13.260560947320338, 38.14565603641353], [13.260560099207298, 38.145656191467616], [13.260243012747669, 38.14539620657068], [13.259457366734306, 38.14484386578842], [13.258835923548082, 38.14436614364268]]], [[[13.253377775713476, 38.13883750333498], [13.25403473506762, 38.13917222957474], [13.253775075193246, 38.13908220978457], [13.253377775713476, 38.13883750333498]]], [[[13.24882528139142, 38.13574056071208], [13.251214544904675, 38.13657450722034], [13.252490254884812, 38.13814871163037], [13.252318083938142, 38.13797913951779], [13.251758538961104, 38.137520230272195], [13.251084948634062, 38.13705961819145], [13.249832510675953, 38.13695082618316], [13.248833965983428, 38.135764445010096], [13.24882528139142, 38.13574056071208]]]]}, "properties": {"anno": 2007, "id": 156, "data": "2007-06-25", "localita": "MONTAGNOLA-C. MASTRANGELO", "sup_ha": 38.2164}}, {"type": "Feature", "geometry": {"type": "MultiPolygon", "coordinates": [[[[13.302989352514214, 38.09312191654794], [13.30319229202015, 38.09333977758439], [13.303346295182575, 38.09368327611747], [13.303527281052697, 38.09402716409562], [13.30359689631013, 38.09451875208035], [13.303747949263807, 38.09499018586336], [13.303874484618838, 38.09535461709319], [13.303681674783133, 38.09552247252045], [13.30310964774972, 38.09574884433659], [13.3030608224895, 38.09576915729262], [13.302494473103637, 38.09464954886137], [13.302517306956254, 38.09365860855469], [13.302985711194822, 38.0931246909512], [13.302989352514214, 38.09312191654794]]], [[[13.298797436297942, 38.09965168970174], [13.299070605478057, 38.099999076530615], [13.298983235296062, 38.10027509878004], [13.298656473319067, 38.10039834947516], [13.29786605087487, 38.10072818635612], [13.297240976657822, 38.10091110381151], [13.296889698319008, 38.10092734597752], [13.296723172922137, 38.100879253522635], [13.296763151931113, 38.10087458292487], [13.29768348714175, 38.1005274735472], [13.297581981727793, 38.09998530972755], [13.298386213014721, 38.09972662630315], [13.298797436297942, 38.09965168970174]]]]}, "properties": {"anno": 2007, "id": 163, "data": "2007-07-19", "localita": "TIMPONE DI SCIROCCO", "sup_ha": 3.3436}}, {"type": "Feature", "geometry": {"type": "Polygon", "coordinates": [[[13.350854410191731, 38.17002460190591], [13.350549122280622, 38.17036403572104], [13.350357123013854, 38.1708643413798], [13.349993379774606, 38.17096821343192], [13.349135123475689, 38.170847178297045], [13.349019938065798, 38.17077010954553], [13.348952945843083, 38.17044221683781], [13.348657879403373, 38.17032908435101], [13.347834542593972, 38.17007438930203], [13.347350295442206, 38.16986638211204], [13.346785782008425, 38.169447658383795], [13.346546897104972, 38.16920117731431], [13.346275700934846, 38.16926150959147], [13.3459887900209, 38.16925747065165], [13.345877028592303, 38.16902954452849], [13.345479516358031, 38.16827782769718], [13.345419944251217, 38.16809256011889], [13.34569090434257, 38.16786164312108], [13.345493186629293, 38.16767442175858], [13.345121668670306, 38.16765242208629], [13.34462908792829, 38.16781315236255], [13.344322476336307, 38.167741761721985], [13.344140713164439, 38.16732003058655], [13.344721111466946, 38.16565601855763], [13.34510667052428, 38.165057844057216], [13.345723306629372, 38.16504975945129], [13.346121196027417, 38.164845776860545], [13.345924930946968, 38.16414373534416], [13.346225281217185, 38.164022209080095], [13.348133450555787, 38.16424186824137], [13.348359059857325, 38.16460552669683], [13.348494927640159, 38.16517750696368], [13.349499031297027, 38.16542634935816], [13.34997013504378, 38.16527368465347], [13.350306885861418, 38.16448198757689], [13.352110442501587, 38.16368571824523], [13.352481557848279, 38.16393585330116], [13.35292304076248, 38.16368216085116], [13.353749910793473, 38.163777577640985], [13.354011763523431, 38.16394891443668], [13.353079098529207, 38.16477418789737], [13.353044580008133, 38.16489107013001], [13.353030169865118, 38.165058529940474], [13.353242152918687, 38.16555612084616], [13.353389256651308, 38.16610310599652], [13.352017328307763, 38.166648921361116], [13.351856805522289, 38.166696972618006], [13.35174242014095, 38.16705585502176], [13.351863108742743, 38.16735934296907], [13.35291188053622, 38.16798603348561], [13.353113049913166, 38.16849185999748], [13.353059032313686, 38.16900248316548], [13.35321822828394, 38.16952714187512], [13.353153390658369, 38.17004600137376], [13.352454683022122, 38.16944937677118], [13.352673011772168, 38.1687230850689], [13.352443606269444, 38.16852705242898], [13.352301840999491, 38.16821487395888], [13.352105806823724, 38.1679522453365], [13.351906938329737, 38.16781532299054], [13.351811882120066, 38.167788842219295], [13.351243498808792, 38.16825825119386], [13.350593777885118, 38.16784673262687], [13.350440476158306, 38.16804577790443], [13.351141235636652, 38.16855023225516], [13.352053989325508, 38.1695522672827], [13.35222687719199, 38.16996840257798], [13.351833327668283, 38.16997965205993], [13.351036390595732, 38.16996847256453], [13.350854410191731, 38.17002460190591]]]}, "properties": {"anno": 2007, "id": 160, "data": "2007-07-22", "localita": "MONTE PELLEGRINO", "sup_ha": 41.1035}}, {"type": "Feature", "geometry": {"type": "Polygon", "coordinates": [[[13.392418023767002, 38.07841225894892], [13.392664283119775, 38.07900770223546], [13.392655321443641, 38.07941748057524], [13.391866244940783, 38.07993045530255], [13.391117316156375, 38.08124100093586], [13.390812353950656, 38.08201108428412], [13.390568977912729, 38.08259983177068], [13.390246670826583, 38.08284591510905], [13.389322510447931, 38.08294712243519], [13.388968400979453, 38.083329400325525], [13.38864608539158, 38.08357547905075], [13.38835706311931, 38.08361706288489], [13.388102836423576, 38.083385856119], [13.387849773441177, 38.0817883328103], [13.38757823936272, 38.08103312766812], [13.387712922066035, 38.08014685805959], [13.388122626566924, 38.07985643522346], [13.388131113830925, 38.0794694231811], [13.387905702416722, 38.079238611265566], [13.388057194593335, 38.078899104707865], [13.391758604622584, 38.07826660980363], [13.392418023767002, 38.07841225894892]]]}, "properties": {"anno": 2007, "id": 161, "data": "2007-07-22", "localita": "PIZZO CROCCHIOLA", "sup_ha": 16.1171}}, {"type": "Feature", "geometry": {"type": "Polygon", "coordinates": [[[13.27741457848454, 38.111921721867766], [13.277497065548468, 38.111960705183684], [13.277673927276743, 38.11196661228274], [13.277789309686597, 38.11176753854885], [13.277791266005766, 38.11153293012118], [13.277590767583437, 38.11133222018011], [13.277169272677616, 38.111115386386324], [13.276754556212408, 38.11084367256228], [13.276630173269293, 38.110608410049686], [13.276584595292634, 38.11001414638675], [13.276837199553363, 38.10927167308218], [13.277430660659578, 38.10856591324713], [13.279368010912085, 38.10807176683239], [13.282041690637525, 38.10867958894922], [13.28206563184291, 38.108532706794314], [13.282513255951267, 38.10870760484463], [13.283078748183504, 38.10939233409683], [13.284097608019156, 38.110032623772526], [13.28428093291167, 38.110482024452054], [13.285194264171798, 38.11149090860574], [13.285413480514055, 38.111787668555884], [13.28538788504768, 38.112147072222115], [13.28573443828114, 38.1121229594403], [13.287975869569502, 38.11153538551875], [13.288173290361248, 38.112120439686976], [13.288027857225051, 38.11213467734308], [13.28770519361744, 38.112187939536], [13.287248584511927, 38.11239527286335], [13.286503723218779, 38.11308033949291], [13.28668591413216, 38.11397481321507], [13.287250090095391, 38.11528556259547], [13.286387422920445, 38.11569547989376], [13.28429946885089, 38.11680794707351], [13.283357431219706, 38.118405487585854], [13.283167583999917, 38.11843945450823], [13.283042259293696, 38.11831401564737], [13.282323073814677, 38.11769588602937], [13.281542826039928, 38.11771088904242], [13.281326248716706, 38.117905667602024], [13.281348490096685, 38.117970858687656], [13.28175255044641, 38.11877163871976], [13.281016267538762, 38.12097852674444], [13.281281323996918, 38.121625478985045], [13.28155052147725, 38.121920250259144], [13.281965094012033, 38.12189589524753], [13.282193454611189, 38.121789745501495], [13.282724867351444, 38.12133323626985], [13.283153317873436, 38.12071894600109], [13.283699903600727, 38.120719258258724], [13.284203469011976, 38.12095396578592], [13.284433622385691, 38.12101255535138], [13.284721218974708, 38.121001549407424], [13.285271799813458, 38.120899543795325], [13.285351579418425, 38.12118698009606], [13.28530605125492, 38.12134399662065], [13.285003599926352, 38.12172665307185], [13.285645890543757, 38.12187428093715], [13.286379583243995, 38.12191686879224], [13.286355902603459, 38.121616435789825], [13.286625933748496, 38.12066936758624], [13.288449086899265, 38.121033094303414], [13.288401415053949, 38.121202133167245], [13.288828101926693, 38.121384575183555], [13.289895390257106, 38.12099805352547], [13.290547689004116, 38.12073950555439], [13.291486514518178, 38.12049150073682], [13.291890884749757, 38.12047184921632], [13.292750159424529, 38.120343932221864], [13.293241278590553, 38.12041488129985], [13.29370519854647, 38.12061306937986], [13.29405368500009, 38.12091168945508], [13.29430962992181, 38.12136851050703], [13.294214705109145, 38.12162878729204], [13.293528026686642, 38.1219762013672], [13.292448161049052, 38.122209410376726], [13.291277222529802, 38.122537012644834], [13.29088124953855, 38.12288863636632], [13.289943927083083, 38.123589764845434], [13.289621628231705, 38.12386397894236], [13.289642170343686, 38.1238770324148], [13.28968285383886, 38.12392466347469], [13.289726283898325, 38.12402222984672], [13.2897257495628, 38.12408712195206], [13.289620611519839, 38.12419390846134], [13.289347875751082, 38.12431731553989], [13.289650735002605, 38.12475814261409], [13.289668986771632, 38.12484559252662], [13.289573557717898, 38.12492247700568], [13.289351893361976, 38.12498374567027], [13.288811495395581, 38.12499597589264], [13.288763213363007, 38.124700274811566], [13.288532045410754, 38.12457608417169], [13.288194342393574, 38.1245442229126], [13.288024198158704, 38.12450623125451], [13.287859223025384, 38.12455648199064], [13.28690351934824, 38.124943800924235], [13.286847271059989, 38.12486863720998], [13.286876582935566, 38.12478585936106], [13.286112271319638, 38.12435507578782], [13.283389313040846, 38.12564843387232], [13.283331823390494, 38.126579068163835], [13.279703810995148, 38.12675579687088], [13.27739912943887, 38.127547371298604], [13.27669448150792, 38.12889955975808], [13.278866065186724, 38.129660413508596], [13.280386368584278, 38.1317272705338], [13.281958169399342, 38.131802510608736], [13.283360766139825, 38.13281244542157], [13.280826605806057, 38.13542532720579], [13.2803393326108, 38.135708417122345], [13.279182608086575, 38.13698869613216], [13.278519092266773, 38.136172815923416], [13.27832997577863, 38.134853241612674], [13.277609750869793, 38.133066675634254], [13.277129383334138, 38.135383432208975], [13.277840999676977, 38.136064917420384], [13.277699205831762, 38.13651225127974], [13.276596546007697, 38.13584503322117], [13.276218399935816, 38.13607990852486], [13.275042700108365, 38.13607857872439], [13.274405011836986, 38.13570389082928], [13.273251683048079, 38.135126918999696], [13.271865425035289, 38.13535431279782], [13.270102784303338, 38.134887945739116], [13.269925677800295, 38.135690285860164], [13.269349026305937, 38.13540177833576], [13.270120027191904, 38.13422407827601], [13.269495249507967, 38.13406997242782], [13.268823095870639, 38.13502298937342], [13.268416615116282, 38.13477249547647], [13.26908105068331, 38.1336871148658], [13.26868744688328, 38.13365723268413], [13.268476867353467, 38.13388598126733], [13.267565068012972, 38.133609668800275], [13.267306342254134, 38.133972816601144], [13.266350817134102, 38.13294641359939], [13.26688113047612, 38.13244073498253], [13.266416239778263, 38.1321481436837], [13.265873064542125, 38.13243320845846], [13.265410747901381, 38.13218473649013], [13.265946207891849, 38.1317673068092], [13.264432135448057, 38.13076121230914], [13.263901814789532, 38.13126688073867], [13.262190036923831, 38.130710109744435], [13.262499498379327, 38.13025669655983], [13.263705271618601, 38.129814899871604], [13.263996037887303, 38.128079896954816], [13.260500354385114, 38.12775507044604], [13.258206798405235, 38.12772584626622], [13.255540229690661, 38.128553406563576], [13.25482238384389, 38.12942086952129], [13.252332608060968, 38.129577889420425], [13.250358627246996, 38.12968892048927], [13.249106329387782, 38.12918309037827], [13.249115373392847, 38.129159774086034], [13.249115482619661, 38.12913992385829], [13.249135426535549, 38.12900530354533], [13.249139412330114, 38.12889306466534], [13.249133822254764, 38.128795749671525], [13.249508982785944, 38.12748597995931], [13.251224381905233, 38.12490118075691], [13.251980370443635, 38.122563140003116], [13.252190339460284, 38.121997094575356], [13.25288283865896, 38.12141744206241], [13.25347339995922, 38.12104331349587], [13.25729774743094, 38.1205640032668], [13.260313304912705, 38.1201236557632], [13.263370812841512, 38.119275417825754], [13.265862989787012, 38.11841876027227], [13.268613977140982, 38.1182295649465], [13.269297717717668, 38.11800988976804], [13.269502978021793, 38.11752789646579], [13.26952166845048, 38.1167368327169], [13.269435018511123, 38.11630159696161], [13.268581021801403, 38.11552321036689], [13.267018728231955, 38.115321501762196], [13.266501938383946, 38.11531388295452], [13.265564051602263, 38.11535110397522], [13.264641103218885, 38.11543959234895], [13.26415691637255, 38.115419680688696], [13.26289149484008, 38.115643496167365], [13.262578747894498, 38.1158877634358], [13.262304050860216, 38.11589008544719], [13.262015726981067, 38.11544548132656], [13.26174163668167, 38.11542228349969], [13.261212079582437, 38.11561228774686], [13.260635241962241, 38.11598618196024], [13.26047033102941, 38.11584009194175], [13.260588044898398, 38.11569878223989], [13.26064058432213, 38.11552725252305], [13.260541066334891, 38.115296036556906], [13.260440032980009, 38.11512861548957], [13.260202844934351, 38.11474220054894], [13.258245716868723, 38.11399208198121], [13.256780453055084, 38.11277059503064], [13.256630501783723, 38.112283357600724], [13.257283985879495, 38.1112974919044], [13.259125005361776, 38.10928260266816], [13.26005500120318, 38.10845082490036], [13.260382170913196, 38.10919802758413], [13.260149633346789, 38.11199718838754], [13.260269371795912, 38.11197129142926], [13.260263892256813, 38.11203725001968], [13.260748156184466, 38.111932512214906], [13.261317612083076, 38.11183571026862], [13.262663498057362, 38.11181791176435], [13.264648291330325, 38.111708639839705], [13.266722248991773, 38.11151495115616], [13.26838945576667, 38.111603606582804], [13.268520978626, 38.11099529660271], [13.26864264260683, 38.11005747637312], [13.269066429605985, 38.10999979826708], [13.26971074451709, 38.11001317531833], [13.269915506584113, 38.110040613254675], [13.270276247400874, 38.11027620130396], [13.270464222870656, 38.110461888719115], [13.270550776316801, 38.110474568392526], [13.270578485464606, 38.110501939502164], [13.270931852596513, 38.110553708111574], [13.271589384405662, 38.11049725090856], [13.272252956454587, 38.11047576151938], [13.273121342853154, 38.110498858068425], [13.273324554712445, 38.11066155702056], [13.273639018761584, 38.11083292085379], [13.273922345975809, 38.1109492088155], [13.273938570692499, 38.110949018276834], [13.274036611316427, 38.11098925719487], [13.27462423862251, 38.110982337842586], [13.275718914040933, 38.111146806154665], [13.277030372667106, 38.111754102364564], [13.277382796694338, 38.111920660096445], [13.27741457848454, 38.111921721867766]]]}, "properties": {"anno": 2007, "id": 157, "data": "2007-08-21", "localita": "MONTE CUCCIO", "sup_ha": 594.5267}}, {"type": "Feature", "geometry": {"type": "Polygon", "coordinates": [[[13.289165110914006, 38.151424102245485], [13.28885920700385, 38.15191705400775], [13.288988263480125, 38.152177929250826], [13.289080199060953, 38.15252782629766], [13.289324387731291, 38.152813607263894], [13.289645179797132, 38.15300992963186], [13.290200148567727, 38.15317249525028], [13.290419545947453, 38.15339824016022], [13.290814958389998, 38.15374469217711], [13.291355640519237, 38.15396420476921], [13.291759965784777, 38.15412835578005], [13.292243115234196, 38.154324503445395], [13.293038894377883, 38.15487413756466], [13.292825043167266, 38.155653677973255], [13.292419884285222, 38.15681643229323], [13.29298317935873, 38.15756750714516], [13.292701715674143, 38.15797572898392], [13.291775100061988, 38.1572789547739], [13.29057066699684, 38.15575070161422], [13.290522540821739, 38.15519056349279], [13.29068294577575, 38.154540797450316], [13.290697895306304, 38.15427497516027], [13.290381144106169, 38.15408158649833], [13.289904966072031, 38.153705113032146], [13.289161093972597, 38.153451727790184], [13.289010075421933, 38.153366101454466], [13.288941359457121, 38.153265913717654], [13.288841829699, 38.15307072069274], [13.288539550680026, 38.15292941028407], [13.28823066961807, 38.15282300161073], [13.288068173698903, 38.1525975415749], [13.287956446715134, 38.15234737251111], [13.287649100187204, 38.15205627992273], [13.287518987113655, 38.15173613137782], [13.28803141530664, 38.15163008854771], [13.288481817840475, 38.15119060205388], [13.289165110914006, 38.151424102245485]]]}, "properties": {"anno": 2007, "id": 151, "data": "2007-09-29", "localita": "COZZO DEL MONACO", "sup_ha": 8.9827}}, {"type": "Feature", "geometry": {"type": "Polygon", "coordinates": [[[13.305538689062253, 38.14876629473647], [13.30612202389654, 38.1490734659728], [13.307086702593711, 38.14991195009148], [13.308099960133278, 38.151501544631145], [13.309402494716522, 38.1534473153995], [13.309614266999471, 38.15424206331083], [13.309644682812856, 38.155185672777435], [13.309722749074876, 38.15609957332618], [13.309715471851353, 38.15701304721099], [13.309521338720172, 38.15757367057317], [13.309082090188252, 38.15795337806556], [13.308664608070305, 38.15798126989252], [13.308096430078058, 38.15788112039561], [13.30598723734696, 38.15718928861033], [13.305059560004159, 38.15698251853046], [13.304493672265949, 38.1565978235911], [13.304478675916002, 38.15610356131049], [13.304561043594942, 38.15529528757367], [13.30486964011526, 38.15465287020332], [13.305310936247947, 38.15401860151913], [13.305258195811918, 38.153501689486205], [13.30504400887234, 38.15301391596548], [13.30515594691332, 38.152707102837624], [13.304733023987215, 38.15225549592058], [13.304416123321571, 38.15155779619811], [13.303765434206527, 38.15076815887103], [13.303782510196582, 38.15068475241519], [13.303578379156615, 38.15034719276867], [13.303273567864085, 38.14978112040977], [13.302514167158218, 38.14923238196369], [13.302001643225449, 38.1484840485238], [13.301080934560673, 38.148363187047174], [13.30020008290361, 38.14848190244871], [13.298841444493602, 38.148964161297386], [13.296956729725716, 38.14839476878045], [13.296422179597018, 38.14794485482123], [13.2950216420929, 38.14762578206907], [13.294451272454014, 38.147414348831035], [13.293163468025726, 38.1474554045031], [13.292414918956592, 38.14774329056999], [13.291312931865463, 38.147854192165454], [13.290919997966308, 38.14782457743362], [13.289607501700191, 38.14762622597926], [13.289486042092433, 38.146345761377646], [13.289334371760676, 38.14571018163844], [13.288607343424838, 38.145078173619225], [13.288136478049196, 38.14449769480478], [13.287193588920333, 38.14209387010898], [13.285520513197875, 38.14113734182166], [13.283614929681004, 38.140254175257695], [13.282840644280899, 38.1397050960584], [13.28260889611716, 38.13925954364976], [13.2824043325281, 38.13894584409501], [13.282330912166042, 38.1388491676208], [13.281238347086807, 38.13702867936911], [13.281757043620102, 38.136857006887375], [13.281868014086157, 38.13664352166593], [13.281570424568192, 38.13642406310557], [13.281714744802454, 38.13607961116213], [13.281948451823759, 38.13579621714936], [13.282179634832932, 38.1356203388058], [13.282576141766665, 38.13549467872147], [13.282926693673256, 38.13539224716049], [13.283248101599392, 38.13524158582245], [13.283531161005126, 38.13422435718915], [13.284133058378286, 38.13437655112944], [13.284983235967236, 38.13491477880837], [13.285677051028031, 38.13502050449787], [13.28659001342105, 38.13546403266324], [13.28719500356365, 38.135484801189705], [13.287288588734862, 38.1353666606755], [13.287355823940944, 38.13508082949149], [13.287229144544627, 38.13467266844171], [13.286953351905302, 38.1335214050603], [13.28671600373754, 38.133314788580655], [13.286302118051852, 38.13289048931879], [13.286318927219021, 38.1328190309749], [13.287153097715166, 38.132747537166324], [13.287594417015859, 38.13264641343562], [13.288025632680032, 38.13233003251479], [13.288162370185947, 38.13230812300093], [13.289112331739274, 38.133110684605576], [13.289705580944693, 38.13363318821934], [13.28988324949454, 38.133803079229104], [13.28985611693168, 38.134316553781595], [13.290170250796123, 38.13447648014347], [13.290315427191928, 38.134741501986376], [13.29027874544705, 38.135015829352845], [13.290680326041837, 38.13532043110787], [13.291538447174993, 38.13616944012997], [13.292033896820325, 38.136343946958654], [13.292457872091875, 38.13633815653537], [13.292995377189934, 38.136656676302], [13.293052283366285, 38.13681285849367], [13.29316581918933, 38.137137170127815], [13.29344803545847, 38.13736832665619], [13.293651809246217, 38.13771784822016], [13.293736196769336, 38.1379939339372], [13.2926245727958, 38.13827655220927], [13.2917976674709, 38.13868280265295], [13.291247320771356, 38.13891381128775], [13.290104571720892, 38.139231803874445], [13.289493406380998, 38.1394738699524], [13.288096336756315, 38.14047522418086], [13.288105880127036, 38.1407143712476], [13.28849290795128, 38.14099486829007], [13.28868544495145, 38.14117692819865], [13.289313767577779, 38.141496787307666], [13.29062252467601, 38.14185044256865], [13.291605616882585, 38.141888637995564], [13.29239421083337, 38.14182839621193], [13.29319032691796, 38.14144559544961], [13.293206104093127, 38.1420672471454], [13.293878183507587, 38.14245942067963], [13.294057831496513, 38.14254568194664], [13.294421308547715, 38.14253900586896], [13.294762413533855, 38.14284271815602], [13.295529311331068, 38.14371427439912], [13.29604412899396, 38.14370978994402], [13.29656311678826, 38.14352610608134], [13.29754416781484, 38.1430025511514], [13.297905572235488, 38.142434163862234], [13.29847911463242, 38.141856896174154], [13.298744986487778, 38.141490280489876], [13.29945554285062, 38.140879139502516], [13.299823249660289, 38.1416988990509], [13.300011654759285, 38.142060138568816], [13.300473292214509, 38.14238947841156], [13.300627272568537, 38.142929476477256], [13.300953549128952, 38.14322100505124], [13.30157069195926, 38.14337333181679], [13.301874079015242, 38.14399914049055], [13.302090001863412, 38.14434604584339], [13.302094194543239, 38.1438240433653], [13.302098568072402, 38.14327995660446], [13.302141412453624, 38.14227431515853], [13.30203275787531, 38.14203166403927], [13.301917939068744, 38.14176901856236], [13.301943004741801, 38.141402240250486], [13.302187236170614, 38.14129114501014], [13.302338831786253, 38.141304383248446], [13.302439577742971, 38.14135231046379], [13.302551118148218, 38.14163485914997], [13.30287615341802, 38.14208824681072], [13.30295852818039, 38.142455557913756], [13.302977948495046, 38.1427926016615], [13.303038191180896, 38.14316230627218], [13.303070169639179, 38.1435093983948], [13.302802195955275, 38.14421440567932], [13.30276868736565, 38.144451352563905], [13.302798493138615, 38.1446761385113], [13.302798469531798, 38.14467863441962], [13.302708075281123, 38.144910344232336], [13.302453416170625, 38.14496088762612], [13.302793768475746, 38.14570321373084], [13.303579802414236, 38.14640769102988], [13.30431500513481, 38.14669316319501], [13.304839353997973, 38.147585062094905], [13.305036566265871, 38.1482212811461], [13.305538689062253, 38.14876629473647]]]}, "properties": {"anno": 2007, "id": 152, "data": "2007-09-29", "localita": "INSERRA PETRAZZI", "sup_ha": 181.1758}}, {"type": "Feature", "geometry": {"type": "Polygon", "coordinates": [[[13.294817386899956, 38.149056400106495], [13.29475658793509, 38.149148443301605], [13.29469522035696, 38.149310369465915], [13.294545598142221, 38.1494418987661], [13.294343225050005, 38.14945335283892], [13.29399264328017, 38.14942162664466], [13.293680846651679, 38.14928527287556], [13.29324792144137, 38.14927558908681], [13.292802402493326, 38.149258358034366], [13.292531043144342, 38.14920206884182], [13.292369020739777, 38.14891671430639], [13.292498848539001, 38.148500556053406], [13.292627717643528, 38.14820170268628], [13.292775319378368, 38.14793038915531], [13.29300102245803, 38.147771797467236], [13.29342491704955, 38.14772652626517], [13.29376340465379, 38.147688304237455], [13.29400735529907, 38.147617151471835], [13.294223139454324, 38.14751092186077], [13.294419513605778, 38.147459496749086], [13.294511070525047, 38.14747244176413], [13.294583593182665, 38.147492778337735], [13.29473101280772, 38.14763079886796], [13.29507068232522, 38.14783717546231], [13.295213893456244, 38.14810496160191], [13.29536632190865, 38.14840523974623], [13.295434262376464, 38.14860026630963], [13.295467448094737, 38.14879512176798], [13.295459727982678, 38.14896729750942], [13.295307236834242, 38.14906386756173], [13.29509551678979, 38.14905780454951], [13.294817386899956, 38.149056400106495]]]}, "properties": {"anno": 2007, "id": 153, "data": "2007-09-29", "localita": "INSERRA PETRAZZI", "sup_ha": 4.2736}}, {"type": "Feature", "geometry": {"type": "MultiPolygon", "coordinates": [[[[13.246736955549832, 38.10757458928279], [13.246798074044477, 38.10759138378311], [13.247460946166827, 38.10785963537897], [13.248925893831652, 38.10999854982638], [13.249798745817882, 38.110697575970995], [13.248788658610241, 38.111618297548354], [13.24882499672032, 38.11304178010872], [13.249469678271799, 38.11458934519531], [13.251047460842978, 38.11548200760217], [13.252042324952905, 38.11668806039778], [13.251634633641709, 38.11922364350016], [13.252009247561075, 38.120963202623216], [13.251821848537379, 38.12048954905057], [13.25172068814413, 38.119947354366325], [13.251621674270421, 38.11931507713526], [13.251294613200807, 38.11867940106715], [13.251083726121843, 38.11795534142215], [13.25042104545926, 38.117044316323835], [13.24974764702391, 38.11658370160853], [13.248400869871572, 38.1156624646243], [13.248297592361066, 38.11521035061436], [13.248220096881013, 38.1136772462529], [13.248134010014148, 38.112504472026316], [13.248155494309863, 38.111603646225326], [13.247938208922584, 38.11114982945639], [13.247729523243276, 38.110335682731154], [13.247406830263671, 38.10951983366589], [13.246967986078698, 38.10879236293373], [13.246641008105808, 38.10815667582279], [13.246736955549832, 38.10757458928279]]], [[[13.249508982785944, 38.12748597995931], [13.249287746365233, 38.1278193266736], [13.24901954291197, 38.12875567771567], [13.249025132834317, 38.128852992711764], [13.249021146869381, 38.128965231584395], [13.249001202758018, 38.12909985187399], [13.249001093500725, 38.12911970210101], [13.248992049465075, 38.12914301838384], [13.248952800832642, 38.12924421214203], [13.248863976786678, 38.12929619099842], [13.248810309703686, 38.12929345505924], [13.248725388421867, 38.12924566499352], [13.248364465270434, 38.12893966318298], [13.248257736093779, 38.12883507935817], [13.248444276481315, 38.12818902519638], [13.24961689559539, 38.12685480333047], [13.249829568415285, 38.126612815030136], [13.249659069832548, 38.12696197986984], [13.249508982785944, 38.12748597995931]]], [[[13.242623988256511, 38.100792636047494], [13.24270509725685, 38.10108558056351], [13.242924784242437, 38.102104429424436], [13.243334128426186, 38.10309420996409], [13.24383454662897, 38.10372518551173], [13.244423143722738, 38.10438650089961], [13.24494614857281, 38.10495519768615], [13.245173007445512, 38.10517401396764], [13.244552344968426, 38.10488132876904], [13.243990942319579, 38.10451247330779], [13.243098312197255, 38.10368808279758], [13.242881082282867, 38.103234258357105], [13.242564938072023, 38.102148148498344], [13.24259725586817, 38.100796911402256], [13.242623988256511, 38.100792636047494]]]]}, "properties": {"anno": 2007, "id": 154, "data": "2007-09-29", "localita": "LA LAVA TORRETTA", "sup_ha": 16.9792}}, {"type": "Feature", "geometry": {"type": "Polygon", "coordinates": [[[13.260296672896876, 38.10646615438526], [13.260219189784916, 38.106440538131594], [13.259957802602434, 38.106349558058405], [13.25978107051605, 38.10633878701458], [13.259411707008637, 38.10633462647796], [13.259120626278913, 38.10642062849505], [13.258774319852446, 38.106718434024394], [13.258373367382383, 38.10715069799453], [13.25768602220643, 38.107891012609926], [13.25733288627441, 38.108258631711124], [13.25717618500435, 38.10853233428819], [13.25717130009291, 38.108769305448924], [13.25709806586768, 38.10885379961214], [13.256758853574299, 38.109044352843576], [13.256637551895778, 38.10922591599351], [13.256579248197612, 38.109427725304315], [13.256492800670843, 38.109591981306245], [13.256396770724402, 38.109771161701595], [13.255809208601093, 38.11024373217119], [13.255639152790739, 38.110183094745686], [13.255442213949928, 38.10991277128425], [13.255207879359912, 38.1095749285819], [13.255153351238821, 38.10926035461477], [13.255136367756913, 38.108990853561274], [13.255062516944646, 38.10872858223298], [13.254921804549213, 38.10854084302707], [13.25470560276364, 38.10831534305109], [13.254395787107875, 38.10793972918702], [13.253830227438035, 38.10756295792127], [13.252915287872304, 38.10704239845334], [13.252056193250741, 38.10665680431218], [13.250809614669722, 38.1061571693859], [13.25006321643975, 38.105906776486655], [13.249467406169419, 38.105784312362815], [13.249041754410179, 38.105707515497215], [13.248692146284418, 38.10559365197448], [13.248418474332649, 38.10545768574064], [13.247899613792551, 38.10517840092204], [13.247125472750772, 38.10483806042571], [13.246436134396191, 38.10455797520772], [13.245964418925743, 38.10430883421898], [13.245851135550035, 38.104254757439286], [13.24674376169872, 38.10342517310634], [13.24756331257711, 38.102926848535915], [13.248343544547108, 38.10272149243843], [13.249473915240285, 38.1024070762183], [13.252467832100349, 38.10292681008601], [13.253487408660554, 38.10321233282135], [13.255408308119819, 38.103961823168724], [13.256316046839002, 38.10415554312723], [13.256883921482016, 38.10425409410086], [13.259161833818167, 38.10437802167295], [13.259736114422331, 38.104206309777744], [13.261558022695773, 38.10432342798925], [13.263366246660912, 38.104610964725495], [13.263111419839285, 38.10477232642684], [13.262633289560528, 38.10527895376702], [13.262147901165443, 38.10552346706017], [13.261768293070233, 38.10558883757622], [13.261141229227926, 38.10578018505462], [13.260939384206777, 38.1059350708658], [13.26085018384671, 38.10606667606196], [13.260767117022304, 38.10620101334081], [13.26069398131901, 38.10627303184931], [13.260617711516542, 38.1063425427959], [13.260471867348302, 38.10642670470963], [13.260326282183069, 38.10647594258564], [13.260296672896876, 38.10646615438526]]]}, "properties": {"anno": 2007, "id": 155, "data": "2007-09-29", "localita": "LA LAVA TORRETTA", "sup_ha": 51.4332}}, {"type": "Feature", "geometry": {"type": "Polygon", "coordinates": [[[13.257058055152248, 38.11703596548257], [13.256845194620643, 38.117214621577695], [13.256320729068596, 38.11725466638453], [13.255840506575245, 38.117289913762], [13.255555829351257, 38.11735597830488], [13.255346570979084, 38.11747228170478], [13.255153239167283, 38.117571194409614], [13.254995241446107, 38.11758544852086], [13.254853842035079, 38.1174900106277], [13.25454780652259, 38.117022123967764], [13.25453876157068, 38.11696470478287], [13.254384687741355, 38.11687419663318], [13.254221449235803, 38.11674373019669], [13.253929019705724, 38.1165752646537], [13.25375913470801, 38.116489675343495], [13.253677530643762, 38.11642195111135], [13.253595416215715, 38.115992496196064], [13.253812809726885, 38.11562676618486], [13.253692753676411, 38.11563620175524], [13.253620917669, 38.115528603485224], [13.25352092620553, 38.115383460054055], [13.253339199676782, 38.11519054026312], [13.252655184655055, 38.11459868716933], [13.252825729965172, 38.11416290328391], [13.252627379847237, 38.114084665154344], [13.252308675042793, 38.11448734672764], [13.25164688302379, 38.11430970767992], [13.251036596270088, 38.114000084796054], [13.250877806522707, 38.11326592389524], [13.25084410144064, 38.113126071999424], [13.250889218867163, 38.11300154950276], [13.251089204464975, 38.11285776618875], [13.251119568525779, 38.11259347477387], [13.251022386527595, 38.11249823019197], [13.251658571377252, 38.11228907892787], [13.252070806424165, 38.11247805660144], [13.252934330758068, 38.11226994363245], [13.254152331393565, 38.11194367892944], [13.25475167684977, 38.11115807802949], [13.255077058860333, 38.111134602771436], [13.255165318588093, 38.111154962864795], [13.255177522652284, 38.11121239293167], [13.254954973566639, 38.11142343247308], [13.254909905171326, 38.11154047853646], [13.254736810223259, 38.111896432719625], [13.254660200337872, 38.112010839084256], [13.253941940605648, 38.11264871786697], [13.253373338911842, 38.11311513116318], [13.25476681340253, 38.113408336156795], [13.254654832458584, 38.11360989734329], [13.254207740922265, 38.1138673170697], [13.254156638785707, 38.1139469213203], [13.254092742929648, 38.11404890793115], [13.254123518746082, 38.11415881631546], [13.254189181446105, 38.11424642646608], [13.254245705936896, 38.11428908728542], [13.254434344792822, 38.11439970887811], [13.25453504691398, 38.1144475670982], [13.254644861691467, 38.114542860451785], [13.254838824808433, 38.115222290964624], [13.255088734175809, 38.115592634799995], [13.255771431816559, 38.115503415354176], [13.255798360822398, 38.11527402723494], [13.255816087317244, 38.11500717680509], [13.255868144475924, 38.11479786862036], [13.255957708052593, 38.11463860698444], [13.25605940865177, 38.114549263577636], [13.256788502036319, 38.11415590096904], [13.256832850582068, 38.11413614850304], [13.256939977464313, 38.114169059458355], [13.257569021051275, 38.114942750840555], [13.258166041855583, 38.115344581046195], [13.25893290202907, 38.115405413515084], [13.259350913772078, 38.11524005467786], [13.260153343456137, 38.11562044113943], [13.26035606615104, 38.11580003038942], [13.26052097676285, 38.11594612056168], [13.260558090525633, 38.11597899795693], [13.259828114260328, 38.11649212217919], [13.258396069441503, 38.11671769073981], [13.258363443428152, 38.11686223526907], [13.25828717372068, 38.11692924911975], [13.25810386352531, 38.11695087224306], [13.257854097995414, 38.11699465148701], [13.257645877290779, 38.116968767705856], [13.257397513144392, 38.11681796771341], [13.257085058367123, 38.11679660131801], [13.257058055152248, 38.11703596548257]]]}, "properties": {"anno": 2007, "id": 158, "data": "2007-09-29", "localita": "MONTE CUCCIO", "sup_ha": 19.9856}}, {"type": "Feature", "geometry": {"type": "Polygon", "coordinates": [[[13.269915506584113, 38.110040613254675], [13.269867842143935, 38.1100094857516], [13.269596483202514, 38.10997312281658], [13.268952168666857, 38.109959746048155], [13.26852838184771, 38.110017422844734], [13.268406716495882, 38.11095524292852], [13.268275192777955, 38.11156355276355], [13.26660798711287, 38.1114748957393], [13.264534030364716, 38.111668582426105], [13.262549238082931, 38.11177785244225], [13.26120335286741, 38.111795649654134], [13.260633897152596, 38.11189245105083], [13.260269371795912, 38.11197129142926], [13.260496425655406, 38.10923808890597], [13.260124497902506, 38.108388666747096], [13.26005500120318, 38.10845082490036], [13.26001024468338, 38.10834860509472], [13.259787369262334, 38.10783958112823], [13.260079248374037, 38.1069575827986], [13.260282358730194, 38.10647945548359], [13.260296672896876, 38.10646615438526], [13.260326282183069, 38.10647594258564], [13.260471867348302, 38.10642670470963], [13.260617711516542, 38.1063425427959], [13.26069398131901, 38.10627303184931], [13.260767117022304, 38.10620101334081], [13.26085018384671, 38.10606667606196], [13.260939384206777, 38.1059350708658], [13.261141229227926, 38.10578018505462], [13.261768293070233, 38.10558883757622], [13.262147901165443, 38.10552346706017], [13.262633289560528, 38.10527895376702], [13.263111419839285, 38.10477232642684], [13.263366246660912, 38.104610964725495], [13.264057570551207, 38.104720888312954], [13.265201858815729, 38.104557580013314], [13.26592160633314, 38.10442664455309], [13.266023571486157, 38.10442334288393], [13.266611561906656, 38.104366554258625], [13.267034560441848, 38.10439873305], [13.267400945392511, 38.10440066366017], [13.267710864718433, 38.104357370370934], [13.268033040838038, 38.104359070600104], [13.26965215302016, 38.104886733993936], [13.270427932901615, 38.10503557118733], [13.271020364990228, 38.10520340683017], [13.271214510114028, 38.10540409654207], [13.27126967735265, 38.105604058214055], [13.27121712351352, 38.10584339293887], [13.27106474571574, 38.10593244647246], [13.270565300826505, 38.10597475348399], [13.270375066632022, 38.10605861760897], [13.270069604027547, 38.10632157997759], [13.269935721886423, 38.106465648067356], [13.269972774854427, 38.10656567897723], [13.270205714995539, 38.10666174215707], [13.270596753723861, 38.10673867566245], [13.270912999178591, 38.10669540406345], [13.271779993908334, 38.106520237467485], [13.272235845157402, 38.10640282363092], [13.272501212095106, 38.1063992161571], [13.272967860827904, 38.10650149261647], [13.27312742899269, 38.10630765093857], [13.273179515588568, 38.10612322336344], [13.27305460220512, 38.105952849204876], [13.272967171175788, 38.1058325888358], [13.273088247582823, 38.105708424252335], [13.273682101078853, 38.105706529281186], [13.27425032156191, 38.105749429738914], [13.274937977237586, 38.105862835774595], [13.275297355478228, 38.10594956117335], [13.275978869975665, 38.10604296580614], [13.27652792262547, 38.106110714942425], [13.27772030554006, 38.106306585141205], [13.278345551178269, 38.106329799275684], [13.278807510509008, 38.10623733890162], [13.279004844407156, 38.10605865771189], [13.27920798829931, 38.105939905675925], [13.279549544037168, 38.10589175467661], [13.279846286202213, 38.10591325438964], [13.281087601565423, 38.106304027551374], [13.281343463365682, 38.10668473062283], [13.281531780832022, 38.10683046727493], [13.28152418327415, 38.10698517095387], [13.281218915562677, 38.10722819723164], [13.281209618039625, 38.107587569091464], [13.281713393416641, 38.10778484699182], [13.282033926913822, 38.10798616836487], [13.281951365573814, 38.10849266709909], [13.281927424177642, 38.108639548325655], [13.279253746946617, 38.10803172366076], [13.277316397064649, 38.10852586820053], [13.276722935219512, 38.109231627444174], [13.276470329964463, 38.10997410048343], [13.276515907000684, 38.11056836417182], [13.276640289509425, 38.110803626796574], [13.277055005314775, 38.1110753410104], [13.277476499620008, 38.111292176103035], [13.277676997637831, 38.111492885329525], [13.277675040959002, 38.11172749374811], [13.27755965831032, 38.1119265673651], [13.27741457848454, 38.111921721867766], [13.277144641059419, 38.111794147785005], [13.275760046533067, 38.11115298642866], [13.275718914040933, 38.111146806154665], [13.2756457799348, 38.11111293969872], [13.274509972949545, 38.11094229002755], [13.273938570692499, 38.110949018276834], [13.273753283758014, 38.11087296950155], [13.273438818121633, 38.11070160594815], [13.273187793410989, 38.1105006244165], [13.273121342853154, 38.110498858068425], [13.273073529295969, 38.110460576138244], [13.272138694084855, 38.110435711460426], [13.271475121250052, 38.11045720019518], [13.270817589737925, 38.110513656765264], [13.270550776316801, 38.110474568392526], [13.270390509578316, 38.110316253162566], [13.26998210367284, 38.11004953799399], [13.269915506584113, 38.110040613254675]]]}, "properties": {"anno": 2007, "id": 159, "data": "2007-09-29", "localita": "MONTE CUCCITELLO", "sup_ha": 103.4683}}]}