{"type": "FeatureCollection", "features": [{"type": "Feature", "geometry": {"type": "Polygon", "coordinates": [[[13.376053369297319, 38.06876422069636], [13.37594342527307, 38.0685980336396], [13.376098831732033, 38.06842054682672], [13.376445170895694, 38.06817085400938], [13.376770604141676, 38.06801067513616], [13.377489582506703, 38.068035565482596], [13.37784626910017, 38.06817521458954], [13.378069128498252, 38.06837289070846], [13.378119975795205, 38.06864303635317], [13.37798416435964, 38.068790863263814], [13.377697580643506, 38.06890666282579], [13.377356526606034, 38.06891692792408], [13.376843119533888, 38.069014626874164], [13.376616958071587, 38.06896660342871], [13.376429309336801, 38.06888916327341], [13.376259939304397, 38.06884191479814], [13.376053369297319, 38.06876422069636]]]}, "properties": {"anno": 2014, "id": 6876, "data": "2014-02-16", "localita": "Pizzo Forbice - Monte Grifone", "sup_ha": 1.5393, "sup_boscata_ha": 0.0, "sup_non_boscata_ha": 0.6396, "luogo_inizio": "incolto e pascolo", "squadre_aib": 0, "fine_intervento": "2014-02-16"}}, {"type": "Feature", "geometry": {"type": "Polygon", "coordinates": [[[13.334455583282999, 38.07535089643455], [13.33463623438665, 38.0752826616315], [13.33494743226625, 38.07538145593703], [13.335260233214594, 38.07540948574383], [13.33552747390278, 38.07547226342367], [13.335628453745805, 38.075627073987135], [13.335639360456232, 38.07580420257365], [13.335503746416219, 38.07586127678818], [13.335370525281808, 38.07581219705091], [13.335268477176545, 38.075704564467166], [13.335226389659962, 38.07558598032663], [13.335019365029755, 38.075500462193624], [13.334855775594196, 38.07547454550891], [13.334736410720812, 38.075472854752874], [13.334455583282999, 38.07535089643455]]]}, "properties": {"anno": 2014, "id": 7021, "data": "2014-06-10", "localita": "Monte Starraba", "sup_ha": 0.222, "sup_boscata_ha": 0.0138, "sup_non_boscata_ha": 0.2082, "luogo_inizio": "strada comunale", "squadre_aib": 0, "fine_intervento": "2014-06-10"}}, {"type": "Feature", "geometry": {"type": "Polygon", "coordinates": [[[13.352856806356922, 38.07291406310613], [13.352256811989369, 38.07304724738547], [13.351660528314033, 38.073015291864664], [13.351039681735774, 38.072747019609274], [13.350471119466112, 38.07280984118525], [13.349693669207582, 38.072869720949384], [13.349102677249592, 38.0726018632305], [13.348689682351651, 38.07238368769337], [13.348158379513631, 38.07211665598026], [13.347652153413955, 38.07206234945891], [13.34792708026586, 38.07178304293451], [13.347634504182013, 38.07151936240834], [13.34736913130071, 38.071374051851116], [13.347042480221521, 38.07129867334494], [13.34690017274725, 38.07098990956405], [13.346759457441939, 38.07061037425331], [13.347121783923438, 38.0704266932677], [13.347216070123025, 38.07021564273503], [13.347402540216756, 38.06988789962684], [13.347499475435923, 38.06955890608371], [13.347417917673864, 38.06920380283227], [13.347035309699834, 38.06896244860179], [13.346744338520185, 38.06862800187977], [13.346330311642676, 38.0684569979992], [13.34603828428856, 38.06816972813157], [13.345687122015784, 38.067858025601694], [13.345093000518634, 38.06773167705], [13.345294119677698, 38.06741594366499], [13.345307391811986, 38.066826205214795], [13.34483741972264, 38.066489226743506], [13.34505689747324, 38.06602037804283], [13.34521670804256, 38.06555068233243], [13.345521452487622, 38.06527180001322], [13.345501704572209, 38.064823177721564], [13.345358353525324, 38.064561590706575], [13.344882023291538, 38.064507693619234], [13.344487233654286, 38.06480889979345], [13.34403223455278, 38.06513285736016], [13.343872417636756, 38.06560254413048], [13.343801584684265, 38.06609709237357], [13.34363751236491, 38.066755501534196], [13.343477156888751, 38.06724878032606], [13.342985925625257, 38.067855385159596], [13.343064280968232, 38.06835202739148], [13.342550098329834, 38.06865154390798], [13.341887264332213, 38.06892536929636], [13.34155052014577, 38.06929816974564], [13.341102399373561, 38.069315448977484], [13.341029946996116, 38.06988075870373], [13.340452338998555, 38.070344545404446], [13.339756974942953, 38.07073588703484], [13.339685575042791, 38.07125400907289], [13.338906536385842, 38.07138459503612], [13.33821542085799, 38.07158719764435], [13.337498722869125, 38.07160066700818], [13.337080957042376, 38.07159475993917], [13.336923758465412, 38.07194649259455], [13.336553926450645, 38.07246039896464], [13.335926212390566, 38.07249871051697], [13.33520736972681, 38.07260652304111], [13.334460827720855, 38.0726195437121], [13.333934388755937, 38.07214014156545], [13.333913097691148, 38.07176229107779], [13.333864111738828, 38.07128965304879], [13.333665388681435, 38.070838493696016], [13.333877477508365, 38.07069991750496], [13.334064531316308, 38.07034861225119], [13.33368356873901, 38.070036450884785], [13.334020890968377, 38.06964007322709], [13.334267628871213, 38.06928961284642], [13.334362484997486, 38.06905498791371], [13.333715113164166, 38.06864466593222], [13.333397054883434, 38.06819181462143], [13.333522824498223, 38.06791042729858], [13.333470634266156, 38.06757933257438], [13.33329961706571, 38.067222952148754], [13.33307160997097, 38.06674777597478], [13.332812693934867, 38.066319354204246], [13.332878787405473, 38.06603712889627], [13.33249464173438, 38.065866500511824], [13.33208280457088, 38.065601091059605], [13.332296485430454, 38.0653917464119], [13.332272528898503, 38.06513183736512], [13.331979509425485, 38.06489171230576], [13.331718464938616, 38.064557653696745], [13.331236249250088, 38.06476317871675], [13.330898399691273, 38.065183134338845], [13.3307944343058, 38.06581878529558], [13.330516789422116, 38.06621599369066], [13.330002046886069, 38.066539040155135], [13.32942440840736, 38.06700277923313], [13.328788685915844, 38.067394895659234], [13.328279827137326, 38.06745845643494], [13.327923918773946, 38.067359008510714], [13.327569610458353, 38.067188788661916], [13.327549436331875, 38.066763750571404], [13.327616086465813, 38.066457936073235], [13.32789160298077, 38.06615509203239], [13.32813673839841, 38.06587541534611], [13.328412787482451, 38.06554897730572], [13.328390989898569, 38.0651947106739], [13.328610577761006, 38.064725887887214], [13.328646316865225, 38.06446682635769], [13.328653823620645, 38.06413657769807], [13.328509997700442, 38.063898565078595], [13.328095495968162, 38.06375108372451], [13.327529135511117, 38.063719436624154], [13.327026743219536, 38.0634999150252], [13.32682539859014, 38.06316669473384], [13.326952257225127, 38.06283813650799], [13.327256529468098, 38.06258289647083], [13.327565618575179, 38.06211534763266], [13.327601360859369, 38.061856287283895], [13.327430395010815, 38.0614998991001], [13.32698499436333, 38.061399175617204], [13.326450103780392, 38.061297177819114], [13.325742637663245, 38.060909557754954], [13.325185971196467, 38.06045327920017], [13.324543564113021, 38.05983060237578], [13.32416484508275, 38.059424055690656], [13.324319397260407, 38.05919028997951], [13.32369984864839, 38.05887469695359], [13.323231104097228, 38.058490457062305], [13.323271151586246, 38.05804268407707], [13.323191334152286, 38.05761679566839], [13.322841925348463, 38.057234263266174], [13.322343894946002, 38.05682600971784], [13.321721154256648, 38.05665194190047], [13.321280108945178, 38.056362484777814], [13.320788017045265, 38.055694732365474], [13.320407186196405, 38.05538253029226], [13.319754085732228, 38.05523161944546], [13.319917263681441, 38.054620425684995], [13.31947461118638, 38.05440172537584], [13.318985970227947, 38.05489028718453], [13.318356782584193, 38.05499927158589], [13.317855006414458, 38.05475612696808], [13.317356481852315, 38.05437143762649], [13.316976750980256, 38.0540120478269], [13.316356747874902, 38.05372001027431], [13.315767656454105, 38.05338121190513], [13.315539263982924, 38.05292959685358], [13.31482329026592, 38.05291933955163], [13.314713150395095, 38.052516611021666], [13.314488550019613, 38.0518998669822], [13.313899481681249, 38.05156106689765], [13.31357998568773, 38.05117892832734], [13.313560975061172, 38.05070671175917], [13.313660735469309, 38.050259800668854], [13.313912896529411, 38.049673494029335], [13.314160738111445, 38.04927589840402], [13.31455880509681, 38.048833254302856], [13.314954704780567, 38.048484972638214], [13.315442247254905, 38.04804361455803], [13.315186196445211, 38.04749721803202], [13.31554524162734, 38.047455167631256], [13.31629152676098, 38.04744225308977], [13.317127306009306, 38.04743062253064], [13.317493362310302, 38.04708190471511], [13.317886003984828, 38.04687514654169], [13.31884432747121, 38.046723667317664], [13.319211979225562, 38.04630417213749], [13.319343697539017, 38.04576332476248], [13.320065516994292, 38.04551406889318], [13.320577468495323, 38.04530900507038], [13.320975475089138, 38.04486634474184], [13.321630629062653, 38.044922888792456], [13.322463153378232, 38.04505275394646], [13.323475200608641, 38.04516157118134], [13.32436577800312, 38.04536303763376], [13.324806772490392, 38.0456524887576], [13.325364401841522, 38.04606157944021], [13.325233273525262, 38.046578849211286], [13.325134652680765, 38.04697859473575], [13.325548518514188, 38.047149669190745], [13.325449898492801, 38.04754941496474], [13.32508281168336, 38.04794533666821], [13.325611162439397, 38.0483304085928], [13.325897127786543, 38.048877218190015], [13.326271512225789, 38.04947247080339], [13.326734315986702, 38.05011618182464], [13.327203038041251, 38.05050039858288], [13.327969004930031, 38.050936041740286], [13.32840629405024, 38.051390603052724], [13.32871782986099, 38.0521265451878], [13.329368780279589, 38.05237176344271], [13.329834306422107, 38.05289751469977], [13.330241255978283, 38.05337523840603], [13.330525658625227, 38.05399280298], [13.330535151423549, 38.05488962616884], [13.330723097865553, 38.05581258363492], [13.330771522204078, 38.056308809883426], [13.33066757230267, 38.05694446103096], [13.33009751303021, 38.05707794853581], [13.33062595461133, 38.05746300848513], [13.331195489417846, 38.057353104109424], [13.331733033745609, 38.05733713061134], [13.332157672183397, 38.05703639070569], [13.3324613574601, 38.05680472856977], [13.332709651923047, 38.05638349783422], [13.332927580592084, 38.05598543609926], [13.333698446957703, 38.056208737649285], [13.334353724424332, 38.05626521427616], [13.334657399707028, 38.05603354619996], [13.3350814843769, 38.05575638076936], [13.336068665543715, 38.055652372346955], [13.33653639476857, 38.05608373260572], [13.336888005722798, 38.05637187633587], [13.337179408163538, 38.056682760250254], [13.33804085861128, 38.05686011265168], [13.338724386432563, 38.056987758323565], [13.339261395563579, 38.056995343107175], [13.339919347144235, 38.0569338392204], [13.340638561247424, 38.05680240824229], [13.341289594600957, 38.0570475693505], [13.341487266907528, 38.05754589552813], [13.341445192486587, 38.05808803505213], [13.341609837631774, 38.05872748433119], [13.341623187370523, 38.05945917991112], [13.341073910903978, 38.05999417294449], [13.34067327667086, 38.06055485358974], [13.340274232946136, 38.061044760522414], [13.339817642790685, 38.06143946610651], [13.339098380569109, 38.061570889958375], [13.338969980315124, 38.06197022756648], [13.338866622526112, 38.06258229401928], [13.339002477414928, 38.063174145967295], [13.33945322373651, 38.063038930589364], [13.339786754245642, 38.06280766336941], [13.34003503909282, 38.0623864172076], [13.3405182712288, 38.06213367560724], [13.341206108653784, 38.06207258610181], [13.341772996057161, 38.06208058148661], [13.342604159082292, 38.06228107387609], [13.343194512125548, 38.06257256322418], [13.343907924322194, 38.06270059329666], [13.344624003964531, 38.0627106756367], [13.345453059289811, 38.06300551426002], [13.346225100749471, 38.06318155649449], [13.347507023361068, 38.063246771331364], [13.348372826995188, 38.06323533409658], [13.349271109621451, 38.06310636567267], [13.350286089376505, 38.06309700795464], [13.351084285605703, 38.06343856462222], [13.35160865587972, 38.06401224717298], [13.35255235877762, 38.06452100777079], [13.353173661468606, 38.064765676932026], [13.353763551714085, 38.06508069844754], [13.354591090723456, 38.065446234832], [13.355504981712762, 38.06595456260096], [13.35590900700745, 38.06657373724899], [13.35637956008919, 38.06688707782118], [13.35672603021744, 38.06741105037965], [13.357244156582377, 38.0682677926193], [13.357827233002585, 38.06888946192059], [13.358230766132824, 38.069532214883445], [13.358305530223609, 38.070193979340466], [13.358626397044697, 38.07052882266973], [13.359005893255967, 38.0709116675193], [13.359173349070442, 38.07143314351184], [13.358747688003739, 38.071781161697295], [13.358269181690078, 38.0718216777637], [13.357791738016404, 38.071815012337694], [13.35722476859419, 38.071807094271364], [13.357068182480132, 38.07213527107191], [13.356912120565513, 38.072439854620704], [13.356785904611064, 38.07274485442171], [13.356381203769457, 38.07282178723829], [13.355903225791309, 38.072838706943394], [13.355306932423977, 38.07280676980522], [13.355040473124257, 38.07270865559888], [13.354898129120597, 38.07239990164531], [13.35450862420392, 38.07246524690226], [13.354062059110744, 38.07241180433116], [13.353586727294074, 38.07231075632839], [13.353310760251977, 38.07263725693758], [13.352856806356922, 38.07291406310613]], [[13.335065411071145, 38.06510606517622], [13.335015243004388, 38.065130641685215], [13.334923056331442, 38.065137081161886], [13.334920266193135, 38.06520258501831], [13.334943003926169, 38.065236451220485], [13.335146628328724, 38.06523778088414], [13.33516235660894, 38.065177626836615], [13.335359148904567, 38.06516389691153], [13.335366842440383, 38.06499679588913], [13.335080097569593, 38.06500512753941], [13.335065411071145, 38.06510606517622]], [[13.334882214126068, 38.06564064851926], [13.334966425408767, 38.065731263942716], [13.335119714716472, 38.065650078712316], [13.335215017711443, 38.06575903707924], [13.33531217842033, 38.065701301943015], [13.335230524553317, 38.06558192463711], [13.33531228280409, 38.0655270091896], [13.33524873918849, 38.06545487278282], [13.335072695210885, 38.065525132413626], [13.334882214126068, 38.06564064851926]], [[13.335042277749707, 38.066021823650416], [13.335127182131577, 38.06599725806034], [13.33521449718394, 38.06586663873641], [13.33512630679315, 38.065782026698685], [13.334957042326945, 38.065891792039196], [13.334785509361613, 38.06601667304644], [13.334911754128953, 38.06611394374662], [13.335042277749707, 38.066021823650416]], [[13.335089940912198, 38.06642990251292], [13.335091595691472, 38.06642800733016], [13.33509333997968, 38.06642518068631], [13.335094439916872, 38.06642216647778], [13.335094855002692, 38.0664190416329], [13.335094581810402, 38.06641590703613], [13.335093619192328, 38.06641286360423], [13.335092002976415, 38.06640999024814], [13.335089782195274, 38.0664073867932], [13.335086849593997, 38.06640500756156], [13.335057988561205, 38.06638594675637], [13.335055126305724, 38.066384336332575], [13.335051552066808, 38.06638295733899], [13.335047739440483, 38.066382087743406], [13.335043786851212, 38.06638176048195], [13.335039821967431, 38.06638197556113], [13.335035972375854, 38.06638273659116], [13.335032336770597, 38.06638401432999], [13.335029044837825, 38.06638577006177], [13.335026094906961, 38.066388027193724], [13.334917057145397, 38.066489423942485], [13.334914800190223, 38.06649188554757], [13.334913055893562, 38.066494712188536], [13.334911955947787, 38.06649772639514], [13.33491154085364, 38.066500851239134], [13.334911814038282, 38.066503985836114], [13.33491277664982, 38.06650702926933], [13.334914391721089, 38.066509902611564], [13.33491661251928, 38.06651250516881], [13.334919371105494, 38.06651476658682], [13.334919788072325, 38.06651502843255], [13.334922471781926, 38.06651672104129], [13.334947489060811, 38.06653321850797], [13.334946102281732, 38.06653545993745], [13.334945002336626, 38.06653847414436], [13.334944587243575, 38.06654159898849], [13.334944860429731, 38.06654473358541], [13.33494582306354, 38.06654777611745], [13.334947438116524, 38.066550650360206], [13.33494965891709, 38.06655325291684], [13.334952098820436, 38.06655529173103], [13.33498919277471, 38.06658177154181], [13.334988921356867, 38.066583788158724], [13.334989194544999, 38.06658692275557], [13.334990157160727, 38.06658996618817], [13.334991772236764, 38.06659283952943], [13.334993993040142, 38.0665954420853], [13.33499692562528, 38.06659782222018], [13.335111845151298, 38.06667373990675], [13.335114707439546, 38.066675349428444], [13.335118281693747, 38.066676728420404], [13.335122094336162, 38.06667759801403], [13.33512604692133, 38.06667792617412], [13.33513001184141, 38.066677710191485], [13.335133861447698, 38.06667694915879], [13.33513749704558, 38.06667567231805], [13.335140788989122, 38.066673916583554], [13.335143537744932, 38.06667183503376], [13.335186604958615, 38.06663329130727], [13.335195322662878, 38.066638432630285], [13.335197205954355, 38.066639430792456], [13.335200781348007, 38.06664080979805], [13.335204593989648, 38.06664167938898], [13.335208546573362, 38.06664200754626], [13.33521251149135, 38.06664179156079], [13.335216359955451, 38.06664103050918], [13.335219995550199, 38.0666397536658], [13.335223287490216, 38.0666379979289], [13.335226147945441, 38.06663581612543], [13.335226669709725, 38.066635326963066], [13.335253137002711, 38.066609482779], [13.335254952570814, 38.06660743396644], [13.335256696857336, 38.06660460732022], [13.335257796770424, 38.06660159401106], [13.335258210711075, 38.06659846914939], [13.335257938650948, 38.06659533456906], [13.335256974884446, 38.06659229112225], [13.335255359818321, 38.06658941688348], [13.335253139005662, 38.06658681433238], [13.335250206412407, 38.06658443420367], [13.335144036814915, 38.06651439740868], [13.335141184624584, 38.066512795240236], [13.335137609238263, 38.06651141623296], [13.335133796604199, 38.06651054664002], [13.335129845147078, 38.06651021939746], [13.335125880256495, 38.06651043447939], [13.335122030658926, 38.06651119551206], [13.335118395048614, 38.06651247325342], [13.335115103132363, 38.0665142280866], [13.335113315606261, 38.06651549235985], [13.335105690743628, 38.06652152952649], [13.33508738844082, 38.066509664715085], [13.335084681148414, 38.06650815742062], [13.335081105763438, 38.066506778411664], [13.335077293130352, 38.066505908816914], [13.335073340534269, 38.06650558155629], [13.33506937564383, 38.06650579663633], [13.335065526025565, 38.06650655856804], [13.335061891574538, 38.06650783542288], [13.335058479368822, 38.066509666953436], [13.335049023437314, 38.066515871927564], [13.33503155340919, 38.06650455420547], [13.335050610950455, 38.066485667685065], [13.3350523262336, 38.066483718387744], [13.335054070524697, 38.06648089174456], [13.335055170464413, 38.0664778775365], [13.335055585552302, 38.06647475269182], [13.335055312361568, 38.06647161809502], [13.335054349724066, 38.066468575563725], [13.335053234404256, 38.066466586159905], [13.335089940912198, 38.06642990251292]], [[13.335042981311334, 38.064549623414855], [13.33477621959873, 38.06441538927363], [13.334708280093645, 38.06451050843691], [13.33466761845826, 38.06454012919478], [13.334731423963829, 38.064621017456425], [13.334850660993448, 38.06457422233975], [13.33499660954973, 38.06462829885196], [13.335042981311334, 38.064549623414855]], [[13.334861083870758, 38.06494529266662], [13.334696347202495, 38.064891625616255], [13.334621000409614, 38.064953304804334], [13.334565936957704, 38.06499530650163], [13.334530351130292, 38.06505326760503], [13.334641605930173, 38.065079089040744], [13.33471417819698, 38.065060151711585], [13.334824077157442, 38.06506598884497], [13.334861083870758, 38.06494529266662]], [[13.334672642565259, 38.066005977857635], [13.334650092340897, 38.065985957407875], [13.334694683488424, 38.06596385058815], [13.334586040923988, 38.0658516729558], [13.334482892282898, 38.06591993409719], [13.334404523668464, 38.0659097276129], [13.334347401554874, 38.06597712522151], [13.334432607829674, 38.066023801498126], [13.334473435519609, 38.06599861162665], [13.334613810128015, 38.066064254769], [13.334672642565259, 38.066005977857635]], [[13.333756420295012, 38.0654141044308], [13.333647419624992, 38.06538850066701], [13.333601018949134, 38.065421535366305], [13.333579451596524, 38.06556721560689], [13.333597923631558, 38.06560277798446], [13.333658005391, 38.06563812115327], [13.33374636019805, 38.06558963930505], [13.333756420295012, 38.0654141044308]], [[13.336077243910964, 38.06703334402501], [13.336076729512879, 38.06703476602472], [13.336076182401182, 38.067036374107076], [13.336075768492073, 38.06703949897215], [13.33607604058813, 38.06704263355118], [13.336077003254507, 38.06704567697585], [13.336078619502128, 38.06704855122021], [13.336080840357985, 38.06705115375653], [13.336083599021114, 38.06705341424743], [13.336086809318262, 38.06705526208118], [13.336090384749582, 38.067056641060454], [13.336092201926942, 38.067057086745365], [13.336094186453991, 38.06705754200943], [13.336203651896486, 38.067082753583364], [13.336205657389133, 38.067083138849775], [13.336209610002262, 38.067083466974005], [13.336213574942452, 38.06708325095527], [13.336217424560244, 38.06708248988732], [13.336221059021321, 38.06708121299703], [13.336224350958622, 38.06707945723209], [13.336227211382282, 38.06707727630502], [13.336229548717222, 38.067074737409435], [13.336231292958123, 38.067071911649265], [13.336231999609588, 38.067070204892055], [13.336276400952526, 38.066941806003804], [13.336276794201039, 38.066940498541065], [13.336277209240443, 38.06693737369116], [13.336276935996464, 38.06693423909617], [13.336275973323028, 38.06693119567293], [13.336274358209536, 38.06692832144727], [13.336272137350237, 38.06692571891448], [13.336269377546255, 38.06692345841179], [13.336266167249967, 38.06692161058302], [13.336262591821628, 38.06692023160914], [13.336260667798191, 38.06691972223213], [13.336151944532222, 38.06689522054331], [13.3361500559075, 38.066894859460525], [13.336146103304833, 38.06689453133451], [13.336142138374745, 38.06689474735124], [13.336138288766174, 38.06689550841693], [13.336134654313067, 38.06689678530488], [13.336131361242527, 38.06689854105136], [13.336128501942397, 38.0669007228933], [13.336126164630205, 38.06690326088607], [13.336124420369153, 38.066906087545696], [13.336123818758928, 38.06690748487987], [13.336077243910964, 38.06703334402501]], [[13.33554555272202, 38.06654716253085], [13.335514579747674, 38.0665541351718], [13.335463549195698, 38.06659505169315], [13.335523901444299, 38.06665278775732], [13.335536979947381, 38.06664281121959], [13.335591364986383, 38.066606532830875], [13.33560323259448, 38.066615331601604], [13.335603869806555, 38.066615784011574], [13.335607081211954, 38.06661763187398], [13.33561065661272, 38.06661901086726], [13.335614468119063, 38.066619880428824], [13.335618420724353, 38.06662020767145], [13.335622385620061, 38.06661999257298], [13.335626235239216, 38.06661923062305], [13.335629870826201, 38.066617953766794], [13.335633162755855, 38.06661619801816], [13.335635240610976, 38.06661469723203], [13.335675840073371, 38.06658141645272], [13.335676511323255, 38.066581674687846], [13.335680323968056, 38.066582544263404], [13.335684276551316, 38.066582872404645], [13.335688241465297, 38.066582656403035], [13.33569209106147, 38.06658189535175], [13.335695726645511, 38.06658061849341], [13.335699018571944, 38.06657886274282], [13.335699916754523, 38.066578261755275], [13.335740682510087, 38.06654931081174], [13.33574264476501, 38.06654772998307], [13.335744980938866, 38.06654519198169], [13.335746725205217, 38.066542365327685], [13.335747825117748, 38.06653935111252], [13.335748240176706, 38.06653622626475], [13.335747966956205, 38.066533091668894], [13.335747004289079, 38.06653004914265], [13.335745389204817, 38.06652717491019], [13.335743168376242, 38.06652457236795], [13.335741356220565, 38.066523000264176], [13.3356733849154, 38.066470641926855], [13.335672437320191, 38.06646995261467], [13.33566922705893, 38.06646810477026], [13.33566565166424, 38.06646672577889], [13.33566183902559, 38.066465856202974], [13.335657886448738, 38.06646552806112], [13.335653921541045, 38.06646574406186], [13.335650071950658, 38.066466505112025], [13.335646437511137, 38.06646778198524], [13.335643144449037, 38.06646953771832], [13.335641306871258, 38.06647084815255], [13.33554731324756, 38.066545781615325], [13.33554555272202, 38.06654716253085]], [[13.336845414375942, 38.0670077461091], [13.336972442065202, 38.067094095192864], [13.337086758378799, 38.067000384462496], [13.336959712063237, 38.06691485892347], [13.336845414375942, 38.0670077461091]], [[13.33555995271312, 38.06687120469768], [13.335557778148871, 38.06687003118981], [13.335554202737098, 38.06686865219473], [13.335550390079211, 38.06686778261482], [13.335546437461021, 38.06686745536962], [13.335542472551797, 38.06686767046519], [13.335538624058293, 38.06686843242819], [13.335534988457262, 38.06686970928123], [13.33553169651377, 38.066871465026715], [13.335528836078327, 38.06687364593666], [13.335528103116447, 38.06687435019619], [13.335484944145211, 38.0669178492792], [13.335484249395988, 38.06691857751059], [13.33548261688279, 38.066920395512], [13.335480872617312, 38.06692322126057], [13.335479772687568, 38.06692623547268], [13.335479357614412, 38.06692936031896], [13.33547963082426, 38.066932494914994], [13.335480593464474, 38.06693553834402], [13.335482208546628, 38.06693841257988], [13.335484429377743, 38.06694101512697], [13.335487188017979, 38.06694327563138], [13.335488536360767, 38.066944087776136], [13.335490368928296, 38.0669451618161], [13.335644108726406, 38.06703598479802], [13.33564600212681, 38.067036990305766], [13.335649577548484, 38.067038369298245], [13.335653390216445, 38.06703923887516], [13.335657342824058, 38.06703956701785], [13.335661307762807, 38.06703935101773], [13.335665156243794, 38.0670385899518], [13.335668791851184, 38.06703731309494], [13.33567208379911, 38.067035557345726], [13.335674944257327, 38.067033375531494], [13.335675566145543, 38.06703279406179], [13.335718014911873, 38.06699075378615], [13.33571972921374, 38.06698879725577], [13.335721473492232, 38.066985970602595], [13.335722573413115, 38.066982956388074], [13.33572298847634, 38.066979831540706], [13.335722715255978, 38.066976696945], [13.335721752605188, 38.06697365351775], [13.335720137492384, 38.06697078018586], [13.335717916672317, 38.066968176742144], [13.335715156884334, 38.066965916226835], [13.335714121190698, 38.06696524098739], [13.33555995271312, 38.06687120469768]], [[13.334332359724236, 38.06538537149007], [13.334249406865288, 38.06537457182948], [13.334215371242054, 38.06544387372306], [13.334298282378324, 38.06550119933728], [13.33442780325422, 38.065516667515986], [13.334425853739065, 38.06542358864326], [13.334332359724236, 38.06538537149007]], [[13.335128875806639, 38.06476723905593], [13.334968312188792, 38.064713732444325], [13.33491529698998, 38.06481066279875], [13.335073996060997, 38.064864516157584], [13.335128875806639, 38.06476723905593]], [[13.335571606857057, 38.06724277353821], [13.335567757224888, 38.0672435345846], [13.335564121585097, 38.06724481233896], [13.33556082962512, 38.06724656808479], [13.335557970315048, 38.06724874901113], [13.335555632972033, 38.06725128699169], [13.33555437114493, 38.06725319585744], [13.335525926088135, 38.067303428868044], [13.335524781894286, 38.067305378150785], [13.335524259912551, 38.067306279154025], [13.335523159978262, 38.067309293366264], [13.335522744904178, 38.06731241821253], [13.335523018116701, 38.067315552808324], [13.335523980763154, 38.067318596236966], [13.33552559699445, 38.06732147048842], [13.335527817838214, 38.06732407303483], [13.335530576493777, 38.06732633353844], [13.335533786788123, 38.067328181387175], [13.33553628012726, 38.067329171963905], [13.335537351618507, 38.06732957555329], [13.335676503782986, 38.06737859123941], [13.335677605945241, 38.067378949301386], [13.335681418631108, 38.06737981887775], [13.335685371277574, 38.067380146119014], [13.33568933621428, 38.06737993101926], [13.335693185872962, 38.06737916906813], [13.335696820357434, 38.06737789219469], [13.335700113459835, 38.067376136461284], [13.33570297277093, 38.067373955531544], [13.335705310113022, 38.06737141754808], [13.335706633665177, 38.06736940051127], [13.335735371664924, 38.06731790633806], [13.335735792421218, 38.06731709582132], [13.335736892326564, 38.06731408250781], [13.335737307391577, 38.067310957660574], [13.335737034169894, 38.06730782306505], [13.335736071514678, 38.06730477963796], [13.335734456414915, 38.06730190540535], [13.335732235564336, 38.067299302862686], [13.335729475784245, 38.06729704144662], [13.335726265486098, 38.06729519360316], [13.335723948244418, 38.06729422895543], [13.335584594155208, 38.06724416959419], [13.335583335963053, 38.06724375525004], [13.335579524425015, 38.067242885686795], [13.335575571786528, 38.067242558442146], [13.335571606857057, 38.06724277353821]], [[13.3349133880681, 38.06770797130999], [13.334917237751224, 38.06770720938492], [13.334920872264748, 38.06770593253624], [13.334924164260352, 38.0677041768093], [13.334927024746479, 38.067701995915534], [13.334929362125685, 38.0676994579485], [13.334931106452055, 38.06769663130851], [13.334931918188245, 38.067694615139], [13.334959102196065, 38.067610230132345], [13.334959390423911, 38.067609232095975], [13.334959805524047, 38.06760610725245], [13.334959532334992, 38.067602972656005], [13.334958569708823, 38.067599929223356], [13.334956954633832, 38.06759705498075], [13.334954733802803, 38.06759445242393], [13.33495197401616, 38.067592191890924], [13.334948763725743, 38.06759034402645], [13.33494518829153, 38.06758896501243], [13.3349427073758, 38.067588331469494], [13.334856553970551, 38.067570766711505], [13.334855223339433, 38.06757053066934], [13.334851270707908, 38.0675702024991], [13.334847305739082, 38.067570418471156], [13.334843456082966, 38.0675711794932], [13.334839820435395, 38.067572456323504], [13.334836528443885, 38.067574212048214], [13.334833669099817, 38.067576392956], [13.334831331701027, 38.067578931822105], [13.334829587394259, 38.06758175755975], [13.334828901834168, 38.06758338710479], [13.334800068706867, 38.06766548853221], [13.334799480452281, 38.067667150096355], [13.334799017390676, 38.067668518746345], [13.33479860342282, 38.067671643605216], [13.334798875465586, 38.06767477818571], [13.334799839225507, 38.06767782163565], [13.334801454316354, 38.06768069497939], [13.334803675123908, 38.0676832984399], [13.334806433769625, 38.067685558960186], [13.33480964406039, 38.06768740682853], [13.334813219496628, 38.06768878584669], [13.33481566273189, 38.067689371996686], [13.334817031839922, 38.06768967076648], [13.334904090046255, 38.067707606147074], [13.334905470452702, 38.06770785911537], [13.33490942311235, 38.067708186383086], [13.3349133880681, 38.06770797130999]], [[13.334584951638947, 38.06525338149496], [13.334482526233431, 38.06525113045018], [13.334477023629706, 38.065404263392416], [13.33457430795231, 38.065409649808785], [13.334584951638947, 38.06525338149496]], [[13.334529115935558, 38.06612769749708], [13.334445343827523, 38.066193801822266], [13.334559092517315, 38.06627615865543], [13.33464302980019, 38.06620276958728], [13.334529115935558, 38.06612769749708]], [[13.335312560348683, 38.06712706923092], [13.335312065193714, 38.067126836919286], [13.335248378774205, 38.06709825649705], [13.33524529965174, 38.06709710982053], [13.335241486986119, 38.06709624023045], [13.335237534377852, 38.06709591207371], [13.335233569435328, 38.06709612805946], [13.335229719807812, 38.067096889094884], [13.335226085329845, 38.06709816595408], [13.3352227922293, 38.067099921674284], [13.33521993291536, 38.06710210259237], [13.33521754513589, 38.06710470293478], [13.335185047722225, 38.06714818893478], [13.335183353828814, 38.06715095411158], [13.33518225388321, 38.06715396832042], [13.335181838795771, 38.06715709316521], [13.33518211199339, 38.067160227761555], [13.335183074623808, 38.067163271192676], [13.335184689719275, 38.06716614453147], [13.33518691052579, 38.067168747984894], [13.335189670304448, 38.06717100851234], [13.335192920120138, 38.06717287225043], [13.335255361589242, 38.067202165928435], [13.335258819743993, 38.06720348829898], [13.335262632394942, 38.067204358789546], [13.335266585029602, 38.06720468604464], [13.335270549977935, 38.06720447005795], [13.33527439961076, 38.0672037090213], [13.335278034093232, 38.06720243216074], [13.335281326057657, 38.067200676422914], [13.33528418651333, 38.0671984955196], [13.335286493194154, 38.06719600307065], [13.33532032293827, 38.067151821275495], [13.3353220871392, 38.06714897147985], [13.33532318707903, 38.067145957269595], [13.335323602160377, 38.06714283242413], [13.335323328956749, 38.06713969782797], [13.335322366320753, 38.06713665439787], [13.335320751220436, 38.067133781060825], [13.335318530410078, 38.067131177609845], [13.33531577176834, 38.06712891710148], [13.335312560348683, 38.06712706923092]], [[13.334663858401576, 38.06460154773681], [13.334557198548353, 38.06458505205716], [13.334547442770525, 38.064671299857494], [13.334651883695273, 38.06468687823236], [13.334663858401576, 38.06460154773681]], [[13.347284067025086, 38.06848348905989], [13.34740744346533, 38.068500798625834], [13.347415733657549, 38.068455889124216], [13.34736841350006, 38.068446080149904], [13.347377151950438, 38.06840050106363], [13.34730667211836, 38.06839240212618], [13.347284067025086, 38.06848348905989]], [[13.335515461695419, 38.06717059428019], [13.335513776566629, 38.067172520580336], [13.335513201920463, 38.067173180220465], [13.33551145762935, 38.06717600687016], [13.33551035769669, 38.06717902108237], [13.335509942623005, 38.06718214592864], [13.335510215834702, 38.06718528052453], [13.335511178479107, 38.067188323953275], [13.335512793588096, 38.06719119728784], [13.335515014427628, 38.067193799834456], [13.335517774197168, 38.06719606125535], [13.335520276164281, 38.067197525979296], [13.33552098432226, 38.06719791631153], [13.335580814654634, 38.067228858953], [13.335581542879703, 38.067229218928745], [13.33558511830932, 38.06723059792333], [13.33558893098634, 38.06723146750253], [13.33559288362432, 38.067231794746704], [13.33559684855315, 38.067231579649906], [13.33560069820485, 38.06723081770163], [13.335604332683381, 38.06722954083085], [13.335607624641572, 38.06722778508377], [13.335610485088932, 38.067225604172286], [13.33561206368524, 38.06722400259176], [13.335639474213512, 38.06719255548247], [13.335640231837692, 38.06719161816404], [13.33564197610389, 38.06718879241323], [13.335643076031356, 38.06718577819968], [13.335643491099416, 38.0671826533528], [13.335643217882026, 38.0671795187571], [13.335642255232209, 38.06717647532932], [13.335640640138807, 38.06717360109548], [13.335638419295327, 38.06717099855118], [13.335635659502465, 38.06716873803392], [13.335633304796891, 38.06716731414932], [13.33557231978288, 38.06713531430728], [13.335571464198999, 38.06713489034557], [13.335567888774248, 38.06713351135066], [13.335564077242088, 38.067132641787026], [13.335560124630012, 38.067132313641096], [13.335556159686062, 38.067132529637696], [13.335552310059578, 38.06713329068373], [13.335548674445482, 38.06713456753684], [13.335545382490203, 38.06713632328238], [13.335542522024125, 38.067138505093226], [13.335540722072027, 38.06714036758535], [13.335515461695419, 38.06717059428019]], [[13.334629334454366, 38.0653992035809], [13.334733647541988, 38.06540789770782], [13.33474149044968, 38.065330199397216], [13.334646548333756, 38.065311204133494], [13.334629334454366, 38.0653992035809]], [[13.33282439001287, 38.056595301800236], [13.33290722025152, 38.05660066287804], [13.332914275122338, 38.05652261186191], [13.33282625648658, 38.05651299747019], [13.33282439001287, 38.056595301800236]], [[13.335964038979533, 38.06702054010093], [13.335965973972373, 38.067020162869426], [13.335967787112947, 38.06701952887619], [13.33596943707151, 38.067018651053814], [13.335970867296014, 38.06701756014299], [13.335971169132772, 38.06701726882776], [13.336023515371272, 38.06696552582664], [13.336024382285677, 38.06696454409268], [13.336025249779043, 38.06696313430274], [13.336025794768469, 38.06696161991409], [13.336026006770107, 38.06696006115786], [13.336025865513642, 38.06695849739928], [13.336025389473251, 38.06695696855217], [13.336024586397714, 38.06695553510586], [13.336023476064021, 38.066954229783164], [13.33602209617563, 38.066953099078546], [13.336021292486322, 38.066952598352806], [13.335976232676202, 38.066926806314456], [13.335975427232086, 38.06692638306569], [13.335973643976784, 38.06692569814343], [13.335971728435435, 38.06692526728516], [13.33596975679402, 38.06692509877924], [13.335967778784108, 38.06692521135364], [13.335965844953753, 38.06692558770047], [13.3359640317951, 38.06692622259463], [13.335962380699055, 38.06692710040086], [13.335960951636192, 38.06692819042689], [13.335960438623443, 38.06692869593781], [13.335912764443567, 38.066978897356094], [13.335912281667035, 38.066979426725894], [13.335911605762858, 38.066980178657616], [13.335910738287538, 38.066981587545726], [13.335910193275184, 38.06698310283468], [13.335909981291424, 38.06698466068976], [13.335910122545444, 38.06698622444843], [13.335910599702714, 38.06698775421298], [13.335911401657196, 38.06698918674298], [13.335912511989363, 38.06699049206669], [13.3359138918767, 38.06699162277256], [13.33591410557287, 38.06699175016275], [13.335915452087864, 38.0669925929171], [13.335954984685037, 38.06701857796401], [13.33595639168197, 38.067019367503164], [13.335958174939346, 38.067020052425704], [13.335960090462645, 38.06702048418515], [13.335962062126999, 38.06702065179041], [13.335964038979533, 38.06702054010093]], [[13.335797590111559, 38.06668069708376], [13.335798035783265, 38.066681402717286], [13.335799146108918, 38.066682708041995], [13.33580052600927, 38.06668383784817], [13.335802136274129, 38.06668476184133], [13.33580391836202, 38.066685447650805], [13.335805835035615, 38.066685878527814], [13.335807805551026, 38.066686046119315], [13.33580978353421, 38.06668593444835], [13.335811718498451, 38.0666855581201], [13.335812658822631, 38.066685260527606], [13.335857272856149, 38.06666949254814], [13.33585814454591, 38.06666915523223], [13.33585979563723, 38.06666827742731], [13.335861225856302, 38.06666718651762], [13.335862394604849, 38.066665913469805], [13.33586326207712, 38.06666450458189], [13.33586380708783, 38.066662989293036], [13.335864019071385, 38.066661431437986], [13.335863877818717, 38.0666598676792], [13.335863400664305, 38.06665833791446], [13.335862978484064, 38.066657501040424], [13.335827035529052, 38.06659575359979], [13.335826655780147, 38.06659515704253], [13.335825545434828, 38.06659385261899], [13.335824166695682, 38.06659272192833], [13.335822556432507, 38.066591797935516], [13.33582077320714, 38.06659111211021], [13.335818857675436, 38.06659068124965], [13.33581688602301, 38.06659051364225], [13.33581490804241, 38.066590625313424], [13.335812974220236, 38.06659100165791], [13.335812578426431, 38.066591113206925], [13.335768408529523, 38.066604587629044], [13.335768022664778, 38.06660471373752], [13.335766596516843, 38.06660522253647], [13.3357649454259, 38.066606100340074], [13.33576351522708, 38.06660719034771], [13.335762346477834, 38.06660846339454], [13.33576148012347, 38.066609873198736], [13.335760933991972, 38.06661138757002], [13.335760721986015, 38.06661294632576], [13.335760863236418, 38.06661451008463], [13.335761340408855, 38.066616038948865], [13.335761726640193, 38.06661675185138], [13.335762122780329, 38.06661748021443], [13.335797590111559, 38.06668069708376]], [[13.335401835432666, 38.067164254372294], [13.335397986922215, 38.06716501633022], [13.335394351304023, 38.067166293178474], [13.335391059343753, 38.067168048919555], [13.33538819889238, 38.067170229825585], [13.33538586154623, 38.06717276780274], [13.335385354373203, 38.06717346805034], [13.335367296913315, 38.06719982701832], [13.33536682795357, 38.06720055123807], [13.335365561548594, 38.06720266190293], [13.335364461629972, 38.067205675212705], [13.335364047689449, 38.06720880007445], [13.335364320894964, 38.06721193467051], [13.335365283533585, 38.067214978100296], [13.335366898616918, 38.06721785233767], [13.335369119451947, 38.06722045488689], [13.335371878078284, 38.06722271629499], [13.335375089503595, 38.06722456416405], [13.335376296958048, 38.0672250543926], [13.335378623819603, 38.067225996653704], [13.335417893796844, 38.06724229129394], [13.335420282039468, 38.06724314070024], [13.335424094714995, 38.06724401028475], [13.335428047332279, 38.067244338435394], [13.335432012282494, 38.06724412244326], [13.335435861915935, 38.06724336140136], [13.33543949753732, 38.06724208455192], [13.335442789499863, 38.067240328809554], [13.335445648812918, 38.06723814788608], [13.335447986179636, 38.067235609006886], [13.335448493332112, 38.0672349096599], [13.335467049175671, 38.067207834986746], [13.33546828629678, 38.067205708585746], [13.33546938623159, 38.067202694374], [13.335469801307147, 38.06719956952792], [13.33546952809715, 38.06719643493198], [13.335468565454386, 38.067193391502954], [13.335466950367525, 38.06719051726689], [13.335464729529827, 38.06718791471943], [13.335461969741857, 38.067185654198234], [13.335458759455479, 38.06718380634768], [13.335457563155432, 38.06718327662571], [13.335415944766124, 38.06716608629497], [13.335413565662805, 38.06716523611687], [13.33540975299148, 38.067164366532104], [13.335405800358158, 38.06716403928185], [13.335401835432666, 38.067164254372294]], [[13.335207651080038, 38.06665420685344], [13.335205716113892, 38.06665458317168], [13.335203904095428, 38.06665521807029], [13.335202252996908, 38.066656095865795], [13.335200822768563, 38.066657186767266], [13.33519965400894, 38.06665845980822], [13.33519952217404, 38.06665864358509], [13.335173945407107, 38.0666941800301], [13.335173823623713, 38.066694372961216], [13.335173079040544, 38.066695589829635], [13.335172532896312, 38.06669710419789], [13.335172320877588, 38.066698662952255], [13.33517246211553, 38.06670022671151], [13.335172939276111, 38.066701755577824], [13.335173741192671, 38.066703189013424], [13.33517485150734, 38.066704494343774], [13.335176231398203, 38.06670562415707], [13.335177541095042, 38.06670638078536], [13.335177841655362, 38.06670654815861], [13.335228130659818, 38.066732251469865], [13.335228441639567, 38.066732411781125], [13.335230223743332, 38.066733096698286], [13.335232140394028, 38.066733528485514], [13.335234110909047, 38.06673369608662], [13.335236088914451, 38.06673358352446], [13.335238023882546, 38.06673320720574], [13.335239835902698, 38.06673257230667], [13.335241487002545, 38.066731694510665], [13.335242917211373, 38.066730604509644], [13.335244095434916, 38.06672931628216], [13.335272624077904, 38.06669143619749], [13.33527347149523, 38.06669005767029], [13.335274016497804, 38.06668854328538], [13.335274228514338, 38.06668698453078], [13.33527408727424, 38.06668542077158], [13.335273610111626, 38.066683891905626], [13.335272808193285, 38.06668245847068], [13.335271697877168, 38.066681153141225], [13.335270317985236, 38.066680023329006], [13.335268707727442, 38.06667909932871], [13.335268415405247, 38.06667897082345], [13.335215007143558, 38.066655251009614], [13.33521351624468, 38.06665469368057], [13.335211599575732, 38.06665426279401], [13.335209627923367, 38.06665409517641], [13.335207651080038, 38.06665420685344]], [[13.335337725949051, 38.06610106578476], [13.335372507809506, 38.066157584455844], [13.33542853846329, 38.06613408576215], [13.335394609200584, 38.06608154080645], [13.335337725949051, 38.06610106578476]]]}, "properties": {"anno": 2014, "id": 7042, "data": "2014-06-24", "localita": "Orecchiuta", "sup_ha": 415.2803, "sup_boscata_ha": 152.2087, "sup_non_boscata_ha": 187.1, "luogo_inizio": "bosco", "squadre_aib": 1, "fine_intervento": "2014-06-27"}}, {"type": "Feature", "geometry": {"type": "Polygon", "coordinates": [[[13.278727095272876, 38.12330869236882], [13.278979231106852, 38.12300591261984], [13.279389352338343, 38.12293126473044], [13.280044785994773, 38.12284407797201], [13.280051603600075, 38.122553841295314], [13.280791711865943, 38.12233884850708], [13.281163283793946, 38.12216685211614], [13.281961204116277, 38.122097864422884], [13.282775769312593, 38.12219041759443], [13.283293233873215, 38.12189150467345], [13.283852264005366, 38.12156093383017], [13.284430573705185, 38.121279038539264], [13.28468154597388, 38.121024619527546], [13.284850877650284, 38.12076901588841], [13.285139272574876, 38.120660308922545], [13.28537703660583, 38.12097024889904], [13.285554693500597, 38.12123092155696], [13.286322760277772, 38.121564719555636], [13.286236969047978, 38.12174089911745], [13.28663198628695, 38.122311202145504], [13.286910955073262, 38.122605611816326], [13.28764953750487, 38.122455070230984], [13.28822633315191, 38.12223765012329], [13.288743399028078, 38.12195484179279], [13.289015521044087, 38.12166845861506], [13.28912511329877, 38.121347455212174], [13.289618371979243, 38.121209464570455], [13.290067407375759, 38.12121599648681], [13.290517580178706, 38.121174154647676], [13.290846418639429, 38.12108215688171], [13.291689668419927, 38.12082020445264], [13.292202189711826, 38.120730864429426], [13.292713590940238, 38.12068990349583], [13.293204585099742, 38.12064864377665], [13.29345590073747, 38.120378082328855], [13.293459658045023, 38.120216840929345], [13.293260065691875, 38.12002037816888], [13.293041935072203, 38.119743001260744], [13.292902062754074, 38.11961193717998], [13.29274629378685, 38.11928706846282], [13.292567111802168, 38.11909090842076], [13.29232669997322, 38.118893857893696], [13.292167551623846, 38.118714115956365], [13.292151656925462, 38.11852032674538], [13.292598053285754, 38.118639716951016], [13.293353611245744, 38.11863456147183], [13.29373764350557, 38.1188014307054], [13.294247905024404, 38.11880883592048], [13.294895788177348, 38.11904405442893], [13.29508975368708, 38.119482381354345], [13.2955895122888, 38.11994126789507], [13.295591917647595, 38.12071554250898], [13.295797667608204, 38.12152502709861], [13.29545908573959, 38.12203627560235], [13.294910980324644, 38.12189928494789], [13.294424869693202, 38.12173093806287], [13.293848847205751, 38.12191613711287], [13.293268311613605, 38.122294833844386], [13.2924099054089, 38.12233075704483], [13.291915515482803, 38.12251713241556], [13.291420003460447, 38.12275187883956], [13.291022398778846, 38.12316548461699], [13.290608145429317, 38.12341753549558], [13.290321252882427, 38.12346175269101], [13.289926651361405, 38.123746357342924], [13.289579275000174, 38.12375743088654], [13.289044427733245, 38.1239270773537], [13.288798725991256, 38.12395576342848], [13.28822380356135, 38.124092561083664], [13.28773491880707, 38.12468551942608], [13.287008256095517, 38.1250834569383], [13.286417486005469, 38.12537794610747], [13.285831943807114, 38.12544847581996], [13.285453928826227, 38.12520575459048], [13.285345826760071, 38.12483518715509], [13.285793943212328, 38.12493397267986], [13.286311228122349, 38.12492833922517], [13.286616649304284, 38.124708758891344], [13.28663917944511, 38.12445869544263], [13.286929156545146, 38.12418618017154], [13.286868620961949, 38.12392173167645], [13.286690103742087, 38.12370827990683], [13.286236444159385, 38.12384662583128], [13.285847950975471, 38.12405181855826], [13.285542530548025, 38.124271389719475], [13.284890604830984, 38.12432777149852], [13.284029899992316, 38.124038469552396], [13.283566972328249, 38.123860394602914], [13.282819308663896, 38.12373086659551], [13.281367224569097, 38.12376236284267], [13.280183198683092, 38.12374504619805], [13.278968240825186, 38.1234735182606], [13.278727095272876, 38.12330869236882]]]}, "properties": {"anno": 2014, "id": 8042, "data": "2014-06-24", "localita": "Manche di Bellolampo - Cozzo S. Isidoro", "sup_ha": 35.8684, "sup_boscata_ha": 21.7557, "sup_non_boscata_ha": 12.4379, "luogo_inizio": "incolto e pascolo", "squadre_aib": 0, "fine_intervento": "2014-06-25"}}, {"type": "Feature", "geometry": {"type": "Polygon", "coordinates": [[[13.295312981572332, 38.160833993560296], [13.295784909705217, 38.16044739450064], [13.296000879793091, 38.16021382410055], [13.296073469273683, 38.16013118768934], [13.29607672197587, 38.15999175357261], [13.296079973514654, 38.159852319435785], [13.296083875507735, 38.15968499089963], [13.296088428744373, 38.159489782392015], [13.296127649895393, 38.15932297360174], [13.296202839448055, 38.15912878289864], [13.29627672914221, 38.158990372844805], [13.2963859354613, 38.15885247426779], [13.296353868292213, 38.158712528534316], [13.296451610294051, 38.15840049078134], [13.29647797794628, 38.15828275512471], [13.296591639426808, 38.15813520364425], [13.296852572074206, 38.15842495550588], [13.296955594416135, 38.15866545828509], [13.297198274626707, 38.15886424903846], [13.297304240221989, 38.158865784858435], [13.297479534483669, 38.15892411734466], [13.297690796832326, 38.15895507441929], [13.297902059373598, 38.15898603111774], [13.298078662603503, 38.15898858931916], [13.298251358841826, 38.15915846774365], [13.298391335008022, 38.159216295998206], [13.298602598643196, 38.1592472514593], [13.298850489512832, 38.1592229439453], [13.299029031967502, 38.15914183169268], [13.299206275655477, 38.15911650083921], [13.299301726151453, 38.15909300031832], [13.299341219001112, 38.15903339847975], [13.29938071161767, 38.158973803832765], [13.299449413508631, 38.15896877726407], [13.299548445818015, 38.158970210641336], [13.299617007886868, 38.15897120267117], [13.29970855712661, 38.15896651493256], [13.299740007695725, 38.15892484964725], [13.299741546819016, 38.15885868544792], [13.299765664316439, 38.158804880631635], [13.299819411271056, 38.15878761296458], [13.299895165462337, 38.15880675491865], [13.299986155764756, 38.15882612463454], [13.300084347560654, 38.158863645389864], [13.300145017784512, 38.15887655618638], [13.30019610524507, 38.15897356876916], [13.300259979212209, 38.159001425845766], [13.300330360957531, 38.159016411949196], [13.300405895703738, 38.15906404451971], [13.30048120407041, 38.15912098916815], [13.300562837590425, 38.15915941163525], [13.30063847034938, 38.159202392731316], [13.300719696020836, 38.159265962667604], [13.300801112728568, 38.159313688223946], [13.300847289673804, 38.15935624290225], [13.300869556643462, 38.159412419704196], [13.300839115925772, 38.15945386740514], [13.300797217594313, 38.15948118834623], [13.300747689111612, 38.15948796840278], [13.300683331151827, 38.159518149895355], [13.30056106874211, 38.159496394173665], [13.300478029132574, 38.15951846677077], [13.300400771096447, 38.159545276644565], [13.300352754319846, 38.15958181614937], [13.300345888790904, 38.15962361129205], [13.300285300767003, 38.159643553963804], [13.30021971722259, 38.15967518636466], [13.300183493266754, 38.15971189652057], [13.30011288438222, 38.15970622153674], [13.300030818030738, 38.15968642058908], [13.29996599193029, 38.15968548288838], [13.299912625589402, 38.15969867021775], [13.299887543755524, 38.159763468891406], [13.29986823532922, 38.159833012011745], [13.299897052318986, 38.159861356553634], [13.299901319872077, 38.159931232036236], [13.2999241380503, 38.15996414335598], [13.29988791268109, 38.160000852494704], [13.299822979224505, 38.16000457401251], [13.299764163301715, 38.159999062372385], [13.299449181415042, 38.160046902027126], [13.299438137836114, 38.1601764430506], [13.299453696435087, 38.1602595805907], [13.299731894893943, 38.16046398391518], [13.299798980823086, 38.16058931871389], [13.299972767418272, 38.160642506132774], [13.300033164447182, 38.16080459731885], [13.30001378504389, 38.16113597271045], [13.300137376602969, 38.161340438049535], [13.300309343031188, 38.16147189682683], [13.300330967417528, 38.16167160104013], [13.300434330635708, 38.16177246125329], [13.300339223492136, 38.16196584636208], [13.300183949503925, 38.16193180429929], [13.30005245737083, 38.16195772058472], [13.299824888964126, 38.162002126245504], [13.299704825920573, 38.16187771759827], [13.299594935541624, 38.161716596485206], [13.299521943309657, 38.16160821987956], [13.299415857748743, 38.1614079536943], [13.299399886308743, 38.1612288553611], [13.299393154187761, 38.16108567181664], [13.299381385955687, 38.160942408115694], [13.299374921707232, 38.16078730415673], [13.29935914530546, 38.160600261205246], [13.299375499427388, 38.16048645856073], [13.299354160383087, 38.1603815875673], [13.299287222680379, 38.16022957731463], [13.299334225808902, 38.160128880058956], [13.29943778410679, 38.15998032518799], [13.29928475852216, 38.15988360747805], [13.299069546209525, 38.15995711198434], [13.298980786813035, 38.16015459730081], [13.298717045061307, 38.16025398980513], [13.298556960587637, 38.16011234555407], [13.298339924078473, 38.160171124182185], [13.298042981045073, 38.16053845567734], [13.29771112936105, 38.16068186933272], [13.297298206649687, 38.16076605389224], [13.296803802166552, 38.16082600760467], [13.296099183233117, 38.16085955853441], [13.295312981572332, 38.160833993560296]]]}, "properties": {"anno": 2014, "id": 7132, "data": "2014-06-25", "localita": "Bosco Ferreri - Inserra", "sup_ha": 7.4615, "sup_boscata_ha": 0.009, "sup_non_boscata_ha": 0.0, "luogo_inizio": "strada comunale", "squadre_aib": 0, "fine_intervento": "2014-06-25"}}, {"type": "Feature", "geometry": {"type": "Polygon", "coordinates": [[[13.263723961948706, 38.136328205362034], [13.26371750574328, 38.13626535694293], [13.263806957711697, 38.1361788180995], [13.263807850887382, 38.1361411786237], [13.263816836879156, 38.13609738124401], [13.263849804991624, 38.136047660865124], [13.263889962421986, 38.1360294236946], [13.263898799656378, 38.13599190075672], [13.263965469738778, 38.135861095654576], [13.264063609325728, 38.135743308995046], [13.264177785373095, 38.135619481734764], [13.26430874218463, 38.135458241579165], [13.264391288807248, 38.13532766996429], [13.264441037010293, 38.13524054471231], [13.264491370344654, 38.13512832869404], [13.264604503308352, 38.135048415818524], [13.264670576932117, 38.13494269995331], [13.264719272959987, 38.134899489269], [13.264798992792263, 38.13488811300746], [13.264847689870784, 38.13484490138283], [13.264935512281937, 38.13482737530375], [13.26509466368871, 38.13481717057182], [13.265198216429267, 38.13480614522062], [13.26526176014068, 38.13480708388693], [13.265356326655537, 38.13483986311096], [13.265475470204978, 38.13484162200747], [13.265531515670988, 38.13482361802413], [13.265540500445105, 38.134779820474414], [13.265525653319557, 38.134735671843174], [13.265487577531461, 38.134666079833934], [13.265425669002447, 38.13459612949012], [13.265395388753953, 38.134532929244195], [13.26534068154405, 38.13449446847905], [13.265262439754189, 38.134443106743916], [13.265132881999433, 38.134386528800874], [13.265207583144152, 38.13423995483522], [13.265325377887953, 38.134153786585486], [13.26541554064632, 38.13410589732828], [13.265539194296629, 38.13396003805929], [13.265658393471762, 38.13381412007698], [13.26579589633456, 38.13364737315378], [13.265947083453895, 38.133466768055335], [13.266097926928035, 38.133300217739546], [13.266157192263266, 38.13324131449274], [13.266217124058072, 38.1331542919149], [13.266262964031402, 38.13309870947842], [13.266312582054576, 38.13307131193629], [13.266345448986074, 38.13309550602885], [13.266371583847453, 38.13314065298016], [13.266397548012497, 38.13319296711919], [13.266436856814105, 38.133256214786655], [13.266465177709046, 38.13330498244751], [13.266489083041058, 38.13334830944056], [13.266494742918763, 38.133396735381694], [13.266502409037424, 38.133455942802634], [13.26647872901952, 38.13349856828284], [13.266468604191443, 38.13354317997036], [13.266471822705471, 38.13359873237712], [13.266493509832017, 38.13364024050465], [13.266490136735603, 38.13368674608614], [13.266548449977497, 38.13370873568421], [13.266566042343264, 38.13374122662297], [13.266561275439154, 38.13377016313884], [13.266584832059669, 38.13380918908403], [13.2666160896886, 38.13386766420714], [13.266618796166386, 38.133925718810495], [13.266632729309306, 38.13394042790192], [13.26666664294717, 38.13397315882369], [13.266727950957343, 38.13396922260331], [13.266783399652052, 38.13395392893542], [13.266823428954755, 38.13398675007122], [13.266897553439156, 38.13404424916516], [13.266945552949416, 38.134085243444815], [13.266978933340528, 38.13414052631166], [13.267022231965193, 38.134207242690174], [13.267042136565795, 38.13422847961674], [13.267068157760466, 38.13424981400743], [13.267095209727584, 38.13427035615374], [13.267147098577272, 38.13431947141699], [13.267231657941752, 38.13436745291248], [13.267279581617238, 38.13441167032637], [13.26735216632234, 38.134448195104085], [13.267402392672382, 38.134481166490055], [13.26745185486017, 38.13454635694557], [13.267572059134784, 38.13463998206751], [13.267699637387159, 38.13468054137178], [13.26781407047669, 38.134759577679446], [13.267871846097675, 38.134818450818024], [13.267911952565253, 38.134848048336906], [13.267951563890826, 38.134898590754744], [13.26804419890182, 38.134949906153864], [13.268083848365345, 38.134998841401824], [13.268182646416356, 38.13504863899389], [13.268238846003756, 38.135088145987645], [13.268315741317933, 38.13511506237945], [13.2684067607738, 38.13514863395616], [13.26851394828303, 38.13518889172188], [13.268544164182323, 38.135205456460625], [13.268637105610647, 38.135243888273976], [13.268715932123255, 38.13527566495405], [13.268808682112411, 38.13532215748489], [13.268870844537432, 38.13536819905509], [13.268917001701492, 38.13540110260677], [13.268975503165125, 38.135429363230536], [13.268985508417067, 38.13543756627288], [13.269054281622513, 38.135462753874975], [13.269195881405734, 38.13551479728863], [13.269280472361602, 38.13556117010121], [13.269345137132742, 38.135587904674374], [13.26940986892646, 38.13561141761378], [13.269454437859688, 38.135624969244155], [13.269545040090401, 38.135676253515605], [13.269615668540455, 38.13570952459462], [13.269712690827063, 38.13574802380493], [13.269840357508384, 38.135785357717836], [13.269935268168615, 38.13582704191347], [13.270015979631554, 38.13586529247229], [13.270070858663676, 38.135874156465086], [13.270121581616369, 38.135886189908355], [13.270133632110696, 38.13589442298124], [13.2701990123049, 38.13589054584735], [13.270257894962462, 38.135902699422296], [13.270330978283738, 38.13591827930469], [13.270471030442136, 38.13594934708063], [13.270529837295207, 38.135964715681666], [13.270590908331126, 38.13597044623288], [13.270669927763718, 38.1359941679867], [13.270710682345827, 38.13599638392149], [13.270732776391672, 38.13601121270511], [13.270715428038146, 38.136054467569075], [13.270685810147956, 38.13609915034343], [13.270664237703215, 38.13614879177362], [13.27063464741499, 38.13619186725175], [13.270628075176948, 38.13621111319542], [13.27060872871345, 38.13625273092832], [13.270585188338313, 38.13629911897287], [13.270570341355915, 38.13632306792182], [13.270549025836704, 38.13636143315855], [13.270532256924907, 38.136380521721264], [13.270500707566018, 38.13642035203326], [13.27049813921016, 38.136442874113776], [13.270468130335233, 38.13650367030841], [13.270436667420768, 38.13654027027694], [13.27042355061658, 38.13657714764785], [13.270402501336877, 38.13660422961461], [13.27037496606059, 38.136647334386375], [13.270359804110964, 38.136684182528576], [13.270338459549786, 38.136724154983455], [13.270321643235578, 38.13674485861439], [13.270296258028967, 38.136783155747956], [13.270268674194636, 38.136827876477135], [13.270243173542275, 38.13687101208471], [13.270213620672106, 38.13691247940861], [13.27019620479513, 38.13695895757848], [13.270168658971311, 38.13700206304291], [13.270145004019763, 38.13705328047628], [13.27011904658974, 38.137115752949974], [13.270078878336973, 38.137174783580264], [13.270065619451058, 38.13721809947714], [13.270050723523918, 38.13724367064059], [13.27003021674884, 38.1372482006253], [13.269989651674674, 38.137237931677426], [13.269898514614734, 38.13720919976263], [13.269843748866299, 38.13719549806574], [13.269795099005329, 38.13718188645127], [13.269736252082943, 38.13716813178432], [13.269653151821839, 38.13714434926791], [13.269568407693097, 38.137104423234824], [13.269485117334787, 38.13708869336156], [13.26941245168441, 38.137055392177906], [13.269345483286582, 38.137039902735594], [13.269276402832809, 38.137027605614826], [13.269209586778857, 38.1370056704664], [13.2691548592942, 38.136990361326106], [13.26912642118461, 38.13698510289385], [13.269078971617285, 38.1369664819473], [13.269015181384415, 38.13695923440547], [13.268951615212316, 38.136942505313655], [13.268870960683934, 38.13705656887486], [13.268765464842398, 38.13720657611919], [13.268848301295805, 38.137253583038216], [13.268935148211815, 38.1373006481154], [13.268984313032346, 38.137334520578015], [13.269023533618522, 38.13736667660423], [13.269074853857795, 38.137394271706704], [13.269108487532575, 38.13740897529815], [13.269147859660473, 38.13743481811527], [13.269185261803187, 38.13745904672588], [13.269226852737546, 38.13747544461052], [13.269264255876648, 38.13749968132145], [13.269295857485556, 38.13751593195936], [13.269356905091344, 38.137554724954654], [13.26938824455674, 38.137582025460055], [13.269411359899568, 38.137619413218644], [13.269455435438742, 38.13765390168451], [13.269514716716808, 38.137735355205805], [13.26955241009325, 38.137781029538026], [13.269604140698661, 38.13783658115759], [13.269617236823693, 38.13788673230861], [13.269647416110798, 38.137904903917295], [13.269661159055815, 38.13792767352216], [13.269675206702829, 38.13793754375727], [13.269676185102966, 38.13798268517827], [13.269680587577392, 38.13805526722119], [13.269743248639495, 38.138080365276075], [13.269779962556496, 38.138080905309394], [13.269830915487846, 38.138083263707095], [13.26986756240477, 38.13808702711331], [13.269895926204546, 38.1380955005516], [13.26994668765689, 38.1381059188491], [13.269973167712827, 38.138107916643406], [13.27004790747948, 38.13813963945187], [13.27007593805972, 38.138162611373545], [13.270090803121015, 38.13822406848008], [13.270134726011216, 38.1382650014177], [13.270168262646505, 38.138313845919754], [13.27021460196049, 38.13833870239829], [13.270269064399647, 38.13836528799867], [13.270272307469147, 38.138400790511476], [13.27026962491101, 38.1384281420707], [13.27025688814492, 38.13844890577267], [13.270209748644074, 38.13845788367824], [13.270162676123578, 38.13846363816406], [13.270142054940921, 38.138472998554214], [13.270109421939045, 38.13847251874782], [13.27006454560375, 38.13847185767235], [13.270041956355572, 38.13847797277596], [13.270013402190626, 38.1384775530299], [13.270001122969143, 38.13847898793405], [13.26997249403324, 38.13848178245207], [13.269968184561414, 38.138491391225344], [13.269957788155786, 38.13849929362546], [13.269955523824812, 38.13850893162631], [13.269939202765554, 38.138508691180526], [13.269916812811367, 38.13850675363483], [13.269873972435915, 38.13850612338223], [13.269837334434603, 38.13850236010769], [13.269800658477797, 38.13850020395023], [13.26976197534076, 38.13849641142138], [13.269729455312195, 38.13849110019771], [13.269690705193758, 38.13849053014449], [13.269662141925588, 38.138490109277605], [13.269641902276987, 38.138483363178246], [13.269607451226028, 38.13847319229394], [13.269570775272047, 38.13847103696604], [13.26954599772483, 38.138483567601206], [13.269541155469073, 38.138515727501556], [13.269530349517645, 38.138541350747786], [13.269513494555058, 38.1385636622704], [13.269504914800347, 38.138581263659674], [13.269493880409202, 38.13861655579558], [13.269479146689923, 38.13863567418465], [13.269499272272967, 38.138647249804734], [13.269527759476633, 38.13865089307673], [13.269668425248426, 38.13865618840484], [13.269831605400794, 38.1386585908895], [13.269880474318825, 38.138662534363164], [13.269888940878346, 38.13864977056241], [13.26999085667093, 38.13865448739436], [13.270113231261321, 38.13865628833722], [13.270158068426571, 38.13865856461643], [13.270157802166322, 38.138669839741404], [13.270182170314834, 38.13867503076816], [13.270146768072467, 38.1387051319454], [13.270100636067529, 38.138757635849615], [13.270054313839935, 38.13881819159203], [13.270020689332343, 38.1388595916563], [13.269964017586169, 38.13892644276765], [13.269881959278074, 38.13903159986309], [13.26982675150862, 38.13912264005425], [13.269792898176524, 38.13917371614615], [13.26976012861171, 38.13926508599531], [13.26972785461372, 38.139335520842444], [13.269716896318535, 38.13936759063081], [13.269705671676363, 38.13941093553865], [13.269706487749326, 38.139462514319256], [13.269697145711127, 38.139512334836574], [13.269693929989048, 38.13956224562123], [13.269681676687824, 38.13964908656343], [13.269664211337185, 38.13969717969442], [13.269658074054949, 38.139784110750035], [13.269634492566539, 38.13983211375449], [13.269633503236976, 38.13987399367098], [13.269637202640176, 38.13989016741051], [13.269648987348022, 38.139909676562695], [13.26969170416844, 38.13991513715812], [13.269726382945958, 38.13991564813075], [13.269757249162488, 38.139904822973214], [13.269785878854506, 38.13990202041416], [13.269803306026981, 38.13985554250171], [13.26986261147682, 38.13984997560919], [13.269929915854112, 38.139850966292926], [13.269983371693888, 38.13983402600401], [13.27001570216918, 38.139847389027665], [13.270060578205136, 38.13984805012506], [13.27011157035354, 38.13984880040077], [13.27016014591095, 38.13986563518741], [13.270170189861172, 38.13987223011132], [13.270228733481465, 38.13989887495112], [13.270264877792487, 38.13992357493191], [13.270371236373254, 38.139999273571135], [13.270427287562331, 38.14004522431765], [13.270453349891302, 38.14006494367563], [13.270524392232758, 38.14008049250525], [13.270610102512489, 38.140080146185205], [13.270755193520644, 38.140071001071334], [13.27087595508555, 38.14005505056947], [13.270890422756164, 38.1400471999275], [13.270949623402913, 38.140046463017676], [13.27097836713659, 38.140038829772486], [13.271009157341501, 38.1400312194418], [13.271060301592165, 38.14002553178377], [13.271123573355826, 38.14002484661425], [13.271158358235631, 38.1400205266517], [13.271181023955192, 38.14001118807698], [13.27122378916649, 38.14001504114091], [13.271246112698105, 38.14002020094932], [13.271248642849692, 38.13999929500093], [13.271251515367792, 38.139963882548514], [13.27126036212582, 38.139935005917046], [13.271261198618083, 38.13989956258996], [13.271280241517227, 38.13987083605576], [13.271286786117372, 38.13985320457814], [13.271307216539938, 38.139851889534306], [13.271311753899068, 38.13983262081921], [13.271314170217309, 38.13981653715716], [13.271326601589555, 38.13980866369374], [13.271381521667386, 38.13981592001336], [13.271424400768614, 38.13981494260489], [13.27147173106849, 38.139797910566216], [13.271510596048028, 38.13979364334514], [13.271560085456056, 38.1397718109755], [13.271608927558066, 38.139777361930555], [13.271639450218016, 38.139781034652586], [13.271675708768457, 38.139800911018774], [13.271737838807443, 38.13984855920217], [13.27183233769742, 38.139907962756354], [13.271878945928808, 38.139921535385575], [13.271948104299328, 38.13993061586761], [13.272056329302307, 38.139927367301866], [13.272076883950325, 38.139921221876776], [13.272167007012722, 38.139906435913204], [13.272226274461682, 38.13990247495348], [13.272277427864198, 38.13989677878725], [13.272310214687055, 38.13989081328695], [13.272357088937163, 38.139893110592624], [13.272410126342661, 38.13989388995949], [13.272457113189999, 38.13989136491675], [13.272489710080992, 38.13989345213396], [13.272516000767729, 38.139903510247166], [13.272538400360462, 38.13990544744283], [13.272513090961237, 38.13994052987595], [13.2724920033315, 38.139969227435884], [13.272464571581681, 38.140007502122764], [13.272424984694457, 38.14004237540006], [13.272401634264428, 38.14008070290337], [13.272370426188813, 38.14010603527553], [13.272353228595978, 38.140142845599684], [13.272321878903426, 38.14017461563786], [13.272302722388936, 38.140208172746405], [13.272283451729853, 38.140246568357774], [13.272288844670312, 38.14027727036925], [13.272281207454244, 38.14034161961802], [13.272300231986078, 38.14039991415546], [13.272318960679064, 38.14047109107193], [13.272385010646435, 38.1405252444611], [13.272449264102685, 38.14056969912431], [13.27251724534834, 38.14062872013566], [13.272522638579195, 38.14065941493064], [13.27251980472865, 38.1406932121863], [13.272494113858105, 38.14074440822903], [13.272415537086166, 38.140788372065416], [13.272334268821696, 38.14085970263889], [13.272263777199043, 38.140907008806685], [13.272192867449442, 38.14097203659873], [13.272136375634592, 38.14103083582789], [13.272044881688249, 38.14110362432174], [13.271963270830136, 38.141189445809665], [13.271896212574223, 38.141264201448415], [13.271833034056543, 38.14134706970247], [13.271719538726796, 38.141487219227315], [13.271672606649162, 38.141573550881105], [13.27159821393692, 38.14169976424033], [13.271513357923713, 38.1417500910118], [13.271491708368108, 38.1418029467799], [13.271456152971641, 38.141839493945405], [13.271422832975144, 38.14186801123723], [13.271321776997818, 38.141913259216004], [13.271255326895545, 38.14196224004752], [13.271188142913507, 38.14204182548167], [13.271142351691228, 38.14207983044313], [13.271084137770373, 38.142125708045], [13.271006908937887, 38.142198705719395], [13.270953042531369, 38.142233360112485], [13.270919483656069, 38.14227154509376], [13.27084234086712, 38.14234131953653], [13.270780368656203, 38.142459659677364], [13.270640196713714, 38.14260585682751], [13.270567913164161, 38.142728884273666], [13.270544369383309, 38.142775272193774], [13.27046174699498, 38.142817567407526], [13.27041999831735, 38.142857239301485], [13.27033321830107, 38.14290269666991], [13.270256597748299, 38.142949919421], [13.270183838304279, 38.1430068622404], [13.270106951407493, 38.143065352797684], [13.27008809737895, 38.143086026342196], [13.270044159951027, 38.14313211462357], [13.270014832670924, 38.14316391380367], [13.269983442490425, 38.1431972983815], [13.269931562572712, 38.14323359735208], [13.2698293072214, 38.143243371624294], [13.269729353226044, 38.143241899777244], [13.26966184522424, 38.14324896150458], [13.269596117002855, 38.1432673374695], [13.269530339370682, 38.1432873203556], [13.2694811618564, 38.1432962597886], [13.269443835201153, 38.143321493068704], [13.269335006166553, 38.143326811975015], [13.269208644864925, 38.14329357537022], [13.269114807028354, 38.14322943209632], [13.268988743753637, 38.143183645457135], [13.26891755461305, 38.14317004364716], [13.268776194893206, 38.14309893191361], [13.268610267372715, 38.14305883379957], [13.268532171744624, 38.14300119971668], [13.26844537939452, 38.14297482147271], [13.26840596090234, 38.142961686926256], [13.268344339365726, 38.14287919537101], [13.268241964517513, 38.14284003389989], [13.268178858825836, 38.1428202733077], [13.26814783023231, 38.14278843968137], [13.268069874505795, 38.142724530712336], [13.267991631285948, 38.142673170742455], [13.26792176999106, 38.14260311162813], [13.267898082780013, 38.14259648559381], [13.267835125594145, 38.14257045847449], [13.267749532647787, 38.14249388244848], [13.26768672516898, 38.14246157991235], [13.267567717480642, 38.14245354940833], [13.267479746920833, 38.142477359927845], [13.267352646026321, 38.14247548554401], [13.267224801941868, 38.14250497697241], [13.267081821653006, 38.142502868879596], [13.266978555130077, 38.14250134671647], [13.266915748000994, 38.14246904377594], [13.266853088261026, 38.1424304663328], [13.266776333162284, 38.14231636738554], [13.2667536865168, 38.14226582627528], [13.266715160603294, 38.14221505168093], [13.266708998468904, 38.14213965450612], [13.266686798348468, 38.14207029724807], [13.266655919212438, 38.14203218879361], [13.266647974461161, 38.14203207152304], [13.266642704500423, 38.14191902674152], [13.266628152445767, 38.14186232754219], [13.26654976265457, 38.14181724200446], [13.26647151104839, 38.14176588811802], [13.26643224208428, 38.14174647847769], [13.266361342593294, 38.14172033332646], [13.266250281039843, 38.141712417906646], [13.266115692705545, 38.141691601714975], [13.266036402089846, 38.14168415519597], [13.26594887765174, 38.1416891412279], [13.26589357090392, 38.14167577122705], [13.265831210469987, 38.14162465158469], [13.265784591128853, 38.14158003381186], [13.265753852106142, 38.141535650547915], [13.265754000669089, 38.141529376097274], [13.265676355816895, 38.141452915957785], [13.265581471991634, 38.14143269275685], [13.265526759665846, 38.14139423199537], [13.265440723597884, 38.14133647859621], [13.265403091616557, 38.141248063221205], [13.26533308459769, 38.141184269868354], [13.265271022176172, 38.14112060104468], [13.265265159946733, 38.141032654035506], [13.265274442986419, 38.14097630767336], [13.265355517830658, 38.14090847483479], [13.265413947422768, 38.1407900924805], [13.265440448485709, 38.140677524141], [13.265459015139358, 38.14056483859591], [13.265476689443993, 38.14048978531905], [13.265510392133729, 38.14040869934704], [13.26558560236643, 38.14025292019081], [13.265596223174422, 38.14014010914569], [13.26560639821891, 38.140046122352864], [13.265609818044947, 38.1399018370371], [13.26561294088604, 38.1397700934148], [13.26561636085732, 38.139625799984074], [13.265617995885473, 38.13955679453884], [13.26562022632386, 38.13946269039916], [13.265622159626394, 38.13938113516284], [13.265623943367624, 38.1393058480551], [13.265625728093527, 38.139230567269145], [13.265618674852943, 38.13919281042698], [13.265597071974955, 38.139098354280875], [13.265560332074463, 38.13897229943743], [13.265546226869013, 38.13889678486034], [13.265500353413382, 38.13882079295217], [13.265453884572002, 38.13876990062273], [13.265463315515282, 38.13870728696865], [13.265434659859835, 38.13857507394143], [13.26541247234237, 38.138505709401876], [13.265367341791563, 38.1383983604969], [13.265377804831898, 38.13829182465798], [13.265378398993759, 38.138266733152484], [13.265315606599575, 38.138234422382645], [13.265263424512407, 38.1380893165966], [13.26524226698884, 38.137976037011946], [13.265220366578466, 38.137894129686856], [13.265222151607334, 38.137818849799714], [13.265223787071447, 38.137749837140795], [13.265193952711867, 38.13766781350626], [13.265100125342514, 38.137603675330034], [13.26501482769038, 38.137514556507384], [13.264951727470113, 38.13749479429456], [13.264913650901146, 38.13742520210908], [13.264826727163854, 38.13740508873613], [13.26466170871765, 38.13732734589656], [13.264512567669048, 38.137249837470755], [13.264356237449519, 38.137140838463424], [13.264215647424093, 38.13703834855335], [13.264114473412562, 38.13694899351552], [13.263975511381759, 38.136777497777], [13.263890375015036, 38.13668210388348], [13.263821563997485, 38.13656812765151], [13.263759209434957, 38.1365169997986], [13.2637218780569, 38.136416034107214], [13.263723961948706, 38.136328205362034]], [[13.26530312991694, 38.135452250669516], [13.265301377796268, 38.13549589008739], [13.265302920599943, 38.13550137396804], [13.265390123416644, 38.13550209430986], [13.265394940927582, 38.13549971788957], [13.26539556573044, 38.135453427698174], [13.265337923584557, 38.13545201033734], [13.26530312991694, 38.135452250669516]], [[13.267402439166364, 38.13561261282916], [13.267424807844199, 38.135627904976815], [13.267485264954841, 38.13566121290804], [13.267525692255182, 38.135687243051656], [13.267546408005906, 38.13569253573645], [13.267558615685504, 38.13568373476367], [13.26757923498707, 38.13566608672737], [13.26759963848038, 38.13563097893182], [13.267624396655615, 38.135598926355875], [13.267626399549018, 38.13559446627089], [13.267621558940213, 38.13558542190996], [13.26761155586165, 38.13558128216223], [13.267578023065186, 38.135557342639466], [13.267544988899473, 38.135538903096894], [13.26750361379994, 38.135526322463356], [13.267463890386722, 38.13552374754615], [13.267427227199406, 38.135525701086884], [13.267417022648768, 38.135530032956744], [13.267415770711898, 38.13555595287392], [13.267412827901408, 38.135573862573885], [13.267403124243858, 38.135583693564705], [13.267402439166364, 38.13561261282916]]]}, "properties": {"anno": 2014, "id": 8011, "data": "2014-06-30", "localita": "Cozzo San Calogero - Bellolampo", "sup_ha": 42.8049, "sup_boscata_ha": 0.0, "sup_non_boscata_ha": 42.8049, "luogo_inizio": "strada provinciale", "squadre_aib": 0, "fine_intervento": "2014-06-30"}}, {"type": "Feature", "geometry": {"type": "Polygon", "coordinates": [[[13.295926835156138, 38.107662098948644], [13.295928037750842, 38.10761039421151], [13.295970145492431, 38.107559281979704], [13.296029050044925, 38.107489015544225], [13.296125921846334, 38.10745644004474], [13.296322234817826, 38.10745928477298], [13.296477800775836, 38.10745507590619], [13.29661701358372, 38.10745062969383], [13.296756666510726, 38.107426790947756], [13.296896770804594, 38.10738356163057], [13.297052788028584, 38.10735996069278], [13.297201228322526, 38.10731038771183], [13.297313276416594, 38.10727923609687], [13.297493030590681, 38.10723689079463], [13.297672932338575, 38.10718813006658], [13.297853132914037, 38.10712653340881], [13.297976168385203, 38.1070769490697], [13.298156218291352, 38.10702177335345], [13.29827798139996, 38.106974462856186], [13.298368672468486, 38.10691798592585], [13.298508559012063, 38.106842963358936], [13.298600293144434, 38.1067415605107], [13.298715804131902, 38.10666618462617], [13.298771324356732, 38.10663822132145], [13.298802541434306, 38.106703322133285], [13.298858900695523, 38.106742933153825], [13.298897555700533, 38.106840466009416], [13.298896055305429, 38.106905101097205], [13.298838045580109, 38.10693658625546], [13.298812303510566, 38.10698793565759], [13.29879398873571, 38.10707172508223], [13.298752192292797, 38.107109908253356], [13.298709346219987, 38.107193335163856], [13.298676026567662, 38.10721871458236], [13.298649384544838, 38.10730884661804], [13.298640756401701, 38.107328119502675], [13.298638806070198, 38.10741213780628], [13.298597009159687, 38.10745032902145], [13.298530070867805, 38.107514009043044], [13.29843693993783, 38.107648430561945], [13.29838620556972, 38.107718816579016], [13.298343508647136, 38.10779578135337], [13.298293073938671, 38.10785324517396], [13.298242799532073, 38.107904239936516], [13.298228086987885, 38.1078329067414], [13.298197318837566, 38.10774841444095], [13.298141269334995, 38.107695881099026], [13.298044163582022, 38.10764921701904], [13.297806794739623, 38.10765224347521], [13.297691982473092, 38.1076635079594], [13.297577311995774, 38.10766831924993], [13.297470527820199, 38.107686170324094], [13.2973395019883, 38.10769073711735], [13.297200588781095, 38.107682262033336], [13.297094255931528, 38.107680721457584], [13.296997939130904, 38.1076970152145], [13.29689159484873, 38.107695475190404], [13.296793287966098, 38.10770051395513], [13.296687255227898, 38.107686051771545], [13.296605302683949, 38.107691327525984], [13.296482464274613, 38.107696011189006], [13.296392634710351, 38.10768824696889], [13.296294327818964, 38.107693285315385], [13.296220712785601, 38.1076922184823], [13.29609816548421, 38.10768397947459], [13.29598364410748, 38.1076823200138], [13.295926835156138, 38.107662098948644]]]}, "properties": {"anno": 2014, "id": 8031, "data": "2014-07-27", "localita": "Madonna del Ponticello", "sup_ha": 1.2403, "sup_boscata_ha": 1.1047, "sup_non_boscata_ha": 0.1356, "luogo_inizio": "strada provinciale", "squadre_aib": 2, "fine_intervento": "2014-07-27"}}, {"type": "Feature", "geometry": {"type": "Polygon", "coordinates": [[[13.294363190107234, 38.10756094175842], [13.294313079758918, 38.107535976959426], [13.294379118692808, 38.10751107389338], [13.294428953746975, 38.1074794650593], [13.294495143992373, 38.10744810087966], [13.294593901583688, 38.1074236718366], [13.294667967207184, 38.10740534838494], [13.294717501231975, 38.107386676864856], [13.29481610844164, 38.10736870869466], [13.294930919607495, 38.10735743979755], [13.295045440414288, 38.107359100272475], [13.295160261632065, 38.10734783850587], [13.29528309948924, 38.10734315621383], [13.295364600014935, 38.107357264555304], [13.29547896041326, 38.107365385524666], [13.29551002560075, 38.10743695633258], [13.295541691727792, 38.10748267385975], [13.295556853417358, 38.10753461604241], [13.295515355400516, 38.10755987588052], [13.295485513472668, 38.1076158106032], [13.295338573906376, 38.107600746394645], [13.2952081501582, 38.10757946476508], [13.295053485550971, 38.10754489024076], [13.294963666646307, 38.10753712418343], [13.294830343152018, 38.10752892208962], [13.294707644952451, 38.10752714268767], [13.294626144382864, 38.10751303388918], [13.294544202200344, 38.107518308355424], [13.29442938045425, 38.10752957761866], [13.294363190107234, 38.10756094175842]]]}, "properties": {"anno": 2014, "id": 8099, "data": "2014-07-29", "localita": "Madonna del Ponticello", "sup_ha": 0.1903, "sup_boscata_ha": 0.1829, "sup_non_boscata_ha": 0.0074, "luogo_inizio": "strada provinciale", "squadre_aib": 1, "fine_intervento": "2014-07-29"}}, {"type": "Feature", "geometry": {"type": "Polygon", "coordinates": [[[13.375298470038073, 38.074173084518094], [13.375551023722181, 38.07386888447996], [13.376088855130543, 38.073633397247654], [13.37642046712077, 38.073459834988476], [13.376734811797197, 38.073140295281654], [13.376822087401328, 38.072898585722506], [13.376849710707488, 38.072575080034326], [13.377077439071769, 38.07200333483654], [13.377458205755904, 38.071457985035465], [13.378371540907347, 38.07184304398204], [13.379189282337638, 38.07191908975329], [13.379979614747636, 38.07137938212062], [13.38069515454388, 38.070514745412076], [13.381659271107358, 38.06952397694118], [13.381629006368538, 38.06903773092228], [13.381806365647932, 38.06842479241472], [13.38230781413547, 38.0679782554422], [13.382899718903879, 38.06714429107835], [13.38379931159381, 38.06722143706476], [13.384693225557916, 38.06755759559317], [13.384966401656234, 38.06817673273394], [13.384586418960088, 38.06868972430354], [13.384083556239046, 38.069201033820455], [13.383696434431673, 38.07003781003195], [13.383348132394495, 38.070972288134456], [13.382795742037791, 38.07187157196018], [13.381918511431826, 38.072636827510415], [13.381282749215014, 38.07359973056252], [13.380887013183628, 38.07482503825348], [13.380296456358236, 38.07559422716665], [13.3798387555048, 38.075911809642186], [13.379179102707731, 38.07609705033581], [13.37783741676402, 38.075625118832804], [13.37751830573626, 38.07523205709955], [13.37707918192667, 38.074707782616514], [13.376512901319261, 38.07437608162455], [13.376096866514954, 38.07466183727911], [13.375759177294047, 38.07511060853133], [13.375278433193593, 38.07507967588886], [13.375376499064668, 38.074813831447976], [13.375547497166526, 38.07449230760547], [13.375298470038073, 38.074173084518094]]]}, "properties": {"anno": 2014, "id": 7608, "data": "2014-09-01", "localita": "Sferro Vecchio - Jancheria", "sup_ha": 30.4804, "sup_boscata_ha": 5.4697, "sup_non_boscata_ha": 23.2363, "luogo_inizio": "incolto e pascolo", "squadre_aib": 2, "fine_intervento": "2014-09-01"}}, {"type": "Feature", "geometry": {"type": "Polygon", "coordinates": [[[13.421544023378589, 38.06177344565168], [13.42154849150302, 38.06156529115295], [13.421587539808828, 38.061279526751164], [13.42172587647684, 38.06096906112967], [13.421929466568798, 38.060685504496405], [13.422067241767, 38.06040105567546], [13.4223065347001, 38.059987837525526], [13.422444297759908, 38.05970339615508], [13.422616101093501, 38.05936735380312], [13.422785103043935, 38.05916140568624], [13.423020473602522, 38.058930321327075], [13.422926219630092, 38.0587208436553], [13.422766693514772, 38.05848446689702], [13.422672440645947, 38.0582749962423], [13.422643999864775, 38.05806640075513], [13.422615547830057, 38.05785780510454], [13.422456034780424, 38.05762142719085], [13.422657390650473, 38.057441938281066], [13.422922870272798, 38.05734139749268], [13.42322126436178, 38.05724129050849], [13.423487311195395, 38.057114724017836], [13.423814148697332, 38.05722320187428], [13.424243055373491, 38.057176897680435], [13.424697623189742, 38.0574692746975], [13.425085826719299, 38.05778679264653], [13.424875015297225, 38.05840861324825], [13.42470379171418, 38.058718634816756], [13.424860528553776, 38.05908510375507], [13.425050729303779, 38.05942599615111], [13.424911296343268, 38.05978850082519], [13.424611779060662, 38.05994065465443], [13.424344608769589, 38.06011925810505], [13.424176723841613, 38.06027317383184], [13.424070757272636, 38.0606101004676], [13.424193473111565, 38.0610281644532], [13.424151637333248, 38.06144403264129], [13.42394693917926, 38.06177963688664], [13.423780163926681, 38.061881509153594], [13.423415370146413, 38.06200675312378], [13.422985318647056, 38.06210509543898], [13.422623321699874, 38.062100242406146], [13.422230083096448, 38.062016887237505], [13.421836296584846, 38.06195955539636], [13.421544023378589, 38.06177344565168]]]}, "properties": {"anno": 2014, "id": 8255, "data": "2014-09-19", "localita": "Gibilrossa", "sup_ha": 10.4549, "sup_boscata_ha": 0.0, "sup_non_boscata_ha": 10.4549, "luogo_inizio": "altro", "squadre_aib": 2, "fine_intervento": "2014-09-19"}}, {"type": "Feature", "geometry": {"type": "Polygon", "coordinates": [[[13.366939650528161, 38.15548552557867], [13.36700981622013, 38.155484232242124], [13.367084000290467, 38.15549947099409], [13.367140059593334, 38.155520541512374], [13.367211304527302, 38.155551967736784], [13.3672776416565, 38.155573172997286], [13.36734375248084, 38.15560452775226], [13.3674203671126, 38.15562588304414], [13.367473951043971, 38.155642863683376], [13.367532713466764, 38.15565788053139], [13.367581027647182, 38.15568086991229], [13.367634746268134, 38.155691762185924], [13.367680483120273, 38.15571471569638], [13.367739301108662, 38.155727705562114], [13.367790318076436, 38.155744650374416], [13.367843629737921, 38.15577380018249], [13.367907526583904, 38.155788888213266], [13.36794781172762, 38.155825966616874], [13.367983008817603, 38.15586095474679], [13.368007792744764, 38.15590188199362], [13.368069041393293, 38.1559209875334], [13.368111714040081, 38.15596621778188], [13.368144333880702, 38.156001170045535], [13.368220858813967, 38.156026578876336], [13.368279395630953, 38.15605173858878], [13.368343167390725, 38.156072914811645], [13.368394093272038, 38.15609391250087], [13.368448084678995, 38.15609263507417], [13.368494692413169, 38.15607704524397], [13.368540973292674, 38.156075660639125], [13.3685869830048, 38.15608644446893], [13.368624928499347, 38.15611335277694], [13.368663145356747, 38.1561280845118], [13.368716775308577, 38.15614302946456], [13.368780500975394, 38.15616623246291], [13.368836561319808, 38.15618730129043], [13.36890803361012, 38.156208585082986], [13.368964692845628, 38.15620328827303], [13.369018548875305, 38.1562080907591], [13.369059877520456, 38.15619851844356], [13.369063426691776, 38.156269586931835], [13.369094651738116, 38.156454318891335], [13.369131149949842, 38.156713584867], [13.369140604401144, 38.15676379918577], [13.369158595679613, 38.15684107280788], [13.369165038818613, 38.15689797259812], [13.369158015917675, 38.15693098435942], [13.369139063567925, 38.15702544220906], [13.369164694046981, 38.15714348220749], [13.369090291995759, 38.15713839440701], [13.369008395185944, 38.157123049776715], [13.368954719296415, 38.15711013196649], [13.368872741187593, 38.15709884862562], [13.368827275412619, 38.157063725318615], [13.36876341231504, 38.1570466033881], [13.36872006061755, 38.15703180124747], [13.368653767085496, 38.15700856163553], [13.368618478631877, 38.15697763494911], [13.368598928927417, 38.156932726153336], [13.368545661278612, 38.15690155054472], [13.36850238997421, 38.15688268602733], [13.368459174136921, 38.1568617946131], [13.36843389218575, 38.15684318814264], [13.368442146538337, 38.156818948488], [13.368463281651106, 38.15679286827023], [13.368484516406781, 38.15676272601874], [13.368469647926293, 38.156738173182646], [13.36842904449036, 38.156715291306156], [13.368419446029206, 38.15668472152715], [13.368396776655494, 38.15666411558904], [13.368353288604874, 38.15665539347416], [13.36829636671128, 38.15667286666464], [13.368270178488826, 38.15669482222919], [13.368246647764662, 38.156712759414994], [13.368233259237995, 38.156736919596], [13.368191750437068, 38.156754606928665], [13.368148081442746, 38.15675400094047], [13.368104367284406, 38.15675542105887], [13.368050511109214, 38.156750610037946], [13.367996473826915, 38.15675392330318], [13.367934498884768, 38.156767263571396], [13.367880189155361, 38.156782745214144], [13.367839728248365, 38.156807228355106], [13.367806516294413, 38.15674103112924], [13.367786815463159, 38.15669145920536], [13.367760294034527, 38.15663631510228], [13.36773341438774, 38.15659759720141], [13.367706281501846, 38.156569828697776], [13.36767233599591, 38.15653648901919], [13.367721128943415, 38.156541104563146], [13.367774758966798, 38.15655605084863], [13.367825639633638, 38.15657908391828], [13.367865835912644, 38.15662021641698], [13.367911391326126, 38.15665128603515], [13.367952720354308, 38.15664171411902], [13.36798657403145, 38.15662189282022], [13.368032945632548, 38.15661645437641], [13.368074591089155, 38.156592686043226], [13.368085231771124, 38.156576597395826], [13.368121652508359, 38.15655681263591], [13.368173474994185, 38.1565372401079], [13.368227195478005, 38.15654813214094], [13.368273169381135, 38.156560943249346], [13.368308593029022, 38.15658578896188], [13.368329683120024, 38.15656172768266], [13.36831485988973, 38.156535148705125], [13.368261320284283, 38.15651614140908], [13.368202501565248, 38.15650315179014], [13.368143783685165, 38.15648610012909], [13.368087497238676, 38.156475173297295], [13.368051981865325, 38.156454396867474], [13.368024088010376, 38.156437773549385], [13.367980645330984, 38.15642702427647], [13.367947653284467, 38.156408302428375], [13.367943469763063, 38.156365634754835], [13.367907955805917, 38.15634485019096], [13.36786667327378, 38.1563523950877], [13.36784562844904, 38.15637442205172], [13.367824256673435, 38.156410652448194], [13.367777749428269, 38.15642217999095], [13.367736920273366, 38.156409439306444], [13.367709297844694, 38.15638064656748], [13.367705150531743, 38.15633595173807], [13.367664773728077, 38.15630292638083], [13.367595279804485, 38.15630804413011], [13.367499959350345, 38.15631889293547], [13.367475221901213, 38.15627593948094], [13.367433049320336, 38.15620839737006], [13.367408129829354, 38.156173559186605], [13.367385687082916, 38.1561428107383], [13.36737613433157, 38.156110213859456], [13.367428012135777, 38.15608861567688], [13.367477504890774, 38.156058866494426], [13.367493777407486, 38.156020537612214], [13.367484542332578, 38.15597374438591], [13.367459758659049, 38.15593281793607], [13.367434748839107, 38.155902033805255], [13.367391806413647, 38.15586897268344], [13.367340653662684, 38.15585811687629], [13.367274134290092, 38.15584501972305], [13.367245062178478, 38.155881142942306], [13.367235250630783, 38.15591690495787], [13.367178996362425, 38.15584776110539], [13.367096947020006, 38.15572487359187], [13.367032241079633, 38.155630636872694], [13.366939650528161, 38.15548552557867]]]}, "properties": {"anno": 2014, "id": 8147, "data": "2014-10-20", "localita": "Monte Pellegrino - Arenella", "sup_ha": 1.3381, "sup_boscata_ha": 0.0, "sup_non_boscata_ha": 1.3381, "luogo_inizio": "incolto e pascolo", "squadre_aib": 2, "fine_intervento": "2014-10-20"}}]}