{"type": "FeatureCollection", "features": [{"type": "Feature", "geometry": {"type": "Polygon", "coordinates": [[[13.338585075843357, 38.05723335011077], [13.33913622486667, 38.05732445215193], [13.339258729761758, 38.057732351318016], [13.339023126531897, 38.0582497530497], [13.33891237851758, 38.058487724678606], [13.338650437089075, 38.05900475416232], [13.338537568632113, 38.05933642718567], [13.338337929955305, 38.06001055510155], [13.337657899371395, 38.06037586892177], [13.33734610659012, 38.06018399891057], [13.337185752043599, 38.05970265982663], [13.336870448349654, 38.05908374027323], [13.336934655272245, 38.05857433267053], [13.33738401203922, 38.05792456772952], [13.337532384565403, 38.057770446569776], [13.33791565913154, 38.05713015960564], [13.338180182965756, 38.057081824441894], [13.338585075843357, 38.05723335011077]]]}, "properties": {"anno": 2009, "id": 160, "data": "2009-03-27", "localita": "VALLE ORECCHIUTA", "sup_ha": 4.6306}}, {"type": "Feature", "geometry": {"type": "MultiPolygon", "coordinates": [[[[13.384263510902441, 38.068579684758575], [13.384254105289516, 38.06858020158514], [13.384093392077865, 38.068570926286455], [13.383925761084491, 38.06846967903081], [13.383793156234436, 38.068348333659316], [13.383839637696097, 38.06836452123856], [13.384098369204775, 38.06848486503658], [13.384263510902441, 38.068579684758575]]], [[[13.383612758986612, 38.068285512962646], [13.383642944530209, 38.06829602424165], [13.38361684517566, 38.068288745874945], [13.383612758986612, 38.068285512962646]]]]}, "properties": {"anno": 2009, "id": 164, "data": "2009-04-26", "localita": "PIZZO FORBICE", "sup_ha": 0.0244}}, {"type": "Feature", "geometry": {"type": "Polygon", "coordinates": [[[13.380563899967246, 38.0679476180073], [13.380585648398087, 38.068032672176756], [13.380347956491518, 38.068254851120784], [13.380136474591973, 38.068343960342126], [13.379997040235514, 38.068332837852815], [13.379408492099456, 38.06836614030598], [13.378995907835224, 38.06833744922786], [13.378624963316877, 38.06826792147863], [13.378421129362131, 38.06815862932373], [13.378637290115828, 38.06819064491], [13.378978738290813, 38.06820373228835], [13.379301233007148, 38.068166451875456], [13.379533984321446, 38.06809459340762], [13.379816986317836, 38.068023425533845], [13.380069058185775, 38.06798517289692], [13.380431594810448, 38.0679567341387], [13.380563899967246, 38.0679476180073]]]}, "properties": {"anno": 2009, "id": 162, "data": "2009-05-02", "localita": "PIZZO FORBICE JANCHERIA", "sup_ha": 0.4435}}, {"type": "Feature", "geometry": {"type": "Polygon", "coordinates": [[[13.290966489478466, 38.10429724952281], [13.291001138686584, 38.10428676557067], [13.291197380905826, 38.10423822721651], [13.29153473646509, 38.10427396351746], [13.291641027784811, 38.10441994200234], [13.291626108100333, 38.10450194935679], [13.29167620376012, 38.10458490133901], [13.291687769560616, 38.104646738015184], [13.291791792449155, 38.10464824895582], [13.291843805015459, 38.10464900530909], [13.291974074066623, 38.10464061891374], [13.292112683453002, 38.1045907012106], [13.292268959216617, 38.10458269260113], [13.292501575341964, 38.10464773989703], [13.292928040518166, 38.10476699091519], [13.29288663808671, 38.10486916944014], [13.292441901111607, 38.10497577072163], [13.292373294715304, 38.10512894505051], [13.293282553067659, 38.105183259486545], [13.293594387505776, 38.10519806324258], [13.293511821712652, 38.10539214808941], [13.29307984738493, 38.105509215095786], [13.29287036067748, 38.10556784201725], [13.292516882255095, 38.105665489116056], [13.29225370545084, 38.10579528177878], [13.291990528847645, 38.105925074744306], [13.291779603124402, 38.10604534633448], [13.291452366624622, 38.10613309477411], [13.291171677071011, 38.10613983403601], [13.29090993518798, 38.10620797605857], [13.290830236183377, 38.106211012318475], [13.290805524153704, 38.1061724248123], [13.290708575073818, 38.10597727003139], [13.290602150850573, 38.105748366079304], [13.290476221810415, 38.10548538492682], [13.29038804805788, 38.10534929457696], [13.290279663160906, 38.10520452724061], [13.29022212058815, 38.10506050074659], [13.29020505428838, 38.104917060679476], [13.29021826295365, 38.10479091238899], [13.290282088596602, 38.10466550172741], [13.290354822266295, 38.10459161391837], [13.290491936252044, 38.104612794586565], [13.290626815006403, 38.104605885312566], [13.290722204699778, 38.10458105181525], [13.290937459010626, 38.10449427332776], [13.290944334581205, 38.104491501309326], [13.290944608494362, 38.10449051399939], [13.290977962196303, 38.10437029736116], [13.290966489478466, 38.10429724952281]]]}, "properties": {"anno": 2009, "id": 282, "data": "2009-06-21", "localita": "COZZO COMUNE", "sup_ha": 3.5451}}, {"type": "Feature", "geometry": {"type": "Polygon", "coordinates": [[[13.294782582362089, 38.119098993959206], [13.294638804265821, 38.11912774289647], [13.294480824237914, 38.11920767498054], [13.294335848198937, 38.11928779569358], [13.29420483368013, 38.11932700735534], [13.294038154758924, 38.11922180743712], [13.294002249185741, 38.119087672200514], [13.293989004617632, 38.11909775863381], [13.294003924120393, 38.119015751165506], [13.293993552420888, 38.11890254171411], [13.293996424097083, 38.118779246710325], [13.29406264765656, 38.11872881813418], [13.294219431667967, 38.11870025878163], [13.294607204772039, 38.118808664369624], [13.294850482119232, 38.11897664210051], [13.294782582362089, 38.119098993959206]]]}, "properties": {"anno": 2009, "id": 272, "data": "2009-07-23", "localita": "COZZO S. ISIDORO", "sup_ha": 0.3461}}, {"type": "Feature", "geometry": {"type": "Polygon", "coordinates": [[[13.295822547302443, 38.103536913498296], [13.296354901029929, 38.10376389385238], [13.296887576273864, 38.10397717045713], [13.297280283859635, 38.10424323636638], [13.297498347993438, 38.10456158770571], [13.297629321190575, 38.10496097391563], [13.29768282238479, 38.105177588619476], [13.297768086677086, 38.10528674210259], [13.297702948989164, 38.105571015608696], [13.297603456701685, 38.105654369195], [13.297368221233805, 38.10568343824424], [13.297229202854234, 38.10569513006437], [13.296953074729135, 38.10563631470379], [13.296729914932797, 38.105537153211735], [13.296559087196963, 38.10542504598932], [13.296353903914975, 38.105298736048915], [13.296116276112759, 38.105076027459795], [13.296087653650401, 38.10481523494371], [13.295953414634821, 38.10462143230031], [13.295834921101937, 38.104496378999336], [13.29552603618379, 38.10435486072194], [13.295201089873068, 38.10415829259349], [13.295185345702585, 38.10408954483706], [13.29529287392716, 38.10394035809532], [13.295416147124373, 38.103859920793646], [13.295522718274254, 38.103751833484836], [13.295405821074329, 38.10355828094273], [13.295166607243223, 38.103404068506435], [13.295822547302443, 38.103536913498296]]]}, "properties": {"anno": 2009, "id": 277, "data": "2009-07-23", "localita": "MADONNA DEL PONTICELLO", "sup_ha": 2.9128}}, {"type": "Feature", "geometry": {"type": "Polygon", "coordinates": [[[13.283699944823573, 38.15125603876908], [13.28346142500086, 38.15127344669939], [13.283277026917705, 38.15123941451705], [13.283052956940436, 38.151204803767584], [13.28278897143026, 38.15118005431973], [13.28251127071716, 38.15117599549377], [13.282339361679256, 38.15117348360148], [13.281861830830746, 38.151229178076484], [13.281562308102457, 38.1511686512113], [13.281588550541429, 38.15103715446492], [13.281774909904033, 38.1509876498052], [13.282026652264314, 38.15097043875564], [13.28225271595318, 38.15092020843811], [13.2827284961523, 38.15093891347309], [13.282994443163004, 38.1508801244346], [13.283226134248194, 38.15087175726832], [13.283553055727296, 38.150892201646435], [13.283795128963273, 38.150723379483246], [13.284191446740069, 38.15060512071468], [13.28463116691759, 38.15061023493859], [13.28474871104242, 38.15067462662467], [13.284794991944755, 38.150816322294034], [13.284791132403, 38.15098078985959], [13.284499258607642, 38.15101700657411], [13.28437877235567, 38.1510779235189], [13.284314124257198, 38.15101430435829], [13.284166701982294, 38.15109571933553], [13.28403250263536, 38.15117732736123], [13.283913487622998, 38.15117558984359], [13.283699944823573, 38.15125603876908]]]}, "properties": {"anno": 2009, "id": 273, "data": "2009-07-25", "localita": "S. CROCE - CASE RIELLA", "sup_ha": 1.0614}}, {"type": "Feature", "geometry": {"type": "Polygon", "coordinates": [[[13.290937459010626, 38.10449427332776], [13.290722204699778, 38.10458105181525], [13.290626815006403, 38.104605885312566], [13.290491936252044, 38.104612794586565], [13.290354822266295, 38.10459161391837], [13.290396564873484, 38.10454920824664], [13.290552099917488, 38.10440827739455], [13.29071711002601, 38.10430118733462], [13.290935320751519, 38.104093764371186], [13.291048050171948, 38.104014913969394], [13.290958882103327, 38.1042488104993], [13.290966489478466, 38.10429724952281], [13.290977962196303, 38.10437029736116], [13.290944608494362, 38.10449051399939], [13.290937459010626, 38.10449427332776]]]}, "properties": {"anno": 2009, "id": 280, "data": "2009-07-25", "localita": "COZZO COMUNE", "sup_ha": 0.1507}}, {"type": "Feature", "geometry": {"type": "Polygon", "coordinates": [[[13.319218732813761, 38.22172040016588], [13.319256542104466, 38.22177829176156], [13.319305736348474, 38.22182752309942], [13.319360113413033, 38.22189447433505], [13.319352693429801, 38.221973776847655], [13.319282050807702, 38.222127170582624], [13.319246882188123, 38.222197252371224], [13.31920592063584, 38.222276075376456], [13.319154081507946, 38.222341507170924], [13.3191018374347, 38.222424578832616], [13.319039122885767, 38.22247662030477], [13.318982304922468, 38.222515511714136], [13.318930160907657, 38.222594172628924], [13.318900481206217, 38.222668745030475], [13.318871512060896, 38.22271244651732], [13.318836647321769, 38.22276929712955], [13.318796497154727, 38.22281283932036], [13.318716606277558, 38.2228822802304], [13.318637425950786, 38.222920851082506], [13.318553060653693, 38.22294170099856], [13.31850854224193, 38.22293224072727], [13.31844186506054, 38.22291363962981], [13.318448371132517, 38.22287402847846], [13.318567396055256, 38.22280514757379], [13.318663448609325, 38.222762407303975], [13.318742934479094, 38.22271060541493], [13.318778205355807, 38.22263611405715], [13.318767838920103, 38.222600673262235], [13.318780036185776, 38.222556731523916], [13.318775462673317, 38.222512550423815], [13.31880504204195, 38.22244238871394], [13.318823440497582, 38.22237206682], [13.318852815580493, 38.222310725465476], [13.318882394786549, 38.22224056373017], [13.318923154757078, 38.22217056215063], [13.318947244358187, 38.222095910560064], [13.318993696672312, 38.22202157839528], [13.319040452274487, 38.22193401515842], [13.319086496092527, 38.22187732369646], [13.319121563188299, 38.221811652597594], [13.319173299322651, 38.22175063053203], [13.31917960185905, 38.22171984061202], [13.319218732813761, 38.22172040016588]]]}, "properties": {"anno": 2009, "id": 276, "data": "2009-07-28", "localita": "CAPO GALLO", "sup_ha": 0.2945}}, {"type": "Feature", "geometry": {"type": "Polygon", "coordinates": [[[13.28703589982862, 38.1967542999151], [13.286845871840903, 38.19681420429946], [13.286577738250998, 38.19681812700347], [13.286242159710577, 38.19673488697435], [13.286164054861064, 38.19667890624493], [13.286073635096438, 38.19672459338992], [13.286005823264425, 38.19665309431648], [13.285938562483468, 38.196558099994434], [13.285868726259613, 38.19657274958802], [13.285750557858679, 38.1965318538437], [13.285842633841941, 38.19641568136226], [13.28594500121787, 38.19628399055123], [13.286016676874784, 38.19619102327423], [13.286020570500947, 38.19602525243331], [13.285970586544478, 38.19589917242614], [13.28591839454386, 38.1958670731905], [13.285813520955015, 38.1958237591863], [13.285815483302422, 38.19574022019939], [13.285736828857681, 38.195707734422534], [13.285645431787142, 38.19565417169726], [13.28560745324813, 38.195580496546235], [13.285556488415837, 38.195496185409226], [13.285466810682415, 38.1953695263069], [13.285323469010553, 38.19527342029588], [13.285219087660192, 38.19520922127145], [13.285128918662434, 38.19510344642313], [13.284945883233533, 38.19500676183332], [13.284776570625699, 38.19488938490297], [13.284353744433982, 38.194717381380784], [13.284516208398339, 38.19456306600122], [13.28466745774959, 38.19446342774331], [13.284818521796884, 38.19437162129827], [13.285016443499226, 38.19439801469532], [13.285147293583785, 38.1943215801197], [13.28532628773349, 38.194308523762956], [13.285453639447052, 38.19438089384207], [13.285580440464742, 38.19447675720217], [13.285679492870395, 38.194486036827485], [13.285759436063637, 38.194463701109775], [13.286030309307222, 38.19476536083522], [13.286220516105468, 38.19469762650097], [13.286103454447103, 38.194609739854904], [13.286273998260413, 38.194533884497616], [13.2870017067151, 38.19482784274559], [13.287160241748706, 38.194840600763136], [13.2873057903077, 38.19484272368321], [13.287439823525125, 38.194771556135066], [13.287490788946029, 38.19485586648686], [13.287584116317694, 38.19496821546564], [13.287523867670702, 38.1951383873946], [13.287617012001185, 38.19525856749694], [13.287722865869117, 38.1954011304091], [13.28769879119722, 38.195580970616874], [13.287805197136016, 38.19570003734026], [13.287969493156575, 38.1958904581447], [13.288155476252532, 38.19600285049229], [13.28814316422544, 38.196104518714414], [13.288012498469016, 38.196173123676196], [13.287733524398249, 38.19621606363862], [13.287545887980713, 38.19617415629513], [13.287376076608334, 38.19621868616331], [13.287244307804203, 38.19633428158973], [13.287251474061838, 38.196451902465675], [13.28703589982862, 38.1967542999151]]]}, "properties": {"anno": 2009, "id": 271, "data": "2009-08-01", "localita": "ANIME SANTE", "sup_ha": 4.4478}}, {"type": "Feature", "geometry": {"type": "MultiPolygon", "coordinates": [[[[13.401986942624752, 38.06100184124], [13.402157483344965, 38.0611220455969], [13.402610456697442, 38.061447844361886], [13.403159317989624, 38.06185209757178], [13.403484716038298, 38.06227536119972], [13.40377045827795, 38.0625988861658], [13.40389882874816, 38.063107653280255], [13.403467493238708, 38.06306873270163], [13.40289774304559, 38.06298384297149], [13.402048055035085, 38.062950259529416], [13.401532620903996, 38.06293223509764], [13.401459594943155, 38.06293124264627], [13.401720752305982, 38.06288489570083], [13.401862923929256, 38.06282014080252], [13.401894458333894, 38.062753793774526], [13.401896813866307, 38.062645417401704], [13.401839253813307, 38.06251946486972], [13.401752701048617, 38.06234310435127], [13.401684819815664, 38.062225393387855], [13.401617958441472, 38.062066060122625], [13.401491546923188, 38.06187239772655], [13.401403972953286, 38.06173774480482], [13.40134677738741, 38.06159521769056], [13.401359341277747, 38.0614785972666], [13.401371479386366, 38.06138693506569], [13.40141339727772, 38.061304147403725], [13.401527376138088, 38.06124126414654], [13.401731091530243, 38.06111895170817], [13.401934147195117, 38.06102159035408], [13.401986942624752, 38.06100184124]]], [[[13.399764643317157, 38.063137602893775], [13.399348595979765, 38.063354451619375], [13.399106551130977, 38.06350497493999], [13.399169087188312, 38.0634603714835], [13.399403440645253, 38.0633134273551], [13.399546228123171, 38.063215253845684], [13.399728808685266, 38.06314266897612], [13.399764643317157, 38.063137602893775]]]]}, "properties": {"anno": 2009, "id": 210, "data": "2009-08-07", "localita": "PORTIDDUZZA", "sup_ha": 2.9858}}, {"type": "Feature", "geometry": {"type": "Polygon", "coordinates": [[[13.318727604182223, 38.222429010868126], [13.318692474042187, 38.222572814549046], [13.318673968596462, 38.22268548688546], [13.318616722323219, 38.22275368413433], [13.31845553841525, 38.222845489488364], [13.31830317212839, 38.2228997766594], [13.318166563013655, 38.22296056245621], [13.318053371340037, 38.223040506331266], [13.317924567631572, 38.22310767851445], [13.317787957822615, 38.22316846385201], [13.317726786480707, 38.22317699871386], [13.317769207098381, 38.22310981046767], [13.3178301406631, 38.22305421520613], [13.317843912720708, 38.2229744163125], [13.317720317511048, 38.222902060050096], [13.317656895142408, 38.22280703871832], [13.317581982111353, 38.22269302910857], [13.317518063059335, 38.22257168299402], [13.317520379560618, 38.22247132746047], [13.317457932182133, 38.222420239117696], [13.317417459329524, 38.22233600289533], [13.317429797508767, 38.22226088846181], [13.317388166453835, 38.22222682954606], [13.317335742034217, 38.22220098226047], [13.317283123850446, 38.2221834967758], [13.317231662973054, 38.22211583393953], [13.317203627205767, 38.222028812955706], [13.317314761241203, 38.221865706210934], [13.317432291476504, 38.22168386844835], [13.317514687100504, 38.22173210585132], [13.317615296458412, 38.22176648667786], [13.317643049151584, 38.22185629261445], [13.317714261146499, 38.22191769956798], [13.317827818869018, 38.22201562125828], [13.317987603036409, 38.22198444681793], [13.318123483784536, 38.22207004935316], [13.318117309164936, 38.22224189302063], [13.318286871022963, 38.22239019713528], [13.31847237558438, 38.222364619175565], [13.318481756270982, 38.22221652473942], [13.318484794610972, 38.2220848081928], [13.318481870813285, 38.22195300711497], [13.318454659712291, 38.22183968153989], [13.318474284602628, 38.22176467139079], [13.318581942998069, 38.22175209541338], [13.318649380625153, 38.221673064395915], [13.318765062942603, 38.22157119601969], [13.318856350748229, 38.22149250565713], [13.31898222310459, 38.22146607349362], [13.31909508517765, 38.22148651183087], [13.319111562784268, 38.22154792156824], [13.319121645291514, 38.22162806231927], [13.319165187820692, 38.221732558658246], [13.319050553253563, 38.22187522641863], [13.318976104821314, 38.221999645297146], [13.318919003750588, 38.22206157088428], [13.318861035202016, 38.22216112833851], [13.31879410323341, 38.2223044782802], [13.318727604182223, 38.222429010868126]]]}, "properties": {"anno": 2009, "id": 275, "data": "2009-08-11", "localita": "CAPO GALLO", "sup_ha": 1.3895}}, {"type": "Feature", "geometry": {"type": "Polygon", "coordinates": [[[13.316549227645252, 38.22371455575374], [13.316560176179717, 38.22375706389468], [13.316571341608942, 38.22379016339417], [13.316534476892569, 38.2238366924135], [13.316450667556616, 38.223849607722194], [13.316355149448711, 38.22385294413472], [13.31625952287321, 38.223860984788715], [13.31622905517162, 38.22388878199054], [13.316186552195367, 38.223921112372196], [13.316095801961882, 38.22397627891075], [13.316018281209205, 38.22397516741948], [13.315976648177285, 38.223969865006424], [13.315917886597026, 38.22393137744648], [13.315894686202622, 38.223902810149184], [13.315877557679686, 38.22386962501147], [13.315926024142819, 38.22383738032293], [13.315986198107053, 38.22381471446912], [13.316058733817174, 38.22377340336938], [13.316238278018778, 38.223747744359954], [13.316346156571042, 38.22372576187575], [13.316490249081275, 38.22368547621609], [13.316549227645252, 38.22371455575374]]]}, "properties": {"anno": 2009, "id": 287, "data": "2009-08-12", "localita": "CAPO GALLO", "sup_ha": 0.0964}}, {"type": "Feature", "geometry": {"type": "Polygon", "coordinates": [[[13.316312972359546, 38.223479060868335], [13.316254669773269, 38.22348528408024], [13.31617754542718, 38.22353155976116], [13.31609252589777, 38.22353236924546], [13.315984992631257, 38.22353938722722], [13.31590354780372, 38.22357906999412], [13.315818375380125, 38.223586407816526], [13.315769832534556, 38.22355747768818], [13.315729744277672, 38.22354984442222], [13.315667295141878, 38.223541890201766], [13.315604683266878, 38.22354099242551], [13.315497592618371, 38.22352886839232], [13.315408553690938, 38.22350994548507], [13.315413840619927, 38.22347472821488], [13.315508004746704, 38.22346549123584], [13.315642173394798, 38.22346741524424], [13.315682995043701, 38.22344329665867], [13.315684136506118, 38.223393903150196], [13.315599000020383, 38.22339974089381], [13.315581925994683, 38.22336420355697], [13.315631610133126, 38.22334374025169], [13.315720894167834, 38.223352078736966], [13.315770740977142, 38.22332455979459], [13.315772242460309, 38.2232595524851], [13.315692195530737, 38.223238731229195], [13.315661867313324, 38.22319594485618], [13.315707243250763, 38.22316836176939], [13.315769692073724, 38.22317631596175], [13.315867919758748, 38.22318478359339], [13.315903779999585, 38.22318176746409], [13.31594012833405, 38.223157584589956], [13.315819621260795, 38.223145268321375], [13.31574855292154, 38.22312307372116], [13.315780838483784, 38.2230811851016], [13.315852639015057, 38.22307162778025], [13.31598684273399, 38.22307204965176], [13.316093897065704, 38.22308567405113], [13.316201557725211, 38.2230731012163], [13.316492907368369, 38.22304904325591], [13.316627564377029, 38.22302979849473], [13.316663016744318, 38.2230444237687], [13.316684972047284, 38.22306238438571], [13.316675131386699, 38.223101065358186], [13.316678136116371, 38.22316463508645], [13.316667562423723, 38.22323506795496], [13.316630188214209, 38.22330361684464], [13.316562941936535, 38.22330971101592], [13.3164373107381, 38.223325556228055], [13.316329649716463, 38.223338130171875], [13.31630240795841, 38.22335538591003], [13.316309804118227, 38.223422547604535], [13.316312972359546, 38.223479060868335]]]}, "properties": {"anno": 2009, "id": 274, "data": "2009-08-18", "localita": "CAPO GALLO", "sup_ha": 0.3795}}, {"type": "Feature", "geometry": {"type": "Polygon", "coordinates": [[[13.36593801935766, 38.161705847698535], [13.36589984483573, 38.16200383779611], [13.365833883406351, 38.16213559742914], [13.365831101467421, 38.16225994193552], [13.365753710896824, 38.16243300381668], [13.36558110055904, 38.162435103453824], [13.365475177049069, 38.16240839956429], [13.36533730670542, 38.162381250811166], [13.36539421100008, 38.16207143689866], [13.365401838914254, 38.16187753128973], [13.36557842757707, 38.16160244670349], [13.365826423262776, 38.16153015820187], [13.36593801935766, 38.161705847698535]]]}, "properties": {"anno": 2009, "id": 279, "data": "2009-08-26", "localita": "VERGINE MARIA", "sup_ha": 0.3733}}, {"type": "Feature", "geometry": {"type": "Polygon", "coordinates": [[[13.405283324839196, 38.07149650440495], [13.405009311856782, 38.07166077429357], [13.404689170821069, 38.07172515340922], [13.404331398107708, 38.07174320750882], [13.403948302965636, 38.0715929330303], [13.403583693339906, 38.071481086655815], [13.403268690545287, 38.07130882579441], [13.402905907304918, 38.07111301083451], [13.402601062028937, 38.07091797969813], [13.402392445550106, 38.07073952598203], [13.402175832531032, 38.07048460766761], [13.402057439486631, 38.0701546664683], [13.402034279048317, 38.06988710410496], [13.402142650138583, 38.06978931301973], [13.402460131232957, 38.06984707414401], [13.402687724360016, 38.070041056444104], [13.40288668471897, 38.0702193775001], [13.403027709309681, 38.07039691265982], [13.403255637588103, 38.070575626783224], [13.40344593806662, 38.070708015200644], [13.403741461610556, 38.07088764679021], [13.403999356072672, 38.07102095163191], [13.404248423483962, 38.07111595873619], [13.404554599725403, 38.0712499180376], [13.404814152883935, 38.07130688721601], [13.405027247810287, 38.071279233891836], [13.40515559043458, 38.07115116872868], [13.405286583769522, 38.07090096803934], [13.40539743509759, 38.070688672065074], [13.405507789670285, 38.07049927670183], [13.40569472746917, 38.070341460907756], [13.405801109391541, 38.070335267507765], [13.405796971160758, 38.07052610334303], [13.405744553180025, 38.07071628414869], [13.40571177761409, 38.070891459782715], [13.405591602117742, 38.071088357890034], [13.405500393553394, 38.07128564893601], [13.405283324839196, 38.07149650440495]]]}, "properties": {"anno": 2009, "id": 165, "data": "2009-08-29", "localita": "VALLE GIORGIA", "sup_ha": 2.3622}}, {"type": "Feature", "geometry": {"type": "Polygon", "coordinates": [[[13.365305474560008, 38.1627840980412], [13.3652401061011, 38.1628267805772], [13.365193298088972, 38.16286245621303], [13.365108393269251, 38.16295572279743], [13.365035907377445, 38.163017179467374], [13.364847568085457, 38.16309740103345], [13.364801276387158, 38.16302034101259], [13.364761257784497, 38.16293133401881], [13.36463576026501, 38.1629074748295], [13.36448473930439, 38.1627726972395], [13.36438996274221, 38.16262764643232], [13.364345266667542, 38.1625164538399], [13.36425604191826, 38.16239170268401], [13.364130834015771, 38.16223012276932], [13.364022561375387, 38.16213416721653], [13.364022886056345, 38.162119641157], [13.36377083227656, 38.162219505659316], [13.363424005992822, 38.162280139734364], [13.36316288119615, 38.16222143330141], [13.36290191946117, 38.16206661170493], [13.362852549930428, 38.161828345979146], [13.362891914929955, 38.161699305562585], [13.363054557209416, 38.1615003501973], [13.363145706131027, 38.161388407819416], [13.363222318649033, 38.16129696187028], [13.363362256337382, 38.16123162793574], [13.363532446077334, 38.1612424080689], [13.363647321217405, 38.16134493194755], [13.363792258015062, 38.16153197611843], [13.363938900377375, 38.161771479784186], [13.364099406149572, 38.16198993116635], [13.364290632419042, 38.1620797761265], [13.364481046547724, 38.1622059359253], [13.36460967001491, 38.16221499101281], [13.364772162123677, 38.16235529291514], [13.364825892844234, 38.16242142794365], [13.364877322590416, 38.162547902578744], [13.36504695110879, 38.16258390389022], [13.365183678392905, 38.162469997399256], [13.36529325311298, 38.16250784678149], [13.365305474560008, 38.1627840980412]]]}, "properties": {"anno": 2009, "id": 278, "data": "2009-08-29", "localita": "VERGINE MARIA", "sup_ha": 1.4099}}, {"type": "Feature", "geometry": {"type": "Polygon", "coordinates": [[[13.264665010416424, 38.120112818203204], [13.264415097934977, 38.120410616250716], [13.264200514354078, 38.12068152761589], [13.263935204772674, 38.12089687318619], [13.263776538826692, 38.12100416167813], [13.263459853520063, 38.12119133931642], [13.263236370334011, 38.12110581369861], [13.263102841797679, 38.12088457766103], [13.26286559356192, 38.120648104244616], [13.262646988883375, 38.12035709054725], [13.262426109356339, 38.12016197074683], [13.26225757843137, 38.119953919144066], [13.262210107140758, 38.11976136266458], [13.262284345217603, 38.119556900110396], [13.2625261397862, 38.11960158602077], [13.262643622273693, 38.11976776977366], [13.26274441602316, 38.119906299217185], [13.262917822434671, 38.119908862192915], [13.26304115737946, 38.11982846058523], [13.263046681500942, 38.11959557487064], [13.263499160414423, 38.11953373953313], [13.263812590226525, 38.11948355301018], [13.264053734496901, 38.11955563351884], [13.26426084750819, 38.11959980416394], [13.264503939811053, 38.119589688681714], [13.264731316137842, 38.1195108216678], [13.264874584516262, 38.1193210813815], [13.264946868084499, 38.11919881205311], [13.265040062066399, 38.118926107938975], [13.26521346637093, 38.118928667470996], [13.265329982628858, 38.11913594671582], [13.26528816224255, 38.11943681629107], [13.265181197355764, 38.119558574474304], [13.265073259440138, 38.11972142876259], [13.264912974107565, 38.11989721466394], [13.264665010416424, 38.120112818203204]]]}, "properties": {"anno": 2009, "id": 270, "data": "2009-09-03", "localita": "SERRO DI MONTE CUCCIO", "sup_ha": 2.8933}}, {"type": "Feature", "geometry": {"type": "Polygon", "coordinates": [[[13.334171715003706, 38.07173616815398], [13.334478665329307, 38.072079799120544], [13.334817805683107, 38.07226555326347], [13.335040486372062, 38.07254013274941], [13.334911731188472, 38.073171638882265], [13.334813627707229, 38.0737131018505], [13.334546971349557, 38.07411646512697], [13.334448862528257, 38.07465792759923], [13.334181176816307, 38.07510651309878], [13.333706179329225, 38.07460216716377], [13.333343552859116, 38.074189888801335], [13.333180134030965, 38.07382567045311], [13.332879336724835, 38.073210696924], [13.332746576089386, 38.07275643741307], [13.332612277788108, 38.07237001256079], [13.332705780275475, 38.072032055215466], [13.332825833800495, 38.071784950030946], [13.33308480032793, 38.07172076382737], [13.33371458024988, 38.07170707207462], [13.334171715003706, 38.07173616815398]]]}, "properties": {"anno": 2009, "id": 306, "data": "2009-11-28", "localita": "VALLE GIORGIA", "sup_ha": 5.0902}}]}