{"type": "FeatureCollection", "features": [{"type": "Feature", "geometry": {"type": "Polygon", "coordinates": [[[13.40580856719478, 38.07113050721942], [13.40577060307106, 38.07087821367918], [13.405914008022846, 38.07027358663437], [13.406309726961368, 38.07005005528644], [13.406552544658927, 38.07020212833531], [13.406399633922078, 38.07057773373074], [13.406177334088962, 38.07081505835557], [13.40580856719478, 38.07113050721942]]]}, "properties": {"anno": 2019, "id": 20224, "localita": "Ciaculli", "sup_ha": 0.4227, "sup_boscata_ha": 0.0, "sup_non_boscata_ha": 0.4145, "squadre_aib": 2}}, {"type": "Feature", "geometry": {"type": "Polygon", "coordinates": [[[13.363353207730283, 38.07007828525614], [13.362139031574603, 38.07020709808134], [13.360464343581283, 38.07091236873094], [13.359594693500298, 38.070941881540406], [13.358875696389955, 38.06973367309959], [13.35710834349733, 38.06672291786287], [13.356261155233877, 38.06810583543864], [13.355308842923497, 38.06830069579219], [13.355555481215788, 38.0655146369515], [13.357225904293555, 38.06499673018849], [13.358669470450405, 38.06520423630587], [13.362985006240017, 38.06532682793644], [13.36421067474, 38.06467772766043], [13.365014701070566, 38.06404357421253], [13.367503582699975, 38.06180649597933], [13.368472944988262, 38.061210309175166], [13.369443903739015, 38.06054097122825], [13.369890254091253, 38.06028086761707], [13.370699300532701, 38.06060433268734], [13.373989449152017, 38.060649859274356], [13.376601829707864, 38.06158108136348], [13.377126107526493, 38.06287899145063], [13.374444440658552, 38.06315425001342], [13.37203039867933, 38.065912965903436], [13.370995536055942, 38.06707342859505], [13.369478658200144, 38.068710636429195], [13.368317161722876, 38.06823119881021], [13.36864582624057, 38.06890277239234], [13.368226949059155, 38.069979460510055], [13.365985240236247, 38.068949111064605], [13.363353207730283, 38.07007828525614]], [[13.37338679807534, 38.06100093180893], [13.373368820391008, 38.06124334890379], [13.37357787256227, 38.06129609819951], [13.373601228892706, 38.06100057973508], [13.37338679807534, 38.06100093180893]], [[13.365756577186767, 38.06770494182898], [13.365753378857928, 38.06774760117824], [13.36579360889409, 38.06777768008359], [13.365852879254048, 38.067780857367794], [13.36585463550403, 38.06770187618992], [13.365756577186767, 38.06770494182898]]]}, "properties": {"anno": 2019, "id": 21353, "localita": "Baglio Chiaranda", "sup_ha": 101.2598, "sup_boscata_ha": 12.736, "sup_non_boscata_ha": 66.2225, "squadre_aib": 12}}, {"type": "Feature", "geometry": {"type": "Polygon", "coordinates": [[[13.33912410301703, 38.19056669002845], [13.339123142371195, 38.190253439426094], [13.33917087573544, 38.19011347539105], [13.339200468703853, 38.18988056295903], [13.339461540935869, 38.18979795486691], [13.339911609204341, 38.18959655033688], [13.340079223633381, 38.18988339685994], [13.34022184383234, 38.19002285019844], [13.340072955902961, 38.19033718380879], [13.339962748000026, 38.19055297058286], [13.33983476993047, 38.19065984185483], [13.339603488907915, 38.19067894579748], [13.339511802039132, 38.19079271483364], [13.33930888656009, 38.19063322802438], [13.33912410301703, 38.19056669002845]]]}, "properties": {"anno": 2019, "id": 21381, "localita": "ERCTRA, Palermo (PA)", "sup_ha": 0.8279, "sup_boscata_ha": 0.4951, "sup_non_boscata_ha": 0.3328, "squadre_aib": 0}}, {"type": "Feature", "geometry": {"type": "Polygon", "coordinates": [[[13.277450675472108, 38.132467602653385], [13.277515459157843, 38.131946812108886], [13.277506680165406, 38.1312520193434], [13.277657202344745, 38.13072826770574], [13.277890034574222, 38.1304438909265], [13.277998212436483, 38.130117992024715], [13.278395008931168, 38.12980624887962], [13.278695961820127, 38.12983049682786], [13.27901328853591, 38.130030844156366], [13.27922886194342, 38.130464074008636], [13.279524585141992, 38.13087750106645], [13.279845871332741, 38.13133325138264], [13.280168146900563, 38.13174706573845], [13.28040439401335, 38.1318659058858], [13.281038911592205, 38.13199057119003], [13.28154608965888, 38.13188260389332], [13.282008024734283, 38.13200474031834], [13.28230844517123, 38.132218923155314], [13.282756127239487, 38.132382805886785], [13.283289123593566, 38.132306677534636], [13.283389675269438, 38.13198296908537], [13.283278306463433, 38.131635183601674], [13.283237256384833, 38.1311205960353], [13.283378617736792, 38.13075552636613], [13.283576361744002, 38.13064623858967], [13.283675912078257, 38.13111725323144], [13.283705087213288, 38.13164182785426], [13.283648782303715, 38.13227436180943], [13.283462462624595, 38.13255555219354], [13.28313717871903, 38.13286748013621], [13.282812137682944, 38.133168487576306], [13.282510387076433, 38.13365547530295], [13.282479410235522, 38.13379697494523], [13.282808547462405, 38.133910984035225], [13.283236727289141, 38.13392816094158], [13.283508779915184, 38.134117767419156], [13.284208000639083, 38.134368214405626], [13.284852454214642, 38.13459602019903], [13.285346166626873, 38.13476702052707], [13.28557881175185, 38.13486869171896], [13.285907437879166, 38.13500452193854], [13.28606664947257, 38.13529076277521], [13.286363295719225, 38.13561176654439], [13.286706762600112, 38.135704129473154], [13.287359664344113, 38.13557168487023], [13.287619684354684, 38.13509500644298], [13.287516263063631, 38.13478773587629], [13.287378032222307, 38.13419605479717], [13.287126935103325, 38.133700998493396], [13.287103630054128, 38.13351502507398], [13.286912703359002, 38.133403042343765], [13.286651648255903, 38.133333718758394], [13.286601218707562, 38.13312550508008], [13.286785739169899, 38.13292071637785], [13.287104887745432, 38.132870772341505], [13.287520770789559, 38.13282222812323], [13.288119382522439, 38.13264531377278], [13.288713185475535, 38.13326547342448], [13.289060017626811, 38.13380559388684], [13.289135286351874, 38.134134283073394], [13.28881107247898, 38.13499223515889], [13.28814439186289, 38.135714162257734], [13.287792230606772, 38.135992943676165], [13.286785881104842, 38.136458754055155], [13.285967375435456, 38.136577858002354], [13.285478522479327, 38.136789128241524], [13.2851570640174, 38.13693731216511], [13.28433471239066, 38.137220151828686], [13.28387144179842, 38.137519144119366], [13.2836024385401, 38.13778821286337], [13.28319189896571, 38.138197172576234], [13.28244592090674, 38.13844731410969], [13.282065151309565, 38.13861044739136], [13.281741131152256, 38.138648406164414], [13.28129683241328, 38.13883606455563], [13.280929641189253, 38.13904528047729], [13.280460669746528, 38.139181481657594], [13.280031445612556, 38.13927738687791], [13.279604151119138, 38.13929157083806], [13.279176376686175, 38.13932617846245], [13.278746108532808, 38.139226773559265], [13.27818027568438, 38.13875096180726], [13.277864873058942, 38.138109116066246], [13.27807565238804, 38.13741357114716], [13.278531304865641, 38.13705172998934], [13.278954490985162, 38.13671561456661], [13.278992140240074, 38.136290295162475], [13.278924104154642, 38.135655942933845], [13.27888088164855, 38.135142076868405], [13.278832270582587, 38.1348574538673], [13.278458386633664, 38.134295063850374], [13.27823191623217, 38.1339313948816], [13.278031801802674, 38.13362270762556], [13.277765919561675, 38.1331710966585], [13.277450675472108, 38.132467602653385]]]}, "properties": {"anno": 2019, "id": 21610, "localita": "Manche di Bellolampo", "sup_ha": 49.9367, "sup_boscata_ha": 11.0907, "sup_non_boscata_ha": 38.8232, "squadre_aib": 9}}, {"type": "Feature", "geometry": {"type": "Polygon", "coordinates": [[[13.310412570129518, 38.20721132034836], [13.310479050666732, 38.2069845168757], [13.31070093004579, 38.20671164498419], [13.311206572400057, 38.206482044094535], [13.311959846158244, 38.20636128414802], [13.312843924563536, 38.20652324705557], [13.313309449392333, 38.20642481164116], [13.313736340603246, 38.20616336888113], [13.313964213171895, 38.206391206747035], [13.313911007906665, 38.20708675867523], [13.314270791093593, 38.20739459220229], [13.314619082507404, 38.207478539856595], [13.315121680551142, 38.207380481866345], [13.315422681333045, 38.207345320656735], [13.316002259881762, 38.207524698118505], [13.316297197385932, 38.20775263943634], [13.316726416651465, 38.20794302499307], [13.317155950281615, 38.20812025467786], [13.317788277467574, 38.20818195029048], [13.318302998875216, 38.208281438415646], [13.31873253966705, 38.20845866156967], [13.318947159127188, 38.20855384305354], [13.318959283006524, 38.20875140988582], [13.318822566382291, 38.20889420858281], [13.318770425575826, 38.208985578866184], [13.318786795758468, 38.20899897308746], [13.319252405526385, 38.20905827440734], [13.31952310854226, 38.208891073383946], [13.319595254814741, 38.20865523399916], [13.319832003875874, 38.208513865542756], [13.32039825313434, 38.208548282611], [13.321113050361562, 38.20865061881672], [13.32167597198343, 38.20882973825498], [13.32199002607181, 38.208952661840435], [13.322520523879293, 38.209091835389884], [13.32301555065398, 38.20932261694564], [13.323478757459645, 38.2094871441453], [13.32404138896657, 38.209679399791376], [13.324818663891941, 38.20996683924254], [13.325099081617147, 38.21010243419748], [13.325214271384244, 38.21016987395814], [13.325627167554721, 38.210346835436276], [13.325925165823943, 38.210443200044914], [13.32618831049128, 38.21060485739326], [13.326168920226552, 38.21072301755043], [13.326018561100287, 38.210734033693015], [13.325670843049073, 38.2106238011887], [13.325419539677192, 38.210672856541514], [13.325200372990016, 38.210775008874926], [13.325013051356347, 38.210943412129765], [13.324845111135442, 38.21099365503919], [13.324260645530588, 38.21102479692069], [13.323776530849797, 38.211044207634586], [13.323296943283292, 38.210866287810134], [13.322897394979606, 38.21083426500616], [13.322512411869418, 38.21089456531034], [13.32178515553457, 38.210607824942585], [13.320942113084598, 38.21027995442148], [13.32020911145887, 38.21024315513272], [13.319359107463413, 38.21021783559789], [13.31888954740381, 38.21032955174874], [13.318402999884972, 38.21045417512152], [13.317621203991145, 38.21036402975099], [13.317431145816258, 38.20992704162468], [13.317435697888259, 38.20972971377583], [13.317090428164118, 38.209514214204646], [13.31651052803681, 38.20934799712003], [13.315682981642972, 38.209072941207445], [13.314802081242801, 38.208941870331515], [13.31415398039255, 38.20884045286406], [13.313656248064142, 38.208728030940314], [13.31272533780841, 38.2085962259629], [13.31174684107422, 38.208358460419895], [13.310664497868016, 38.20766355038309], [13.310412570129518, 38.20721132034836]]]}, "properties": {"anno": 2019, "id": 21611, "localita": "Capo Gallo", "sup_ha": 24.0688, "sup_boscata_ha": 0.0, "sup_non_boscata_ha": 9.6427, "squadre_aib": 5}}, {"type": "Feature", "geometry": {"type": "Polygon", "coordinates": [[[13.309629250131836, 38.20909692229224], [13.309702208444218, 38.20899824205096], [13.310009905747872, 38.20886820758891], [13.3103960693894, 38.208694477994264], [13.310648287172867, 38.20850660028691], [13.310786591366693, 38.20810928200071], [13.310815950508587, 38.20775602698644], [13.311745055158498, 38.208359483686635], [13.312212719558257, 38.208469966432105], [13.312714585324375, 38.20858863676968], [13.312969829508859, 38.20863274574163], [13.313318996603634, 38.20867820217383], [13.313310269846475, 38.20905550909859], [13.313075627522197, 38.20959807433063], [13.312774692829102, 38.2100520684484], [13.312277367037613, 38.21031789515547], [13.312105647626419, 38.21035586184051], [13.311476036237595, 38.210616412173536], [13.310954194529321, 38.21064935111779], [13.310702581515105, 38.20998497322175], [13.31010267908316, 38.20941673613857], [13.309629250131836, 38.20909692229224]]]}, "properties": {"anno": 2019, "id": 21612, "localita": "vallone pizzo sella", "sup_ha": 5.5776, "sup_boscata_ha": 0.0, "sup_non_boscata_ha": 5.2146, "squadre_aib": 2}}, {"type": "Feature", "geometry": {"type": "Polygon", "coordinates": [[[13.311249926994686, 38.21136317037143], [13.310957323450545, 38.210641371275614], [13.311452379068044, 38.21062357581309], [13.312100478636738, 38.210358863177525], [13.312322571134906, 38.21031223613514], [13.31266345155409, 38.21013444606223], [13.312823759448701, 38.21002880012315], [13.312998812618892, 38.20974068532816], [13.31310862452528, 38.20954297374866], [13.313209459226046, 38.209278698235615], [13.31333055979145, 38.20904793081272], [13.313318347975278, 38.20866577930058], [13.313758672599446, 38.20873853583887], [13.314166859234293, 38.208835735515905], [13.314512312337625, 38.208915424404054], [13.314847820408474, 38.208970064881576], [13.315173756988827, 38.208983044902844], [13.315708393486203, 38.209073748362826], [13.316198636346222, 38.20926345798112], [13.316826233505788, 38.20943022817452], [13.31724380027686, 38.20957737717039], [13.31748213179987, 38.20973856653979], [13.317414034087417, 38.20995348882951], [13.317566674414438, 38.21017987711366], [13.317636483947004, 38.21034694910845], [13.318087153814865, 38.210428142038054], [13.318412533921148, 38.21046601065639], [13.319069216329272, 38.21028442555831], [13.319418507555705, 38.210198083730326], [13.319922922849758, 38.210230213746144], [13.320480147909683, 38.2102547831737], [13.320764015483043, 38.210267146590134], [13.321006180409421, 38.21026230425121], [13.321276852087216, 38.210390730755705], [13.321663251013458, 38.21052080981991], [13.322069175828748, 38.21071760253563], [13.322433581062699, 38.21088887865425], [13.322527692098989, 38.21091513654338], [13.322335841607558, 38.211020344957596], [13.322323409508442, 38.211103203378016], [13.322205772663029, 38.211184558772565], [13.321961874979557, 38.21126411787926], [13.321770012496232, 38.21136932517534], [13.321608577981529, 38.211524786447065], [13.321458419093492, 38.211647198090965], [13.32110816695976, 38.21177505339887], [13.320802102046388, 38.211812200426934], [13.320474229385564, 38.21188224342945], [13.32014464506937, 38.21202700097749], [13.319932308632515, 38.21210699944018], [13.31973700252379, 38.212133266928895], [13.319438587258663, 38.21229507718121], [13.319139981023008, 38.2124651800518], [13.318906798878842, 38.212536581949685], [13.31865333045576, 38.21257446769333], [13.318284906858342, 38.21257749778006], [13.318036424889296, 38.21239956327986], [13.317887407420846, 38.212472161197496], [13.317781231640687, 38.212512162361385], [13.317435384698989, 38.212449077682535], [13.317172158974595, 38.21245361059662], [13.317085695750361, 38.2125520162278], [13.317103099100835, 38.21271004087245], [13.317331685656864, 38.21283787297178], [13.317380654800537, 38.21299634924052], [13.317406856615095, 38.21322923089681], [13.317318275935515, 38.21341894661234], [13.317342371125989, 38.21374313834666], [13.31728516401301, 38.21394160716182], [13.317040112724877, 38.21407095842961], [13.316920931799476, 38.2142187210259], [13.316831592641039, 38.21444164238179], [13.316888391226376, 38.21471648407139], [13.316998375369275, 38.21496716763443], [13.316971774924115, 38.21520759722156], [13.316914766869663, 38.21539777252375], [13.316014380783818, 38.21489195806399], [13.31564631677809, 38.214556284872536], [13.31533913518752, 38.2143739687729], [13.31484809930508, 38.21424831775021], [13.314183760340843, 38.214187956512006], [13.313527224333042, 38.21425477685797], [13.31279554613963, 38.214320515079365], [13.31208768697616, 38.21428492644234], [13.3117554287854, 38.214196991497374], [13.311700137707016, 38.21313537692574], [13.311615481527182, 38.21239254033097], [13.311249926994686, 38.21136317037143]]]}, "properties": {"anno": 2019, "id": 21613, "localita": "Capo Gallo", "sup_ha": 36.753, "sup_boscata_ha": 0.0, "sup_non_boscata_ha": 29.8673, "squadre_aib": 3}}, {"type": "Feature", "geometry": {"type": "Polygon", "coordinates": [[[13.31184605896843, 38.21494982565148], [13.311743945539321, 38.21418689007104], [13.312196023608395, 38.214295160932195], [13.312820268102167, 38.21432827355201], [13.31333291004614, 38.21427356007753], [13.313665844592878, 38.21424040720846], [13.314187147463102, 38.214189271302246], [13.314841495605064, 38.2142434927158], [13.315367226617084, 38.21437862100189], [13.315723824384643, 38.21464581591167], [13.31602846978982, 38.214891569060704], [13.316533075347605, 38.21518501926529], [13.316870058523474, 38.215355368663744], [13.316872603029402, 38.21540679317341], [13.316810201807414, 38.21593422313561], [13.31687051353069, 38.21640111729424], [13.316832468435784, 38.21680753936649], [13.316683490021392, 38.2170541068783], [13.31650716208323, 38.21724376082503], [13.31640324428353, 38.21740054248629], [13.316513403551786, 38.21759430237929], [13.316437859857574, 38.2177627871758], [13.315899512185222, 38.218116823685484], [13.315195000937022, 38.21821976450017], [13.314436857161633, 38.2181636674321], [13.313473256022556, 38.21769764827678], [13.31290191793875, 38.21699984842365], [13.312471464725258, 38.216405819448944], [13.312088711336626, 38.215608991185086], [13.31184605896843, 38.21494982565148]]]}, "properties": {"anno": 2019, "id": 21614, "localita": "Capo Gallo", "sup_ha": 14.779, "sup_boscata_ha": 0.0, "sup_non_boscata_ha": 9.0548, "squadre_aib": 2}}, {"type": "Feature", "geometry": {"type": "Polygon", "coordinates": [[[13.26529305201972, 38.12993884939967], [13.265208264906715, 38.12895575406824], [13.265875429851487, 38.12816873571154], [13.267027094061621, 38.127460014573245], [13.268644921891395, 38.12684351569373], [13.270020229955009, 38.12657917055896], [13.270806173350042, 38.126861097492366], [13.272076662038979, 38.12722129400498], [13.272089300859003, 38.127449155673744], [13.271608666493142, 38.12796859121962], [13.270267005843904, 38.12833305590866], [13.269680671357982, 38.12875131367543], [13.269264645316083, 38.12958474010168], [13.269212826304882, 38.13025276365965], [13.269483140992318, 38.13101092025988], [13.270025945443926, 38.13167347322167], [13.271150080627951, 38.13213113250935], [13.272754554975831, 38.132083570420804], [13.273519326597249, 38.131739069329505], [13.274310035132938, 38.13182182393622], [13.274796944818538, 38.13180051598796], [13.275850507515779, 38.13143177445254], [13.27648416615212, 38.13129876604944], [13.276676903253628, 38.13152926833764], [13.277007016720829, 38.13204637779528], [13.277193072481387, 38.132561374922965], [13.277011970656854, 38.132601407475335], [13.276634120074483, 38.13258163650101], [13.276617448369493, 38.132524472934364], [13.276533427736037, 38.13226710976034], [13.276212618714691, 38.132120104495975], [13.275943489626714, 38.132073469887445], [13.275204111190124, 38.13210530983705], [13.274423688299123, 38.13234999356831], [13.274237565661267, 38.13260339235392], [13.273715864440712, 38.13333567671544], [13.272891690896405, 38.1339069816884], [13.271764696588553, 38.134331535203195], [13.271044985751274, 38.134292487085396], [13.27043804392062, 38.134055889786026], [13.269616337936556, 38.13375920087102], [13.26888367812058, 38.13350650554549], [13.268331112259935, 38.13325646677806], [13.267566479310691, 38.132832536195195], [13.267140320332988, 38.13257012345159], [13.266754230404933, 38.13213753499523], [13.265989956055902, 38.13169937547141], [13.265623225715485, 38.13121015934788], [13.26529305201972, 38.12993884939967]]]}, "properties": {"anno": 2019, "id": 21615, "localita": "Pizzo Scala", "sup_ha": 34.9799, "sup_boscata_ha": 3.7592, "sup_non_boscata_ha": 31.2207, "squadre_aib": 7}}, {"type": "Feature", "geometry": {"type": "Polygon", "coordinates": [[[13.40614176264296, 38.063806695924164], [13.40521182899959, 38.06304671318778], [13.406243441781932, 38.06188480127438], [13.407319372473156, 38.061897185801946], [13.407853600776576, 38.06189926204772], [13.408217001365554, 38.062378283609874], [13.407832554745072, 38.06351220621593], [13.407045555871575, 38.064129549789946], [13.40614176264296, 38.063806695924164]]]}, "properties": {"anno": 2019, "id": 22443, "localita": "Monte Grifone", "sup_ha": 4.4239, "sup_boscata_ha": 0.0, "sup_non_boscata_ha": 3.911, "squadre_aib": 0}}]}