{"type": "FeatureCollection", "features": [{"type": "Feature", "geometry": {"type": "Polygon", "coordinates": [[[13.33213251000728, 38.06596172182861], [13.332501105003086, 38.065989404255845], [13.33286817405915, 38.066084425842284], [13.333164008142452, 38.06618966374203], [13.33345780798139, 38.06638468980737], [13.333321899111343, 38.06674203231014], [13.333003468772967, 38.067006969503254], [13.332646010595042, 38.06711417324043], [13.332205916912532, 38.0671079322328], [13.331711329939095, 38.066999872109655], [13.331560260974275, 38.06677318561221], [13.33163684603845, 38.06652727468239], [13.331828021432344, 38.066238081635966], [13.33213251000728, 38.06596172182861]]]}, "properties": {"anno": 2008, "id": 200, "data": "2008-03-20", "localita": "BOSCO SCADUTA", "sup_ha": 1.5538, "uso": "N.C."}}, {"type": "Feature", "geometry": {"type": "Polygon", "coordinates": [[[13.363505854085318, 38.16855103444239], [13.363500394911059, 38.1684707194062], [13.363457749513037, 38.16843000640889], [13.363459033166524, 38.16837271128542], [13.36349737370841, 38.16828154379857], [13.363506942262056, 38.168178514098685], [13.363509253214122, 38.16807538233491], [13.363504820238168, 38.16794923154096], [13.363507003039452, 38.16785182946964], [13.363509057696, 38.16776015709308], [13.363538086808294, 38.16776056081032], [13.363625174108385, 38.16776177372083], [13.363705517450809, 38.167739967548286], [13.36376383301504, 38.16772931640045], [13.363799477976922, 38.16775846966675], [13.363885538205269, 38.167805518130045], [13.363965239930842, 38.16781235844985], [13.364015656340612, 38.16783025451911], [13.364050402564715, 38.167899513763636], [13.364099534784609, 38.16797470492828], [13.364104226106333, 38.168089396342666], [13.364117071620818, 38.16816408279532], [13.364186180369916, 38.16831979031233], [13.364134480462246, 38.168359189452694], [13.364046493502261, 38.16839808385312], [13.363966149502987, 38.16841989114352], [13.363842132724935, 38.168446821256495], [13.363747786973253, 38.168445507342604], [13.363616384321045, 38.16847806576392], [13.363505854085318, 38.16855103444239]]]}, "properties": {"anno": 2008, "id": 144, "data": "2008-05-28", "localita": "ADDAURA VERGINE MARIA", "sup_ha": 0.3977, "uso": "N.C."}}, {"type": "Feature", "geometry": {"type": "Polygon", "coordinates": [[[13.403282866311818, 38.06610814329649], [13.403702175122968, 38.065949445846655], [13.404206491406862, 38.06597977258374], [13.404706225703023, 38.06622139047921], [13.405380573413463, 38.066629762042766], [13.405814816329956, 38.067152296590244], [13.406304894854552, 38.06783997383467], [13.406467809239428, 38.0685467015553], [13.406362436404343, 38.069296762871716], [13.406201227972254, 38.06988167971524], [13.405888984277922, 38.07058196945806], [13.405492733220655, 38.07104627871276], [13.404954098583467, 38.071226848545784], [13.404390349765196, 38.071195719511216], [13.403830169063491, 38.07100024755626], [13.403508591934454, 38.0707610429212], [13.40272052778182, 38.07011627625981], [13.402233019375526, 38.06931120006604], [13.402102901789556, 38.06846400748634], [13.402267200152542, 38.06773823480166], [13.402458129670304, 38.06715372745444], [13.402676713254529, 38.066663530782556], [13.403282866311818, 38.06610814329649]]]}, "properties": {"anno": 2008, "id": 202, "data": "2008-06-06", "localita": "SFERRO VECCHIO CIACULLI", "sup_ha": 16.6194, "uso": "N.C."}}, {"type": "Feature", "geometry": {"type": "Polygon", "coordinates": [[[13.292191585385627, 38.102326754436305], [13.292387222676654, 38.102079529746106], [13.292732042115777, 38.101767785786436], [13.293335759830244, 38.101209733620955], [13.293832079807617, 38.10073347469847], [13.294178424336318, 38.100355065768355], [13.29437752105528, 38.09995784881166], [13.29451218636489, 38.09960971057045], [13.29458280892972, 38.09929398512461], [13.294738173687568, 38.09896281707228], [13.294850972644266, 38.098647703649036], [13.295089530905218, 38.09836775442487], [13.295220321421873, 38.098186269858765], [13.295582316814773, 38.09804147719143], [13.295986102532257, 38.097913960492924], [13.29632352649374, 38.097918849974704], [13.29668088086797, 38.09797403929786], [13.297035530014755, 38.0981458864954], [13.297553485036696, 38.098553491236686], [13.297759741905553, 38.09875653018047], [13.297947614038975, 38.09884260422141], [13.29822332047407, 38.098779910408076], [13.298922740996789, 38.09863999052375], [13.29985414097853, 38.0985034203995], [13.300505977361713, 38.09859620058801], [13.301219926257705, 38.098739889044396], [13.301700739527154, 38.098930218461774], [13.302096812579313, 38.09913599208203], [13.30221988139675, 38.09928780995808], [13.302635121438318, 38.09957721428273], [13.302821846038146, 38.099713278558724], [13.302732095598301, 38.09994537831422], [13.302602091307527, 38.10009354086937], [13.302306065118515, 38.10012260765363], [13.302033055922164, 38.10006865180602], [13.301636206452752, 38.099896207660244], [13.301630425537427, 38.100146190507665], [13.30154144140428, 38.10034495764825], [13.301364625989187, 38.10069249472699], [13.301216996890604, 38.10069036172909], [13.300856152296266, 38.10078517290483], [13.300489124256677, 38.101146631665195], [13.3003993531751, 38.10137872920313], [13.300156154080318, 38.10185867471829], [13.299854318921327, 38.102137718372816], [13.29966025377953, 38.10231829397248], [13.29948727787939, 38.10249917453038], [13.299611499917425, 38.10260099814554], [13.299711924353783, 38.10281917440753], [13.299962304144538, 38.10293949183015], [13.29961634873255, 38.1033012543691], [13.299012660910211, 38.1038593393701], [13.298803687712308, 38.10377296048444], [13.298619288241566, 38.10353689725555], [13.298373165205598, 38.103233256045684], [13.298066483541293, 38.10281204064794], [13.297730971786454, 38.102723828284184], [13.29714121517802, 38.10268194687343], [13.29669599368092, 38.10277552462423], [13.296018387436149, 38.10288240539299], [13.295381410744573, 38.1030565544948], [13.294724891760815, 38.10316373284859], [13.29441202552196, 38.103009155293655], [13.294033173139132, 38.10297031668073], [13.293697665935438, 38.10288209379518], [13.293006729706418, 38.10265534120363], [13.292191585385627, 38.102326754436305]]]}, "properties": {"anno": 2008, "id": 535, "data": "2008-06-14", "localita": "MONTE CAPUTO", "sup_ha": 32.7202, "uso": "N.C."}}, {"type": "Feature", "geometry": {"type": "Polygon", "coordinates": [[[13.302180977679786, 38.217105333200614], [13.301898679879983, 38.2168045337511], [13.30199447394832, 38.21641790338057], [13.302034552848683, 38.215939169087925], [13.302827081178064, 38.21544848584857], [13.303070654165055, 38.21492704346706], [13.302907757079433, 38.214468200116954], [13.303115503860363, 38.21424295741745], [13.303698671738676, 38.21404596134994], [13.303936926097942, 38.21375268408366], [13.303976459327357, 38.213296765587394], [13.30391252279622, 38.212314390564735], [13.303873790444474, 38.21149214966817], [13.303828159990543, 38.21096652800697], [13.304209402643533, 38.210743788613904], [13.3044834580219, 38.2101543081687], [13.305010555991535, 38.209878892240475], [13.305233944875113, 38.210224483127305], [13.307718241576763, 38.21037442619384], [13.308662669690246, 38.20956634749438], [13.308920812757801, 38.20966136248178], [13.309478713088186, 38.20930420188346], [13.310391546474122, 38.20860977727135], [13.31051408744725, 38.208314821926244], [13.310906922735747, 38.207590088113655], [13.311966417268469, 38.20680646155582], [13.312205670633382, 38.206467532483856], [13.311690454966723, 38.20623188239892], [13.312249371651879, 38.20582907415332], [13.312804586651307, 38.20558598121753], [13.313183136413757, 38.20547729508402], [13.313147888129405, 38.205750683386725], [13.313372358602404, 38.2060506253221], [13.312905474030577, 38.206226516476], [13.312640474555966, 38.20642813036619], [13.312982723720753, 38.20663846734156], [13.313245083998881, 38.206550936560205], [13.313670391916963, 38.206922235545434], [13.313981619882714, 38.20722342280683], [13.31420715321897, 38.207477728972904], [13.314579910499994, 38.2076200253701], [13.315129861800239, 38.20760509138976], [13.315881177880248, 38.20763869026096], [13.316105665261539, 38.207938628171476], [13.316564127076505, 38.20812779555076], [13.317281794762243, 38.208366324501256], [13.317916398336104, 38.2084438873635], [13.319031555863742, 38.209007640788705], [13.319345443735251, 38.20919472844481], [13.319847032620249, 38.20876823923707], [13.32045535290621, 38.20873129028388], [13.322719901568233, 38.209630981500425], [13.32420842981546, 38.21031413967763], [13.324519191861592, 38.2106381156111], [13.324685363039116, 38.21096002955983], [13.324048106535264, 38.210996587092964], [13.323037533118876, 38.21091368933525], [13.322662643104923, 38.21086268714698], [13.32225201093097, 38.211107892525845], [13.322074824549794, 38.21126513257331], [13.32166628817233, 38.21141906690205], [13.321401292748693, 38.21162070143185], [13.320935966779832, 38.21172817237814], [13.320267681477121, 38.21185556425798], [13.31962358102752, 38.2121887183542], [13.319128277463744, 38.21234140318144], [13.318921636962735, 38.21252104121722], [13.318487851747474, 38.212514832360675], [13.317998858858537, 38.21239370802673], [13.317737535697555, 38.21243561466745], [13.317419426664287, 38.21243105719484], [13.317188074772046, 38.21242774286675], [13.317381031130962, 38.21284134882717], [13.317372080353804, 38.21322923696314], [13.317365234920201, 38.2135258573282], [13.31711734367669, 38.2142389940855], [13.316812872818545, 38.21489654143894], [13.31686486842606, 38.216403702879305], [13.316849592261077, 38.21706539364494], [13.316841691119858, 38.21740764712343], [13.316428367368099, 38.217766915309426], [13.316358406515974, 38.21829087499894], [13.316344705977999, 38.21888411490721], [13.316422511803863, 38.21927324627807], [13.316386212867675, 38.219592268408036], [13.31595185903361, 38.21960886543085], [13.315916612286705, 38.21988225401639], [13.315909233206305, 38.2202016909528], [13.315644189619826, 38.220403310181055], [13.315013178158916, 38.22016601400026], [13.314353775132487, 38.21990548287261], [13.313549241285733, 38.21966568903727], [13.313061794272707, 38.21947609299069], [13.312810476650428, 38.219084466961874], [13.312499734321246, 38.21876045995162], [13.312246308663596, 38.218460100211466], [13.311408647510575, 38.21840241101055], [13.310711894346735, 38.2185065142252], [13.310013024265384, 38.21870188057248], [13.309600189472965, 38.21903830572824], [13.309361939385548, 38.21933159436981], [13.30898595877605, 38.2193261818446], [13.308583174320617, 38.21922908404775], [13.308236115229548, 38.21922408505774], [13.307972114159968, 38.21938005342672], [13.30691314403516, 38.21888547880157], [13.306105467138877, 38.218782534977315], [13.30517733305005, 38.218883267959065], [13.30462782717844, 38.218875337146834], [13.303992619263514, 38.21882051683503], [13.303654589519384, 38.21842761931874], [13.303590906969687, 38.21867776905975], [13.303474690291079, 38.21869891461168], [13.303189726356134, 38.21851220205452], [13.303195568196209, 38.218261218057684], [13.303084663064402, 38.21805419531035], [13.302887528047009, 38.21782310265431], [13.302603100335054, 38.217613572693104], [13.302432762435588, 38.21747416366717], [13.302180977679786, 38.217105333200614]]]}, "properties": {"anno": 2008, "id": 518, "data": "2008-06-17", "localita": "CAPO GALLO", "sup_ha": 157.9951, "uso": "N.C."}}, {"type": "Feature", "geometry": {"type": "Polygon", "coordinates": [[[13.291443477292045, 38.1588229317368], [13.291643352606144, 38.15870905205303], [13.29189114700134, 38.15865426135112], [13.292164495592077, 38.158560913080365], [13.292611253282852, 38.158431155388115], [13.293107294503086, 38.15830211243847], [13.293628886556261, 38.15813450905143], [13.294198399757875, 38.158025992657244], [13.29457076742764, 38.157914611047886], [13.295064078312542, 38.15790230546862], [13.295435536796631, 38.15782983755471], [13.295703431623002, 38.157969973452055], [13.295772821573495, 38.158165623540356], [13.295841757768724, 38.15838073047767], [13.295862317252261, 38.158556207390156], [13.295784302539646, 38.15873025447653], [13.29570764994059, 38.15884592904216], [13.295604992296356, 38.159019618294444], [13.295427042202919, 38.15925060933213], [13.295371854386929, 38.159502844100516], [13.29526510851825, 38.159851653034586], [13.295282942205318, 38.160143876661955], [13.295301229156003, 38.16041664248342], [13.295221395932392, 38.16066852019737], [13.295116463757967, 38.160939497765185], [13.295037082512321, 38.161171917516064], [13.294935328641985, 38.16130669136353], [13.294735450990306, 38.16142057655795], [13.294536482918096, 38.16149554588236], [13.293989314949433, 38.16170171012776], [13.293665760830816, 38.16183326162159], [13.293167876739107, 38.16204013731164], [13.292991730043203, 38.16219329318257], [13.292741195360595, 38.162364831491466], [13.292590146561281, 38.16249888732194], [13.292467379109409, 38.16247763848601], [13.29237153064675, 38.162359460143755], [13.292127817126755, 38.16223913185094], [13.291911022657152, 38.162021873784276], [13.29179599106718, 38.16166984448705], [13.291582839428914, 38.16129692393597], [13.291444532486995, 38.160886162521706], [13.291428078933437, 38.160535566379906], [13.291338150836681, 38.160164436630104], [13.291343156272257, 38.15995040237309], [13.29142072637844, 38.15979581627556], [13.291400633809639, 38.15960088114153], [13.29135726275038, 38.15934721414689], [13.291337624626568, 38.15913282123791], [13.291413829005316, 38.15903660834385], [13.291443477292045, 38.1588229317368]]]}, "properties": {"anno": 2008, "id": 156, "data": "2008-06-27", "localita": "INSERRA", "sup_ha": 13.9301, "uso": "N.C."}}, {"type": "Feature", "geometry": {"type": "Polygon", "coordinates": [[[13.343916397017534, 38.18988661367003], [13.343855089806361, 38.189820692273514], [13.343816974533954, 38.18977058739202], [13.343739549278549, 38.18972302698631], [13.343654136314813, 38.18968154937388], [13.343587569910502, 38.18967441543319], [13.343395718330733, 38.18965312233251], [13.343278350854176, 38.189635977497844], [13.343184598404806, 38.18961606763091], [13.343107033390176, 38.189574700391084], [13.34301447643059, 38.18950214191663], [13.342977205222418, 38.18941487356567], [13.342963690478346, 38.18931864677513], [13.34296600991692, 38.189216447046185], [13.342968893068292, 38.18908947216199], [13.342989708748782, 38.18903710064498], [13.343057399607313, 38.188994684568996], [13.343156270751638, 38.18896200142782], [13.343251147349886, 38.18893236005192], [13.343439566123376, 38.188931919143585], [13.34349765067899, 38.18896681571291], [13.343558958014608, 38.18903273729768], [13.34358473748593, 38.189107451309326], [13.343607297681386, 38.1891511403223], [13.343737969754702, 38.18927380235144], [13.343841244501654, 38.18939298037455], [13.343960145562743, 38.189515476986074], [13.344067908713379, 38.189609934118685], [13.344203700049775, 38.18968000339868], [13.344233686384905, 38.18974238460148], [13.344216304784512, 38.18981649056518], [13.344120513354197, 38.189886393150715], [13.344010782423771, 38.18987865054745], [13.343916397017534, 38.18988661367003]]]}, "properties": {"anno": 2008, "id": 146, "data": "2008-06-30", "localita": "ADDAURA", "sup_ha": 0.6121, "uso": "N.C."}}, {"type": "Feature", "geometry": {"type": "Polygon", "coordinates": [[[13.305353234353229, 38.10609054481491], [13.305384491535767, 38.105937666478106], [13.305469652375988, 38.10585127789274], [13.305778532962853, 38.10568049723507], [13.305946322874464, 38.105617203172535], [13.306057423270241, 38.105607852426665], [13.306183643871966, 38.105543958560496], [13.306365289053058, 38.10548086367655], [13.306589007227469, 38.105396470982626], [13.30672958958784, 38.10531087949958], [13.30688428023937, 38.10521453916476], [13.307038717764215, 38.10512914700279], [13.307166455211023, 38.104999561738786], [13.30726521485518, 38.10492431981168], [13.307392698873183, 38.10480568266951], [13.307547640238909, 38.10469839301637], [13.307757751587294, 38.10460284907286], [13.307954512936638, 38.10448520928715], [13.308123055977386, 38.10438906680938], [13.30829159858052, 38.10429292407783], [13.308460645771708, 38.10417488339666], [13.308386818648424, 38.10437095866997], [13.308369677914298, 38.10451308826073], [13.308381006183572, 38.104622772624296], [13.308293322570826, 38.104818647374294], [13.30827517020885, 38.10500457139862], [13.308271378710453, 38.10516879727069], [13.308254490031057, 38.105299979323114], [13.308265565683035, 38.10542061117575], [13.308317955506748, 38.105552790041486], [13.308357501949402, 38.10564097580283], [13.308410398271496, 38.10575125785827], [13.308421726744232, 38.105860941300804], [13.30843254905891, 38.10599252151264], [13.30848620441663, 38.10606995837068], [13.308442361291503, 38.106167896197384], [13.308383651836381, 38.10630942803786], [13.308339555879826, 38.10641831420851], [13.308421428752819, 38.10647425249637], [13.308418901175695, 38.106583736392466], [13.308321656792112, 38.10659328890824], [13.308240288981438, 38.10651545376681], [13.308145824083985, 38.106404573846824], [13.307982080210992, 38.106292695959965], [13.307721090632063, 38.106190370752344], [13.307484021624596, 38.10625266916153], [13.307301617298858, 38.10634861180728], [13.307091247591988, 38.106455102260576], [13.306908842261667, 38.10655104426917], [13.306754401534647, 38.106636436166546], [13.3066284311699, 38.10668938130248], [13.30651707634651, 38.10670968183276], [13.306392118169688, 38.106718833198876], [13.306282788348025, 38.10665154559056], [13.30614650509436, 38.106551013139246], [13.305998138632205, 38.10637364209354], [13.305821553797525, 38.106217768835855], [13.30560086990975, 38.10617077948002], [13.305353234353229, 38.10609054481491]]]}, "properties": {"anno": 2008, "id": 147, "data": "2008-07-03", "localita": "POGGIO RIDENTE", "sup_ha": 3.6802, "uso": "N.C."}}, {"type": "Feature", "geometry": {"type": "Polygon", "coordinates": [[[13.28670977911381, 38.196812177343105], [13.286670605993384, 38.19664119182651], [13.28665221963112, 38.196504592644864], [13.286891272925363, 38.19643991420605], [13.287020793044887, 38.19644180267156], [13.287303418687305, 38.19636071735206], [13.287564857668567, 38.19626228123612], [13.287803909446042, 38.19619759999687], [13.288109319791731, 38.19606572112766], [13.28839474066354, 38.19586538409324], [13.288593814458203, 38.19566378830704], [13.28881367337825, 38.195496577221604], [13.288969571892272, 38.195294351331135], [13.289127067692919, 38.19502398351595], [13.288824060619877, 38.19505365222509], [13.288499067425827, 38.19510004149046], [13.288326776612193, 38.195080489961235], [13.288544237972651, 38.19501549231499], [13.28882765628624, 38.19490033185429], [13.289153048224927, 38.194836906457354], [13.289438860005669, 38.19461953144928], [13.289613945781626, 38.19451983219975], [13.28950881051615, 38.194399011207956], [13.28940367443169, 38.194278191012025], [13.289276155776303, 38.19419112656088], [13.289516397335115, 38.19407533600264], [13.289691480536387, 38.1939756365787], [13.290040050521908, 38.19384438048107], [13.290366234706626, 38.19374688024192], [13.290693215801014, 38.19361530773377], [13.291040186066871, 38.193552190346594], [13.291343983652995, 38.19348844438723], [13.291823258726685, 38.193307959685974], [13.292432844154993, 38.19309528486822], [13.292802990606098, 38.19296433433576], [13.293214713310746, 38.19290215131322], [13.293430570044427, 38.19290528800162], [13.29384069943998, 38.19291124555747], [13.294079336418163, 38.192863587253576], [13.294319168859895, 38.19276482181766], [13.294602569740453, 38.192649646947174], [13.294776448494693, 38.19260104723826], [13.2949299371045, 38.19250102706386], [13.295063031915248, 38.192349585545195], [13.29526048664075, 38.19221612053198], [13.295411584992886, 38.1922183130475], [13.295583075923568, 38.19227192640579], [13.295690207555776, 38.19230756312853], [13.295685831219304, 38.19249495555219], [13.295723034678815, 38.19275111674833], [13.295717066455412, 38.193006651110345], [13.29562913177223, 38.19307354029012], [13.295538809326935, 38.19324264457058], [13.29548927096402, 38.19351458815032], [13.295415360437419, 38.193905467730545], [13.295067994492344, 38.19398563336563], [13.295071974206884, 38.19381527720066], [13.294967229143822, 38.19367742564704], [13.294798919904682, 38.1934875265969], [13.294647818978385, 38.19348533323164], [13.29438679758893, 38.19356675038683], [13.294124580847429, 38.193699273589424], [13.29396989367241, 38.19385040014389], [13.293987895743738, 38.19400403380103], [13.294091843189696, 38.194175957586594], [13.294428062097372, 38.19457279265915], [13.29444327742929, 38.19484567568026], [13.294371749082723, 38.19513434108101], [13.29423585938119, 38.19540503009397], [13.294012029199033, 38.19574260764314], [13.29405002424836, 38.195964697748664], [13.294128803463762, 38.19628962854104], [13.294020073211213, 38.19632213214694], [13.293734665410824, 38.196522483170284], [13.293338931653464, 38.196823479145586], [13.293031932357186, 38.197023514465165], [13.292702547856933, 38.19725730720557], [13.29208973802385, 38.1976062669319], [13.291568058919419, 38.197752053121604], [13.291177894326529, 38.19781454301337], [13.29081091379546, 38.197809203331595], [13.290397964008633, 38.19792248277552], [13.290224468258678, 38.197954040375826], [13.289990202982526, 38.197814298642626], [13.289734751631634, 38.19765720673386], [13.289503284391483, 38.19739821589838], [13.289164683521747, 38.19710358108577], [13.288843676040154, 38.19697961464893], [13.288264028986397, 38.1968348374979], [13.287855078084434, 38.19677775349811], [13.287315809002635, 38.19675284955674], [13.28670977911381, 38.196812177343105]]]}, "properties": {"anno": 2008, "id": 155, "data": "2008-07-27", "localita": "SFERRACAVALLO P. SELLA PIZZO IMPISO", "sup_ha": 23.194, "uso": "N.C."}}, {"type": "Feature", "geometry": {"type": "Polygon", "coordinates": [[[13.392104470978694, 38.0761492371738], [13.389762386789377, 38.07580007519161], [13.388354883166862, 38.07464822281556], [13.387204072746426, 38.07485896265657], [13.38595060307758, 38.074524647733234], [13.385053830805848, 38.07360627907577], [13.384853521782997, 38.07228974355965], [13.385394000862176, 38.071164590703034], [13.38467511069569, 38.06997684366871], [13.384241686034716, 38.068838317157464], [13.387480581256797, 38.06747837276407], [13.390433489780358, 38.07132426841546], [13.393854052303544, 38.07214117796558], [13.394178997979918, 38.073006371346075], [13.393479629414223, 38.073540457170026], [13.39270117309333, 38.07507012204936], [13.39292836268682, 38.075163832776475], [13.392104470978694, 38.0761492371738]]]}, "properties": {"anno": 2008, "id": 150, "data": "2008-08-17", "localita": "SFERRO VECCHIO", "sup_ha": 45.0478, "uso": "N.C."}}, {"type": "Feature", "geometry": {"type": "Polygon", "coordinates": [[[13.318122888533784, 38.22154856157153], [13.316947493148064, 38.22155026883142], [13.316738139051639, 38.22145454449567], [13.31689839650464, 38.22062233009294], [13.317159026147548, 38.22053334158942], [13.3175867157406, 38.220335477278645], [13.31813146916329, 38.220157832391415], [13.318677503686052, 38.21992456902121], [13.319294457229942, 38.219673773695064], [13.319626859431773, 38.219530172316134], [13.319725981328425, 38.21930905350556], [13.319467923950725, 38.21928681695665], [13.319234219197899, 38.21922783849496], [13.318786034984111, 38.219295602617656], [13.318312213156524, 38.2194557211394], [13.318073375874988, 38.219619203931686], [13.317716188876759, 38.2198180798608], [13.317267144480644, 38.219922915008944], [13.317031299242759, 38.219956625847885], [13.316846305625072, 38.219824161856785], [13.316900150975531, 38.21952821771695], [13.317118486861355, 38.219234631542214], [13.317383389877563, 38.21896025586408], [13.31776578377917, 38.21868756377942], [13.318004189412662, 38.21854262044471], [13.31800761142882, 38.21839431169379], [13.318012316377146, 38.21819038703806], [13.317806392631507, 38.217946356894764], [13.31783887404686, 38.2175573833395], [13.318032846576802, 38.2173005352996], [13.318061476666623, 38.21707840843049], [13.317976038422257, 38.216706290695186], [13.31801193987283, 38.21616900817279], [13.318296049217205, 38.21608035343619], [13.318605794183515, 38.21589934083189], [13.319012090766003, 38.215608440844726], [13.319085575572233, 38.215479679663886], [13.319184694278363, 38.215258561091154], [13.31919067730662, 38.214999021138844], [13.319149238155683, 38.2147573461723], [13.318579763437556, 38.21397031713957], [13.320022906378668, 38.21458439953634], [13.319838348271473, 38.215453360781794], [13.320591143030775, 38.21746695678478], [13.320539458657798, 38.21869016830522], [13.32062362982833, 38.219117900360374], [13.321020117573703, 38.21925338172841], [13.319575156175159, 38.22075338259125], [13.318122888533784, 38.22154856157153]], [[13.317461091123645, 38.2206860268849], [13.317503382577467, 38.220890624315444], [13.317592672742961, 38.221095894616134], [13.318967170705795, 38.22061486963802], [13.318765085754235, 38.22020399334325], [13.317461091123645, 38.2206860268849]]]}, "properties": {"anno": 2008, "id": 157, "data": "2008-09-13", "localita": "Capo Gallo fossa del gallo", "sup_ha": 14.2185, "uso": "N.C."}}]}