{"type": "FeatureCollection", "features": [{"type": "Feature", "geometry": {"type": "Polygon", "coordinates": [[[13.352658943726553, 38.071981423789154], [13.352566611744388, 38.07182872235839], [13.352712751377414, 38.071717215997346], [13.352904643133641, 38.07170098012903], [13.353122161048177, 38.07160938972769], [13.353267451884024, 38.07153572700972], [13.353336288648155, 38.071669167374154], [13.35352182358084, 38.07193673395733], [13.353518433326572, 38.07208808709335], [13.353731291212425, 38.072204626548285], [13.3537992821308, 38.072375911032246], [13.35386684810825, 38.0725661135874], [13.353814315106392, 38.07277356666696], [13.353690834855653, 38.072942170358864], [13.353638734321295, 38.07313070623805], [13.353515666993474, 38.073280391450474], [13.35337757774282, 38.07303241384262], [13.353310860024383, 38.072804374788035], [13.35314841656105, 38.07257498777487], [13.353033403095115, 38.072365188511995], [13.352774803352014, 38.07215337903963], [13.352658943726553, 38.071981423789154]]]}, "properties": {"anno": 2013, "id": 6198, "localita": "Chiaranda'", "sup_ha": 0.9777, "sup_boscata_ha": 0.0, "sup_non_boscata_ha": 0.9777, "luogo_inizio": "incolto e pascolo", "squadre_aib": 2}}, {"type": "Feature", "geometry": {"type": "Polygon", "coordinates": [[[13.281924013959996, 38.17304890493237], [13.281934645422831, 38.173017785523726], [13.281950235234518, 38.17298673777429], [13.281970771934951, 38.172955763316665], [13.282001216175797, 38.17292493293894], [13.282021569412958, 38.17290176980456], [13.282046871647566, 38.172878687197525], [13.282057686662077, 38.17283974743286], [13.282078224436388, 38.17280877206949], [13.28209381411877, 38.17277772519828], [13.28211920800351, 38.172750736456216], [13.282159455337533, 38.17272395694022], [13.282194571000112, 38.17270492445154], [13.28220988547495, 38.172685595915596], [13.282220056702517, 38.17267402236134], [13.282201082487747, 38.17263855416511], [13.282167447403555, 38.172595064635736], [13.282153236511979, 38.172567489159746], [13.282138763829298, 38.172547320146684], [13.28215443164983, 38.17251668534087], [13.282160023182326, 38.17248939962087], [13.282185048948769, 38.17247803531452], [13.282225020785027, 38.17246298223184], [13.282265084313162, 38.172444023017185], [13.282304872724747, 38.17243678124149], [13.282349516103066, 38.17243352695546], [13.2823846315549, 38.17241449530539], [13.282419838878525, 38.17239154941834], [13.28243794014204, 38.17232902273029], [13.282449718915789, 38.17229137037221], [13.282466352969518, 38.1722585670313], [13.28248198240913, 38.172216185806754], [13.282530242933603, 38.17220141698849], [13.282557824826661, 38.172209829156195], [13.282596990719275, 38.17221898572022], [13.282641639437744, 38.17223101158716], [13.282696195688864, 38.172218424601766], [13.282776105722355, 38.17219347495526], [13.282845867510138, 38.17217494182288], [13.282910772754203, 38.17215243736645], [13.282971005124692, 38.17211813494098], [13.28299323975777, 38.17210243377447], [13.283016796791117, 38.17202712262105], [13.283043529486628, 38.1720017221822], [13.28310298240369, 38.1719742129997], [13.28315719793424, 38.17193804357976], [13.283180503329344, 38.17191946799219], [13.283198826929258, 38.17190644373287], [13.283249164114869, 38.17187199645827], [13.283290227184418, 38.171838532799306], [13.283319935130335, 38.17181048041034], [13.283355006730174, 38.17176984324094], [13.283380901720012, 38.17174491259768], [13.283402021628572, 38.17171550722388], [13.283446919404426, 38.17167550393515], [13.283507548156088, 38.17162763544382], [13.283537400628079, 38.17161818249739], [13.283560246815894, 38.17160948952641], [13.283621073292446, 38.17156997498188], [13.283682889069729, 38.17153821228939], [13.283713147427743, 38.17151520086252], [13.283753536741605, 38.1714945291676], [13.28379336562838, 38.171473367141516], [13.283823522012261, 38.171454262556956], [13.283858636786603, 38.17143522323571], [13.283908320251212, 38.17142813366202], [13.283967725540952, 38.17142900109209], [13.284007420286008, 38.17142567383498], [13.284042443221876, 38.17141054778627], [13.284092228722137, 38.17139954405396], [13.284127149753434, 38.171388323951525], [13.28417235365265, 38.17136162427852], [13.284215655641441, 38.17133965044933], [13.284252560019501, 38.17131979006565], [13.284282634896813, 38.17130459163116], [13.284302528620145, 38.1713009739961], [13.284332593209482, 38.171285775398275], [13.284546136538424, 38.17133273855151], [13.284782435486674, 38.17132842031815], [13.285080500548155, 38.17120846219109], [13.285381883738907, 38.17083478299586], [13.285519409371402, 38.17053892763123], [13.285821663011747, 38.17024033260361], [13.286191504891365, 38.16999710257454], [13.28663852749388, 38.16984461887232], [13.287110824322362, 38.16982404476268], [13.287729706809676, 38.16987191556188], [13.288111750713753, 38.169947405799256], [13.288533698665434, 38.17000017051013], [13.288938157363352, 38.16995944397458], [13.28922364435602, 38.16995583271992], [13.28947141301871, 38.169881741488865], [13.289726107145809, 38.16993206675728], [13.289933981512167, 38.16988070659445], [13.290113799488733, 38.16976678207289], [13.290151224477018, 38.1695443357682], [13.290410639798255, 38.169434530331294], [13.290550093025903, 38.169482905299205], [13.290712301823019, 38.16942550334677], [13.290856467501483, 38.16933048777655], [13.290979097045435, 38.16934721070098], [13.291080702692875, 38.16945327389986], [13.291002233437553, 38.169571664445144], [13.291151309613191, 38.16967094519581], [13.291192498914246, 38.16993301148296], [13.291234377968397, 38.17016521135628], [13.291313575100803, 38.170420357386774], [13.291392073973492, 38.17070537863708], [13.291350212786568, 38.1708765906329], [13.291382115288853, 38.171131056381114], [13.291423994537372, 38.171363248047456], [13.291257413599642, 38.17160735437656], [13.290950854574447, 38.171767242611786], [13.290664259964359, 38.17188260562815], [13.290424971010085, 38.17199864778985], [13.290325964057427, 38.172097535746424], [13.290206145623113, 38.17212113975503], [13.290086497403598, 38.17213750613716], [13.289985194448919, 38.172154132398965], [13.289916243333296, 38.172160377056976], [13.289777570664741, 38.1722054340458], [13.289662505262182, 38.17222185954344], [13.289561286538554, 38.17223487388257], [13.289454881058244, 38.17227316150984], [13.289347975816412, 38.17233316080064], [13.289250484272674, 38.17238243809695], [13.289152746557845, 38.17244257890442], [13.289064602327409, 38.17248475137638], [13.28897187283076, 38.17252685695392], [13.28886539112593, 38.17256876291757], [13.28878182966149, 38.17261099385755], [13.288698522983843, 38.17264237659046], [13.288611445350673, 38.17269314878591], [13.288504467536013, 38.172717155403745], [13.288392257314442, 38.17276665987289], [13.28830832181688, 38.172794653778766], [13.288224042206341, 38.172837255037955], [13.288135055385752, 38.1728834391282], [13.28805548497713, 38.17292245740021], [13.287993904665054, 38.172983652553405], [13.287907525858724, 38.17305203691035], [13.287841921865933, 38.173087599971375], [13.287785639637214, 38.173119655528495], [13.287761495374921, 38.17316313257371], [13.287737255381998, 38.17321025974757], [13.287754806859336, 38.17325069338116], [13.287738054622233, 38.173298294733975], [13.2877371123464, 38.17333845863858], [13.287750298556752, 38.17336786770603], [13.287753769091196, 38.173427610750245], [13.287789568457518, 38.17347926330662], [13.2878288023455, 38.17358210538839], [13.287846353955382, 38.173622539009145], [13.28785929293999, 38.17366290625829], [13.287867940642679, 38.1736885975925], [13.287862803924801, 38.17371043726728], [13.287843186532253, 38.173757639082766], [13.287842759439064, 38.17377588870227], [13.287834405292498, 38.17384340578209], [13.28776464328741, 38.17391358596749], [13.287693983906939, 38.17402956386084], [13.28779116984318, 38.17409923302223], [13.287837811140305, 38.17421692712581], [13.287953028182235, 38.17429700446349], [13.287986561213433, 38.17437401159228], [13.288047822054189, 38.174449456705744], [13.288000319572015, 38.17459386994867], [13.28807095861284, 38.17471678471837], [13.288083207657985, 38.17482143204991], [13.288036974209172, 38.174939023438824], [13.287944671262723, 38.175127327122695], [13.287825782193005, 38.175199604315196], [13.287769810817418, 38.17533756232516], [13.287680165364169, 38.1754091069736], [13.287653422768168, 38.17555326321266], [13.287496426352384, 38.175606324655874], [13.287312156094266, 38.17561305371022], [13.287150419434097, 38.17576333552146], [13.28690255735996, 38.17583836103515], [13.286672829754021, 38.175908872693995], [13.286472443504376, 38.17593847564352], [13.286278602933875, 38.17595877463056], [13.286097554323817, 38.175933007660866], [13.285975630472267, 38.17588496800745], [13.285877130990997, 38.1758372783624], [13.285802507738989, 38.175771432711706], [13.2856593238145, 38.17563056941051], [13.285556381619477, 38.17552267975883], [13.28543900926948, 38.175280435175004], [13.28525894956483, 38.17521305016351], [13.285044080411959, 38.17517515082061], [13.284840041534403, 38.175229968158966], [13.284670463101914, 38.17532009892661], [13.284488231923852, 38.17534519478996], [13.284314569689403, 38.17525476796951], [13.284114323445614, 38.17529810362944], [13.284012131424317, 38.17540762827308], [13.283748209736576, 38.17541764731845], [13.283497853592516, 38.175349232820984], [13.283231448535512, 38.17521581895934], [13.283042492620055, 38.175028038882274], [13.282960565183664, 38.17483058908731], [13.282835874031608, 38.17466191070012], [13.282861240850885, 38.174364847161975], [13.282846445815803, 38.174212285822186], [13.282835148195833, 38.17409261955683], [13.282778971976866, 38.17407198210986], [13.282715075073185, 38.1740515029509], [13.282651271040098, 38.174027117656955], [13.282612401586343, 38.17399527406289], [13.282578847275815, 38.17394787026487], [13.282560148810095, 38.17390068378608], [13.28253650109939, 38.17385342490023], [13.282507537165177, 38.17382172618232], [13.282488377800338, 38.17379407835482], [13.282449508539532, 38.17376223471022], [13.28240110095658, 38.17371461355671], [13.28235206023354, 38.17369435155428], [13.282335508099035, 38.173660877054886], [13.28231662512967, 38.17362150996522], [13.28228270300188, 38.173589738648175], [13.28225392401486, 38.17355022044689], [13.282235316424448, 38.173499127786805], [13.282216985331672, 38.1734363086815], [13.282217905300662, 38.17339722412087], [13.282204153957695, 38.17335011808125], [13.282190320236275, 38.17330691018311], [13.282181793678827, 38.17324814199181], [13.282177580816231, 38.17321680535444], [13.28216868608352, 38.17317366972184], [13.282169789521351, 38.173126772025064], [13.282110198141067, 38.17313372397829], [13.28205069982495, 38.17313676079211], [13.282006331158156, 38.17312829750365], [13.281957291128078, 38.173108027238555], [13.281933266676702, 38.173076400665195], [13.281924013959996, 38.17304890493237]]]}, "properties": {"anno": 2013, "id": 6360, "localita": "Vallone Ferrarolo", "sup_ha": 32.6318, "sup_boscata_ha": 0.9306, "sup_non_boscata_ha": 31.6123, "luogo_inizio": "altro", "squadre_aib": 4}}, {"type": "Feature", "geometry": {"type": "Polygon", "coordinates": [[[13.383990577010424, 38.072961747518015], [13.384075392471708, 38.07241599936484], [13.384446362139728, 38.07210447282905], [13.384925259384069, 38.07185198412782], [13.385982782042259, 38.07178014548462], [13.386597179564049, 38.071990067267514], [13.387027044065793, 38.07231259378068], [13.38763575909607, 38.07278149077896], [13.388241337282478, 38.07339427017998], [13.388702570228158, 38.0739474962991], [13.38909164137616, 38.07447094904128], [13.389735537294962, 38.0749978902594], [13.39014037646268, 38.07480193905933], [13.390276050931302, 38.07359484616662], [13.389740739523281, 38.07309817645183], [13.389311489421045, 38.072746885899015], [13.388207014787424, 38.07163794363948], [13.387789769365332, 38.07073989727636], [13.387848882622924, 38.06970446806107], [13.388155220282194, 38.06901783125644], [13.388822394208171, 38.06848006577322], [13.389370273676516, 38.068401221580416], [13.389682116251159, 38.069125101022344], [13.389997106343687, 38.06970510939043], [13.390455820326986, 38.07037343258367], [13.390769561643948, 38.071010987271926], [13.39090382678886, 38.071530939877555], [13.39117425006571, 38.07248453168063], [13.391237611929595, 38.07291716702622], [13.39122753599679, 38.07337758097183], [13.391185450022926, 38.07358487568065], [13.391209171144927, 38.074095532393606], [13.39104313357324, 38.074507037958014], [13.390914082873989, 38.07482250139302], [13.39066203625017, 38.0751776574768], [13.390446988136693, 38.07543677866005], [13.390836294570835, 38.07627946999033], [13.390329178297552, 38.0761573929932], [13.389822054664506, 38.07603531371732], [13.389247807332184, 38.075653255389426], [13.388455777376018, 38.07523941986725], [13.387847026880356, 38.07477052659138], [13.3873519106407, 38.07410169494131], [13.386415565810472, 38.07362829420483], [13.385767292615839, 38.07330276791438], [13.385002224283507, 38.07332105622065], [13.38434762658692, 38.07328327508609], [13.383990577010424, 38.072961747518015]]]}, "properties": {"anno": 2013, "id": 6385, "localita": "Monte Grifone Ciaculli", "sup_ha": 20.7144, "sup_boscata_ha": 0.0, "sup_non_boscata_ha": 20.5908, "luogo_inizio": "incolto e pascolo", "squadre_aib": 2}}, {"type": "Feature", "geometry": {"type": "Polygon", "coordinates": [[[13.409707791869874, 38.05947265010818], [13.409403144859466, 38.05883926826956], [13.409762467555405, 38.058416223932326], [13.410698441290522, 38.05782477812016], [13.411249249299011, 38.05737914536044], [13.412113403402602, 38.05716427994585], [13.412521143277178, 38.05744665523611], [13.413002860401546, 38.05725179244304], [13.413099419552827, 38.057202754559604], [13.414019618846373, 38.057341014479164], [13.414138235513619, 38.05774534504193], [13.4143178001676, 38.058276348274184], [13.41467112641091, 38.05813008080144], [13.415084856231733, 38.05813565588405], [13.415550300337642, 38.058695678384325], [13.415738540139582, 38.0588240648165], [13.416213214252279, 38.05895631517154], [13.41653309015597, 38.058885109847076], [13.416725132914314, 38.05883734651121], [13.416976483309806, 38.0589917579816], [13.41700614207691, 38.0590928383875], [13.417423116416114, 38.05894742628665], [13.417710634309106, 38.05890095333747], [13.417871924728399, 38.058802434057995], [13.418217669720192, 38.059008452776624], [13.418466869863138, 38.05926350583934], [13.41880937377705, 38.05962050102406], [13.419220949327643, 38.05972671353072], [13.419245744213292, 38.06005426022091], [13.419143236709631, 38.06038010347572], [13.418722460220042, 38.06070166177698], [13.41830331319362, 38.06094773813324], [13.417762263605907, 38.060940461890276], [13.4173738451481, 38.06123728047672], [13.417331730926383, 38.06171495706091], [13.416622887317196, 38.062108149773366], [13.415889787128558, 38.06214862148606], [13.415534265880014, 38.062395535503434], [13.415238609287952, 38.06281945505343], [13.414474759759536, 38.06280916322922], [13.413578003829127, 38.062318831532984], [13.412915069707354, 38.06205818676443], [13.412253769869896, 38.061722042785206], [13.411546368038247, 38.061309761597414], [13.410796671909466, 38.06064520271097], [13.410236863939865, 38.06003354618642], [13.409707791869874, 38.05947265010818]]]}, "properties": {"anno": 2013, "id": 6481, "localita": "Valle del Porco", "sup_ha": 31.3311, "sup_boscata_ha": 0.4533, "sup_non_boscata_ha": 30.8778, "luogo_inizio": "incolto e pascolo", "squadre_aib": 2}}, {"type": "Feature", "geometry": {"type": "Polygon", "coordinates": [[[13.349609174590757, 38.156017653982566], [13.349723653737898, 38.15601105868323], [13.34976539277616, 38.156003432877746], [13.349859277065812, 38.155988337378325], [13.350036091134875, 38.15598261597394], [13.350150941158732, 38.15595961053445], [13.35027562132562, 38.155961360539365], [13.350369134585302, 38.155962673450745], [13.350473032654449, 38.15596413127475], [13.350565989175333, 38.155990053653696], [13.350658936616634, 38.1560159767331], [13.350762845044995, 38.15601743444669], [13.350814978869304, 38.15600996237943], [13.35091906306198, 38.1560032118015], [13.350981398071097, 38.15600408634152], [13.351023147076475, 38.15599646833796], [13.351085861935946, 38.15598093412237], [13.351126408401672, 38.15599260420443], [13.35115490183145, 38.156006901371484], [13.35118741737949, 38.156016477872434], [13.351235704840148, 38.15602994181735], [13.351281621401293, 38.15600501205781], [13.351349506093866, 38.15601107580205], [13.351420233472851, 38.15603509391335], [13.35154240356666, 38.15604036517794], [13.351610213467342, 38.15608335885071], [13.351676589485066, 38.1560912973031], [13.351740437837012, 38.15611321353648], [13.351816412437959, 38.156135285530524], [13.352007019155934, 38.15615842029707], [13.352103700501363, 38.15618023751447], [13.352151237620003, 38.15622694758639], [13.352189087388895, 38.15627224021765], [13.352194819616575, 38.15630557679225], [13.352171225957019, 38.156346170832606], [13.35210611516598, 38.15636060050217], [13.352034638829949, 38.156369829320326], [13.351962931089485, 38.15638928590769], [13.351951781363253, 38.1564530787261], [13.351982371187061, 38.15653279991696], [13.352124344618867, 38.156557808541834], [13.352106301196718, 38.156639411911435], [13.352031068589218, 38.1566716058661], [13.351974810142575, 38.15672453541491], [13.351918320378909, 38.15678768553954], [13.351813936126403, 38.15681947828724], [13.351736275819999, 38.156815826108385], [13.351671624930992, 38.15680980797829], [13.351596104132623, 38.15685478440121], [13.351485537365422, 38.15687369515225], [13.351369065677039, 38.15686695019784], [13.351297425091548, 38.15688385157689], [13.351226062285582, 38.15688796190558], [13.351198829010684, 38.156946410112944], [13.35114389667211, 38.15694052816025], [13.351139088633026, 38.15686628028342], [13.35114655050854, 38.15682290509403], [13.351160427443679, 38.15678217482301], [13.351190319462953, 38.15674933755037], [13.3511838537484, 38.15670450062972], [13.35111112295653, 38.156703481107364], [13.351028005015994, 38.156702314766754], [13.3509864414939, 38.15670173105985], [13.350944146647343, 38.15673396783557], [13.350911487309098, 38.156799159876044], [13.350857130564178, 38.1569050813458], [13.350866600556733, 38.1569462467274], [13.35087643089333, 38.15697101124811], [13.350864562934353, 38.15703649528232], [13.35083245892462, 38.157077077653405], [13.35083116286667, 38.15713450765775], [13.350830237644107, 38.15717552703673], [13.350840077306524, 38.157200283580174], [13.350839151904113, 38.157241311066876], [13.350838225521235, 38.157282331330165], [13.350785349147442, 38.15732262193095], [13.350660296933313, 38.15733728125179], [13.350597579820187, 38.15735280888573], [13.350461955287214, 38.15737553100205], [13.350368441359828, 38.1573742181397], [13.350273815923783, 38.15742212626685], [13.350149318095163, 38.15741217539085], [13.3500133236295, 38.157451299508644], [13.349879356506447, 38.157400173901095], [13.349818131023419, 38.157350077680356], [13.349715156895865, 38.15730759897685], [13.349664319030472, 38.157257640561696], [13.349622568994358, 38.15726526616876], [13.34951866800296, 38.15726380663362], [13.349414201847514, 38.15728695740013], [13.349330712179862, 38.15730219865385], [13.349258350914074, 38.157284767343015], [13.349196384914055, 38.15726748213766], [13.3491446199242, 38.157258551842645], [13.349051847503555, 38.15722441850081], [13.34894850277905, 38.157198348846705], [13.348898591826565, 38.15710737077315], [13.348920847640178, 38.15704203212269], [13.348932912742194, 38.156968339552805], [13.348945152505465, 38.156886446027315], [13.348978359712625, 38.15679663580498], [13.348990423586814, 38.15672294230704], [13.349064267721348, 38.156674743921116], [13.349065566264299, 38.15661731488039], [13.349076878480737, 38.1565764406625], [13.349141077647781, 38.15649527675414], [13.349142746168125, 38.15642143798141], [13.3491553567663, 38.156323134706845], [13.349218814604235, 38.15627478207939], [13.349282817974293, 38.15620182685429], [13.349357217608167, 38.15612900963002], [13.349410464980442, 38.156072309947724], [13.349484123285253, 38.156032312083106], [13.349609174590757, 38.156017653982566]]]}, "properties": {"anno": 2013, "id": 6720, "localita": "Monte Pellegrino - Pizzo Vuletta", "sup_ha": 3.19, "sup_boscata_ha": 0.5421, "sup_non_boscata_ha": 0.0, "luogo_inizio": "bosco", "squadre_aib": 6}}, {"type": "Feature", "geometry": {"type": "Polygon", "coordinates": [[[13.367960710141249, 38.15659760704392], [13.3679711939197, 38.15653127011495], [13.368041935667053, 38.15647735264482], [13.368122823796861, 38.15648762741175], [13.36817993657401, 38.15652502521481], [13.36827179733539, 38.1565628977637], [13.36832952309204, 38.15657285050855], [13.368422619719293, 38.156555840313914], [13.368493555927058, 38.15649277380226], [13.368529743345121, 38.15642921722869], [13.368623034469511, 38.15640305900715], [13.368715721983097, 38.156404344930266], [13.368830959288855, 38.156433398447874], [13.368945389397755, 38.15649904471538], [13.369048224357051, 38.15656452260711], [13.369137235826704, 38.156730472772544], [13.36914718842822, 38.156803820056], [13.369065065648966, 38.15684842954577], [13.369051845277111, 38.15692145586453], [13.369084969767355, 38.15699511689525], [13.369106303837443, 38.15707777463382], [13.369103444988234, 38.15720584377046], [13.36911298899338, 38.15729748110371], [13.369122125229033, 38.1574074229173], [13.369061334777209, 38.15753468829425], [13.369072676744247, 38.157633069786655], [13.369070430350481, 38.15773369481692], [13.36899968792993, 38.15778762009263], [13.368849689826742, 38.15775808474361], [13.368734042715516, 38.157747328473555], [13.368606798780931, 38.15773641186668], [13.368444806609183, 38.15772501139026], [13.368294399902002, 38.15771377259022], [13.36819115621844, 38.157666590393774], [13.368228161323808, 38.15756644123034], [13.368357438056917, 38.1574858826349], [13.368370454211849, 38.1574220041362], [13.368349120690599, 38.157339355294056], [13.368340599436435, 38.15720197658395], [13.368399143599563, 38.157175334799746], [13.368479622508145, 38.157203905674805], [13.36853755380612, 38.15720471061026], [13.368619872209448, 38.15715094553895], [13.368736753874549, 38.15710681926815], [13.368761968775285, 38.15701565668761], [13.368786979575814, 38.15693365084356], [13.368695311830841, 38.156886622697506], [13.368592069184164, 38.15683943366056], [13.368521531195539, 38.156884210032025], [13.368416654098393, 38.15691020807523], [13.36832335196447, 38.15693636687251], [13.368172539058776, 38.15694342431908], [13.368045510857474, 38.15692335774422], [13.368024994740319, 38.15680411523156], [13.367992484580617, 38.15670299993342], [13.367960710141249, 38.15659760704392]]]}, "properties": {"anno": 2013, "id": 6761, "localita": "Monte Pellegrino - Arenella", "sup_ha": 0.9703, "sup_boscata_ha": 0.0, "sup_non_boscata_ha": 0.9703, "luogo_inizio": "incolto e pascolo", "squadre_aib": 0}}, {"type": "Feature", "geometry": {"type": "Polygon", "coordinates": [[[13.299491142049558, 38.202493231918154], [13.299531629936542, 38.20230121799897], [13.300009533843962, 38.2021396717106], [13.300276941653237, 38.201978534911376], [13.300469522875538, 38.201676258600095], [13.300508390915416, 38.201367245129155], [13.300644631249348, 38.20123644730705], [13.300689129963574, 38.201131985993335], [13.300810196922042, 38.201050755850545], [13.300886225339868, 38.20094675000089], [13.300916634649107, 38.20084484940413], [13.300890604352594, 38.20075872583647], [13.30093399712557, 38.20070127029703], [13.300972057912782, 38.20062760219761], [13.30099755905001, 38.20055005390022], [13.30111234906606, 38.20053924603047], [13.301245238029292, 38.200575916541766], [13.301370922821759, 38.20060578518583], [13.301553323840038, 38.20065288103184], [13.301698677142145, 38.20068614926537], [13.301796728643113, 38.200715618521286], [13.301867147693295, 38.20074468791815], [13.301982091447433, 38.20091883024688], [13.301976001125743, 38.201009623739374], [13.301921409619828, 38.201142620925786], [13.30182403513481, 38.20134242066004], [13.301798315704376, 38.20145180053029], [13.301773436773864, 38.20152461066096], [13.301722413375833, 38.20172508092245], [13.301521862724409, 38.201885331261124], [13.301410420042316, 38.202098148921], [13.301344597323183, 38.20225512006223], [13.301144675542105, 38.20245085678102], [13.30091781331772, 38.20257071167983], [13.30056324035173, 38.202676094442914], [13.300050212473067, 38.202712879855746], [13.299675238922724, 38.202663242587114], [13.299491142049558, 38.202493231918154]]]}, "properties": {"anno": 2013, "id": 6762, "localita": "Spinasanta", "sup_ha": 2.5555, "sup_boscata_ha": 0.0, "sup_non_boscata_ha": 2.5555, "luogo_inizio": "strada comunale", "squadre_aib": 1}}, {"type": "Feature", "geometry": {"type": "Polygon", "coordinates": [[[13.303119492664976, 38.20252992077657], [13.30304521792129, 38.20262672877691], [13.303027600971074, 38.2026959385709], [13.3028793886289, 38.20270326684559], [13.302792196517984, 38.20266727426803], [13.30260217674014, 38.202579278899314], [13.302371272617265, 38.2025285786696], [13.302075940351902, 38.20249589296525], [13.30184808714966, 38.20248628390632], [13.301655643970252, 38.202502448240445], [13.30149135625373, 38.20251270344089], [13.301311204971979, 38.20251641436044], [13.30125785492893, 38.202401968394256], [13.301331401842022, 38.202276867048], [13.301332256916046, 38.20226720001138], [13.301344597323183, 38.20225512006223], [13.301410420042316, 38.202098148921], [13.301521862724409, 38.201885331261124], [13.301722413375833, 38.20172508092245], [13.301773436773864, 38.20152461066096], [13.301798315704376, 38.20145180053029], [13.30182403513481, 38.20134242066004], [13.301921409619828, 38.201142620925786], [13.301976001125743, 38.201009623739374], [13.301982076182384, 38.200919094067416], [13.302043059064765, 38.200963999098825], [13.30207690479719, 38.200983442923466], [13.302124414654637, 38.20100577978444], [13.302178050977341, 38.201036440093866], [13.302275619390155, 38.201081228982304], [13.302332494916806, 38.201107250917296], [13.302395864571196, 38.20112832563416], [13.302472241857487, 38.20113950530639], [13.302612576089842, 38.201146575049954], [13.30267630708259, 38.20115253779607], [13.30272087842497, 38.20115822344968], [13.302765214752773, 38.20117398071465], [13.302790283498004, 38.201194502275904], [13.302822090701012, 38.201199995210835], [13.302859688640828, 38.201230781062435], [13.302897470638422, 38.20125787118162], [13.302960723564368, 38.20128398592678], [13.303017833537742, 38.20129992778474], [13.303080500681668, 38.2013512269704], [13.303118224984138, 38.201376971646624], [13.303162327497343, 38.20140280942098], [13.303200042869074, 38.201428547633924], [13.303244262455845, 38.20144934505106], [13.303275600643483, 38.20147499825961], [13.303313326200023, 38.20150074379306], [13.303376110749516, 38.20154700159935], [13.303414295044002, 38.20155259466655], [13.30345213766844, 38.20157330072995], [13.303496357416584, 38.20159409805534], [13.30354057719031, 38.201614895364564], [13.30367497008017, 38.20169417034501], [13.303751231035271, 38.20171039673771], [13.303814836714627, 38.201721390967734], [13.303852796536235, 38.20173705567625], [13.303915932121695, 38.20176821023475], [13.303854499313909, 38.201905987478725], [13.303656860405775, 38.202035630446446], [13.303481255526446, 38.20211520561502], [13.303378616937, 38.202227389569096], [13.30326937196471, 38.20227949007163], [13.3032079756957, 38.20233859036355], [13.303161846359531, 38.202429489961716], [13.303119492664976, 38.20252992077657]]]}, "properties": {"anno": 2013, "id": 6766, "localita": "Spinasanta", "sup_ha": 2.5219, "sup_boscata_ha": 0.0, "sup_non_boscata_ha": 2.5219, "luogo_inizio": "strada comunale", "squadre_aib": 2}}, {"type": "Feature", "geometry": {"type": "Polygon", "coordinates": [[[13.298446971460914, 38.10691671851685], [13.298431597994531, 38.106863251527756], [13.298483441990246, 38.10682376131226], [13.298520522606543, 38.10679181006169], [13.298571035953817, 38.10675333328179], [13.298631766328006, 38.10678081929167], [13.298681736680766, 38.10680724013916], [13.298746221206631, 38.10683101263865], [13.298785682290257, 38.10684300297254], [13.29884314164493, 38.10685810527576], [13.298911763268668, 38.10685909814448], [13.298987551664279, 38.10686305329149], [13.299059647174078, 38.10686980624265], [13.299112106421314, 38.106877144457336], [13.299213945427272, 38.10689477625027], [13.2992772233163, 38.10683583619082], [13.299311580514553, 38.10675640363999], [13.299356778249932, 38.10667711991416], [13.299480642463525, 38.1066332324103], [13.299670812580764, 38.10659437519793], [13.299857651121712, 38.106578736072656], [13.300034364213836, 38.106592710621285], [13.300181917138293, 38.10661768356976], [13.300308471261477, 38.106613804066775], [13.300438555333677, 38.10661282592712], [13.300529046893985, 38.106622944190654], [13.300590374899436, 38.10662383055352], [13.300692963647847, 38.10660915566001], [13.300775109723528, 38.106594184059865], [13.300836063449855, 38.106611223906775], [13.300979537477083, 38.10659713926601], [13.301062433012014, 38.10654986205184], [13.301162766826227, 38.10654335755791], [13.301334043218871, 38.10648017374391], [13.301480767213828, 38.106385235804865], [13.301580664560548, 38.106283902653935], [13.301695869587697, 38.106145680204065], [13.301800542675439, 38.1061500511348], [13.30193448669801, 38.10629472421898], [13.302100227065445, 38.106314247803134], [13.302160787466487, 38.106334240748176], [13.302215683391253, 38.106356924717524], [13.30227079822593, 38.106369661013176], [13.302318411414552, 38.10638029996495], [13.302379537354923, 38.10635132913295], [13.302435390182477, 38.106332232876674], [13.302524913208392, 38.10627381720381], [13.302599308819062, 38.10621518286923], [13.302678112665967, 38.10618447842382], [13.302768527514242, 38.10619573474298], [13.302846906774763, 38.106182930465714], [13.30292734970183, 38.10619006568735], [13.302977571165117, 38.10619676425232], [13.302997120046685, 38.10622291590165], [13.302938050308596, 38.10627182019406], [13.302873855754195, 38.106324635424926], [13.302812224723898, 38.10637549064649], [13.30272234246705, 38.10644982697379], [13.302647798251112, 38.10651443224637], [13.30258662623437, 38.10654539235322], [13.302545464477578, 38.106582614600086], [13.302516339535556, 38.10664389110151], [13.30246925980022, 38.10671884485054], [13.302405342126757, 38.10675971599314], [13.302331164688107, 38.10680840163377], [13.302228323421055, 38.106898475000676], [13.302185999494121, 38.10698543707788], [13.302113296819838, 38.107025187080254], [13.302027590168079, 38.107027926017466], [13.301950353563903, 38.10699099039824], [13.301926188243423, 38.10694685011157], [13.301860951563784, 38.10693595622661], [13.301720544519595, 38.10690805172123], [13.301578835967396, 38.10693585799577], [13.301412879147463, 38.10692350842047], [13.301257171764279, 38.10690335213457], [13.301141805606235, 38.10688178207747], [13.30106480027413, 38.106834889403224], [13.300962024858025, 38.10681350127291], [13.300909888967547, 38.106853734548956], [13.301158941381296, 38.107020059766604], [13.301298014576272, 38.10709914789679], [13.301625340497694, 38.107317991931], [13.301502402865474, 38.107321925135956], [13.301336594231916, 38.10730525824134], [13.301199605304186, 38.10729185923927], [13.301091390389056, 38.107284585205484], [13.300922546517626, 38.107291125125876], [13.300791670647211, 38.1072773941218], [13.30057830793559, 38.10728572903484], [13.300502197325153, 38.10729604851442], [13.300115934605028, 38.107281902709516], [13.300050456981452, 38.10730093605934], [13.299931068686355, 38.10730777031099], [13.299764720906904, 38.107313933752934], [13.29960560753255, 38.10732019357183], [13.299527115454326, 38.107325933303386], [13.299424679404531, 38.10733185533284], [13.299341741737598, 38.107324945629884], [13.299258805228614, 38.10731803588524], [13.299197264496483, 38.10732285560489], [13.299121550839823, 38.10731605034439], [13.299006432980509, 38.10729439707417], [13.298901559815949, 38.10729859004235], [13.298867665045147, 38.10735805635116], [13.29872915277046, 38.10741029132732], [13.2986264382078, 38.10747732290252], [13.298582990317342, 38.107325388531464], [13.298553205083278, 38.107207910319836], [13.298501417098311, 38.107104384442394], [13.29847676499795, 38.10697454340681], [13.298446971460914, 38.10691671851685]]]}, "properties": {"anno": 2013, "id": 6768, "localita": "Boccadifalco - Ponticelli", "sup_ha": 2.5507, "sup_boscata_ha": 0.2758, "sup_non_boscata_ha": 2.2749, "luogo_inizio": "strada comunale", "squadre_aib": 1}}]}