{"type": "FeatureCollection", "features": [{"type": "Feature", "geometry": {"type": "Polygon", "coordinates": [[[13.364225446170398, 38.15225495288735], [13.364169140890096, 38.15176773563057], [13.36416914041285, 38.15176351720586], [13.364303248068232, 38.151761405776895], [13.364364937051139, 38.15174874919894], [13.364450769600852, 38.15164117967809], [13.364558052573312, 38.15169812616867], [13.364579503303789, 38.151847877329544], [13.364584859917004, 38.152046139184264], [13.364582175419487, 38.152100977277925], [13.364496347714324, 38.152122070735146], [13.364485613120163, 38.15224229347472], [13.364287134895678, 38.152261279682094], [13.364225446170398, 38.15225495288735]]]}, "properties": {"anno": 2025, "id": 33540, "data": "2025-05-23", "localita": "Monte Pellegrino", "sup_ha": 0.1868, "sup_boscata_ha": 0.0196, "sup_non_boscata_ha": 0.0, "altre_sup_forestali_ha": 0.1672, "squadre_aib": 5, "fine_intervento": "2025-05-24", "durata_min": 916, "tipo_evento": "Incendio di vegetazione", "costo_spegnimento_eur": 5886.06, "feriti": 0, "periti": 0}}, {"type": "Feature", "geometry": {"type": "Polygon", "coordinates": [[[13.410955772373878, 38.060202944311705], [13.411181061223797, 38.05978057505528], [13.41151364610442, 38.05979746346075], [13.411513650414157, 38.05994106743914], [13.411642393036256, 38.05994106558159], [13.411728215766948, 38.05972988100953], [13.41195351580861, 38.05972143011084], [13.411974975166261, 38.059797454884844], [13.41210371874192, 38.059839689830795], [13.412168083603058, 38.05961161132678], [13.412350469449418, 38.05961160711074], [13.412404116800577, 38.05976365816701], [13.412747432055877, 38.05978054745486], [13.412822525612198, 38.059586256968124], [13.412940539696017, 38.05959470169692], [13.41323021819014, 38.05975519731656], [13.413358963731959, 38.0599156941097], [13.413595006945174, 38.06033805367034], [13.413938321796302, 38.0603380483585], [13.413927604897557, 38.06076885794226], [13.413670122937916, 38.06089557123517], [13.413616493244788, 38.06130103656456], [13.413466294839107, 38.06138551026968], [13.413477033353232, 38.06168116039638], [13.413273193932037, 38.061807870596], [13.413004995032107, 38.062348487087064], [13.412404192367754, 38.06222179245222], [13.412028680648167, 38.06188391677254], [13.41210377227792, 38.061571371788894], [13.411599527760748, 38.06149535613483], [13.41156733967013, 38.06143622702159], [13.411610246695199, 38.061216600472044], [13.4114493145811, 38.06110678980784], [13.411234729848351, 38.06064219681831], [13.410955772373878, 38.060202944311705]]]}, "properties": {"anno": 2025, "id": 33315, "data": "2025-06-08", "localita": "Ciaculli", "sup_ha": 4.9243, "sup_boscata_ha": 0.0, "sup_non_boscata_ha": 4.9243, "altre_sup_forestali_ha": 0.0, "squadre_aib": 2, "fine_intervento": "2025-06-08", "durata_min": 211, "tipo_evento": "Incendio di vegetazione", "costo_spegnimento_eur": 15700.29, "feriti": 0, "periti": 0}}, {"type": "Feature", "geometry": {"type": "Polygon", "coordinates": [[[13.355135791304757, 38.149559544792844], [13.35483539698134, 38.14926847354356], [13.355173346978066, 38.149044888005555], [13.355731232039938, 38.14888035621532], [13.356187197484719, 38.14865254808112], [13.356745082367238, 38.14834458434827], [13.356755809293292, 38.148601916380635], [13.357125943027993, 38.148568161756955], [13.357195675121806, 38.14882127175819], [13.356879181538025, 38.14901111059985], [13.356605601692761, 38.149175636676745], [13.35597797946386, 38.14953000185272], [13.355135791304757, 38.149559544792844]]]}, "properties": {"anno": 2025, "id": 34131, "data": "2025-07-20", "localita": "Monte Pellegrino", "sup_ha": 1.3018, "sup_boscata_ha": 1.0842, "sup_non_boscata_ha": 0.2176, "altre_sup_forestali_ha": 0.0, "squadre_aib": 3, "fine_intervento": "2025-07-20", "durata_min": 231, "tipo_evento": "Incendio di vegetazione", "costo_spegnimento_eur": 4763.26, "feriti": 0, "periti": 0}}, {"type": "Feature", "geometry": {"type": "Polygon", "coordinates": [[[13.300761985732636, 38.136915644584434], [13.300788807145517, 38.13684391802852], [13.300928279068208, 38.136818601590576], [13.30104226919241, 38.136819655075364], [13.301141509180923, 38.13682914634193], [13.301234042302923, 38.136870282559904], [13.301319869606454, 38.13690720063904], [13.301388263334035, 38.13694517139526], [13.301415083506027, 38.13701057001806], [13.301456656039788, 38.137072801703795], [13.301464701242628, 38.13711393950749], [13.301394966428946, 38.13711288491549], [13.301370827298065, 38.137142420494094], [13.301341321489478, 38.13716351644722], [13.301301091263786, 38.13714874914699], [13.301255495669572, 38.13708651778925], [13.301215265152923, 38.137041161005534], [13.301097252024178, 38.13699580634927], [13.301000694810895, 38.13695888967809], [13.30089743236897, 38.13692619163702], [13.300834402694893, 38.136914589058605], [13.300761985732636, 38.136915644584434]]]}, "properties": {"anno": 2025, "id": 33708, "data": "2025-07-29", "localita": "Montagnola S. Rosalia", "sup_ha": 0.1012, "sup_boscata_ha": 0.0, "sup_non_boscata_ha": 0.1012, "altre_sup_forestali_ha": 0.0, "squadre_aib": 1, "fine_intervento": "2025-07-29", "durata_min": 63, "tipo_evento": "Incendio di vegetazione", "costo_spegnimento_eur": 144.9, "feriti": 0, "periti": 0}}]}