{"type": "FeatureCollection", "features": [{"type": "Feature", "geometry": {"type": "Polygon", "coordinates": [[[13.29617835344141, 38.19354059449508], [13.29618644750337, 38.19351514591793], [13.296196847238052, 38.19351580242717], [13.296206486637411, 38.193462114827454], [13.296200502081003, 38.19346128179535], [13.296205176906465, 38.19338038803892], [13.29614616527348, 38.19327498544331], [13.296162259782614, 38.19311056169862], [13.296285645239244, 38.192941914286685], [13.296457299728493, 38.192798568192735], [13.296682610512322, 38.19268473592856], [13.296773806883687, 38.192587765497954], [13.29684354538813, 38.19244441785896], [13.296945470345724, 38.192267339723315], [13.297004477994394, 38.19226312317257], [13.297111768871561, 38.192284207085876], [13.29718149857718, 38.192343233006575], [13.297154677628653, 38.192431768255055], [13.297004472732798, 38.19262992819882], [13.297127858755552, 38.192764842960514], [13.297267336110721, 38.192760627538576], [13.29717614131669, 38.192920840384616], [13.297079580717147, 38.192975644358256], [13.296945468050748, 38.19317801540308], [13.296827448248026, 38.193342445511675], [13.296655791164707, 38.19329184683994], [13.296569957888233, 38.19328341716167], [13.29651631254548, 38.19345205777283], [13.296559229449306, 38.19350686497985], [13.296693344565579, 38.19354902662018], [13.296559230721003, 38.193759832979545], [13.296500220373124, 38.19392847501171], [13.296446573637041, 38.19405073977089], [13.296371478982156, 38.194371151467166], [13.296355385610594, 38.19444282187679], [13.296285644571373, 38.194459685149496], [13.296162267327622, 38.19441753111279], [13.296162267404307, 38.194421741358575], [13.295781385685117, 38.19443860414302], [13.295727748658688, 38.19450606251906], [13.295738478618409, 38.19458195224463], [13.295808207631083, 38.19467049032209], [13.295904772310942, 38.19471264387473], [13.295936959205848, 38.194822263002614], [13.295995968945588, 38.195172190549535], [13.296038876493588, 38.19536190133876], [13.296071064790116, 38.19548416829744], [13.296189088168868, 38.19569917562708], [13.296231995930782, 38.1958298708344], [13.296210546769935, 38.19596899407799], [13.296033518186015, 38.196129195447135], [13.295717013487696, 38.19629783760187], [13.29533614278137, 38.19630626320047], [13.295207400104495, 38.19619665552429], [13.2950893746249, 38.19613341692142], [13.295239582668922, 38.195897326954345], [13.295475613340642, 38.19585937776339], [13.295550721521945, 38.19580035621839], [13.295684830537303, 38.19569917781092], [13.295743834786435, 38.19554319123945], [13.295770659096487, 38.19543779022313], [13.295443433415981, 38.19521855871773], [13.295277129651922, 38.19498246601262], [13.295293225958382, 38.194885501904736], [13.295336144893612, 38.19476323781678], [13.29531147571027, 38.19449570297392], [13.295323869271748, 38.19433769691434], [13.295299948202734, 38.19433606715258], [13.295298586730569, 38.1943163470052], [13.29537905956606, 38.19419408397328], [13.295561448330037, 38.19419829245673], [13.295727740565493, 38.194215161722006], [13.295808210867374, 38.194379580682416], [13.296022786437996, 38.19436693986569], [13.296001328549202, 38.1941982960753], [13.296022787662213, 38.19406760247635], [13.296001330218305, 38.193945336263475], [13.295963778145758, 38.19367550936072], [13.296071070203691, 38.19358275812921], [13.29617835344141, 38.19354059449508]]]}, "properties": {"anno": 2021, "id": 25285, "data": "2021-05-13", "localita": "Spinasanta", "sup_ha": 2.2686, "sup_boscata_ha": 0.0, "sup_non_boscata_ha": 2.2686, "altezza_scottatura": "1-2,5", "luogo_inizio": "strada comunale", "squadre_aib": 0}}, {"type": "Feature", "geometry": {"type": "Polygon", "coordinates": [[[13.303161437573463, 38.10250173777186], [13.303391137764438, 38.10280970091937], [13.30340381952241, 38.103018217748485], [13.303443459918107, 38.10312303504611], [13.303508734762609, 38.10327656539095], [13.303515845978879, 38.10329932823666], [13.303579858622276, 38.10335443697378], [13.30367642038452, 38.1034979617665], [13.303815896005979, 38.10356550141951], [13.303848086772732, 38.10380188587491], [13.30340820135966, 38.10417335632586], [13.303054147365982, 38.10437597473469], [13.302893217025087, 38.1044350687631], [13.302721555657442, 38.104460400760026], [13.302292401834473, 38.104468838849044], [13.302335318200152, 38.1044941703108], [13.301637940879797, 38.10419868367229], [13.30149846949161, 38.10423244930592], [13.301165874342322, 38.10420712713793], [13.300790363767483, 38.10424089895086], [13.300286106390155, 38.10422401511368], [13.299363433993483, 38.103996068620525], [13.29865533110559, 38.10377655868596], [13.29810815064488, 38.1037090257443], [13.297743372037848, 38.10352329191091], [13.297614624985657, 38.10322780423007], [13.297614626623155, 38.102923871938344], [13.2976575427287, 38.102493298027746], [13.297850666634236, 38.102223133209584], [13.298140339575124, 38.102248463767125], [13.298505123446422, 38.102316000554694], [13.298848446891201, 38.102493294486976], [13.299202500536909, 38.10260304895101], [13.299288327296578, 38.102375098413084], [13.299352702902553, 38.10205427538162], [13.299352698195362, 38.1016321469751], [13.299449257406334, 38.10129443396469], [13.299663832754073, 38.10125222425293], [13.299985698777393, 38.10128599434164], [13.300168095275334, 38.10133664860894], [13.300125178023867, 38.101581487976844], [13.300082260092779, 38.10193608007178], [13.300050072513603, 38.10225690163543], [13.299942789711372, 38.10281411860634], [13.300007156015019, 38.10294919506674], [13.300371939250144, 38.10305050316156], [13.300586511751911, 38.10305050659066], [13.300779639669113, 38.1031096033277], [13.30098347886264, 38.10311805072124], [13.301090775825697, 38.103033620193784], [13.301069316776015, 38.102873210024065], [13.301058581125565, 38.102771901944244], [13.301080038747136, 38.102645268628685], [13.300983484522966, 38.10251862182704], [13.300822547756983, 38.1024004294634], [13.30088692665464, 38.10225690530885], [13.301015665477074, 38.10209649026056], [13.30110150291274, 38.10194452227791], [13.301187335624336, 38.10165747554296], [13.301273158132561, 38.10137886541662], [13.301273160812116, 38.10112558278112], [13.301155148699516, 38.100922953801415], [13.300983488124787, 38.100610573707115], [13.301004939975984, 38.100424830134386], [13.300768906798677, 38.09997735924456], [13.300951293345392, 38.09990981527851], [13.301165870022086, 38.09991825356343], [13.301358988159436, 38.10001112716285], [13.301691588383065, 38.1001799858255], [13.302013453906882, 38.100357282037656], [13.30223875605007, 38.10059368250456], [13.302474791273704, 38.10095672355214], [13.302796652672335, 38.10148861537454], [13.302946862544268, 38.10202895164805], [13.303000508184642, 38.102307556544034], [13.303161437573463, 38.10250173777186]]]}, "properties": {"anno": 2021, "id": 25457, "data": "2021-05-17", "localita": "poggio ridente", "sup_ha": 13.3644, "sup_boscata_ha": 1.0718, "sup_non_boscata_ha": 12.2926, "altezza_scottatura": "1-2,5", "luogo_inizio": "incolto e pascolo", "squadre_aib": 3}}, {"type": "Feature", "geometry": {"type": "Polygon", "coordinates": [[[13.346748962313237, 38.159094693606576], [13.346706046321724, 38.158917537251654], [13.346920623319114, 38.15863914551387], [13.347027911219143, 38.158546347878506], [13.347124471195873, 38.15843667870433], [13.347339047874732, 38.15831857293391], [13.347607268216118, 38.15823421105023], [13.348229541733865, 38.15794738078666], [13.348336829598761, 38.15782927418753], [13.348465575418683, 38.15750869652531], [13.348529948997372, 38.157365281266756], [13.348776711822026, 38.157019393554286], [13.34889472936075, 38.15681692136376], [13.349227322860438, 38.156319176500865], [13.349334611693715, 38.15610826667237], [13.349431171061271, 38.155981720057014], [13.349635018784602, 38.15593110235022], [13.349817408782773, 38.15588048371942], [13.350182188883913, 38.15585517424719], [13.350514783809917, 38.15589735663513], [13.350514783193512, 38.15590579254217], [13.350772275315913, 38.15587204667606], [13.351233615504334, 38.155703317879], [13.35153402310233, 38.15558520726542], [13.351855887279445, 38.15548396969057], [13.352327957088786, 38.15532367616746], [13.352510347220711, 38.155247748265715], [13.352746381586721, 38.15523087430185], [13.352907313356745, 38.15524774805272], [13.353036059401505, 38.15524774709011], [13.35340084061586, 38.15536585894415], [13.353572501046854, 38.15545022360046], [13.35366906075222, 38.15552615170701], [13.353593959453544, 38.15577080914602], [13.353508127996063, 38.15595641152327], [13.353272093665778, 38.15619263078671], [13.352971686272697, 38.15639510411949], [13.35282148257817, 38.15642884954652], [13.352585448093874, 38.15651321366273], [13.352360142917638, 38.15658914054002], [13.352156294796252, 38.15669037666682], [13.351888074641701, 38.15684223008757], [13.351641310784887, 38.157019393551685], [13.351394548038895, 38.1571965555958], [13.351351632979611, 38.157348408700344], [13.35121215767923, 38.157550878574895], [13.350954665423053, 38.157685858114206], [13.350654257871751, 38.15792207261139], [13.350332392704564, 38.15820046630024], [13.350225105284753, 38.15856322070259], [13.350053443299023, 38.15889222882785], [13.34967793396576, 38.159263416093204], [13.349570645269914, 38.159339339824236], [13.349377526843625, 38.159491188562725], [13.349291695498328, 38.15965990858833], [13.349162949831346, 38.159744268978436], [13.348830356350028, 38.1598201925914], [13.348508490433257, 38.15984550019555], [13.348197355281593, 38.15982862783897], [13.34788621850654, 38.159786448714385], [13.347510709574523, 38.15979488484715], [13.347360505738704, 38.15976957633405], [13.347210302134044, 38.159676780374106], [13.347060098136739, 38.159524932866695], [13.346748962313237, 38.159094693606576]]]}, "properties": {"anno": 2021, "id": 25293, "data": "2021-05-23", "localita": "Monte Pellegrino", "sup_ha": 12.5744, "sup_boscata_ha": 4.1813, "sup_non_boscata_ha": 0.0, "altezza_scottatura": "<1", "luogo_inizio": "bosco", "squadre_aib": 0}}, {"type": "Feature", "geometry": {"type": "Polygon", "coordinates": [[[13.365602005708919, 38.1569751722658], [13.365596641781474, 38.156907682261064], [13.365757573836163, 38.15678113755039], [13.365840722570114, 38.156757937742135], [13.36591314239187, 38.15675582843512], [13.366133083311214, 38.156745283094835], [13.366205503750358, 38.15675582796195], [13.366264511874055, 38.156728410576285], [13.366385210848783, 38.15673895567893], [13.366468359826065, 38.15673895536286], [13.3663852110045, 38.15663982876473], [13.366366435400145, 38.1566039737021], [13.366430808422512, 38.15658710166302], [13.366489817370832, 38.15657866479213], [13.36660783449461, 38.156576555857164], [13.366664160803829, 38.156572337846356], [13.366725851729003, 38.15665670096317], [13.36674194512953, 38.15671364678871], [13.366758038260045, 38.15674528301285], [13.367071856222426, 38.15665881066647], [13.367189873979756, 38.15665248273955], [13.367267657564396, 38.1566524829448], [13.367268716558899, 38.156654536135974], [13.367299844576241, 38.15664404668879], [13.367334712729804, 38.15670310091239], [13.36736153517506, 38.15675793748622], [13.367393721336818, 38.156816992250114], [13.367417861763672, 38.156882372255865], [13.36742858988967, 38.15691400949434], [13.367428590768156, 38.15696642745165], [13.36745273048468, 38.156998371917346], [13.367498328066832, 38.15708062651216], [13.36756806540391, 38.157135462205396], [13.367675353851293, 38.15715444382249], [13.367753137308293, 38.15713968060351], [13.367833604227583, 38.15709117125581], [13.36790870647781, 38.156865500304114], [13.367908706445553, 38.15683386443229], [13.36791695948086, 38.156834673955565], [13.36793016392152, 38.156751610225605], [13.367973078558963, 38.15674950047203], [13.368037452539292, 38.15675371964661], [13.368088413226548, 38.15676426428239], [13.368128647351615, 38.15681277246315], [13.368131328854938, 38.15685073763102], [13.36813253896573, 38.156853590457764], [13.368235935836445, 38.15686128248347], [13.368268122004213, 38.156827537252], [13.368305672617666, 38.156802226791], [13.368328722237745, 38.15681033057323], [13.36843710062336, 38.156821209722935], [13.368501474500324, 38.1568275374001], [13.36861412630543, 38.15685284595805], [13.368764330960301, 38.156876046475944], [13.368879665658898, 38.1568823735789], [13.368954767795461, 38.156890809201066], [13.369000364360977, 38.15690346248612], [13.36904596200446, 38.156928772822184], [13.369043746386332, 38.15695230155958], [13.369062056372487, 38.15695829999753], [13.369070102317266, 38.157048990117566], [13.369048644314113, 38.157124917357095], [13.36902450512862, 38.1572029530553], [13.36899768305333, 38.15727677001199], [13.36897354342805, 38.157333715409315], [13.368954767994511, 38.15745182260238], [13.368995001098313, 38.15752142165714], [13.369021822393517, 38.15759312970604], [13.36903791550952, 38.15765007432051], [13.369029869175352, 38.157736545983354], [13.369019140742774, 38.15773654475525], [13.369005729784627, 38.15774076253065], [13.3687723771033, 38.157688037207464], [13.368504156403146, 38.15763320212086], [13.368262757294307, 38.15758891076238], [13.368021358400966, 38.15752353043627], [13.367779960389143, 38.157485567080535], [13.36760025218602, 38.15743705917526], [13.367334713064281, 38.157392769152445], [13.367128183263258, 38.15734426066718], [13.366961886381203, 38.15731473236693], [13.366779495700593, 38.15729575176249], [13.366731216015774, 38.15730207876187], [13.366666843030579, 38.15735058772499], [13.366599787725901, 38.15738222262418], [13.366516639776338, 38.157386440555676], [13.366355706433943, 38.15728309750575], [13.366344978095531, 38.15724724355843], [13.366328884651786, 38.15724513438272], [13.36607139275832, 38.15719662511572], [13.365907778425711, 38.15716077123893], [13.365752209691085, 38.157122807710806], [13.365650285841047, 38.15706375332207], [13.365602005708919, 38.1569751722658]]]}, "properties": {"anno": 2021, "id": 26695, "data": "2021-09-25", "localita": "Monte Pellegrino", "sup_ha": 2.0194, "sup_boscata_ha": 0.4227, "sup_non_boscata_ha": 1.5019, "altezza_scottatura": "1-2,5", "luogo_inizio": "bosco", "squadre_aib": 3}}]}